{"type":"FeatureCollection","features":[{"type":"Feature","geometry":{"type":"Polygon","coordinates":[[[134.334134,34.074113],[134.333043,34.073722],[134.332043,34.073371],[134.329917,34.072533],[134.329306,34.072243],[134.328486,34.071907],[134.327672,34.071574],[134.326911,34.071308],[134.325534,34.070878],[134.325274,34.070557],[134.322611,34.069434],[134.31427,34.068402],[134.313934,34.068415],[134.313676,34.068465],[134.313509,34.068493],[134.312819,34.068434],[134.312123,34.069212],[134.310581,34.070978],[134.309102,34.070038],[134.308596,34.070976],[134.306743,34.070698],[134.305674,34.07053],[134.303636,34.070209],[134.302513,34.070023],[134.30197,34.069947],[134.297579,34.06922],[134.296359,34.069045],[134.296217,34.069025],[134.294621,34.068796],[134.293513,34.068761],[134.291774,34.068694],[134.288708,34.068546],[134.288518,34.068543],[134.287753,34.068533],[134.287672,34.069918],[134.286901,34.069908],[134.286521,34.069903],[134.286043,34.069874],[134.285758,34.069821],[134.28516,34.069796],[134.284933,34.069804],[134.28488,34.0701],[134.282014,34.070002],[134.281756,34.07],[134.280549,34.069989],[134.279427,34.069978],[134.279425,34.069394],[134.275477,34.069365],[134.273995,34.069321],[134.273948,34.069321],[134.271735,34.069337],[134.270378,34.069314],[134.270059,34.069308],[134.269652,34.069336],[134.269138,34.069372],[134.268772,34.069397],[134.267982,34.069459],[134.267427,34.069471],[134.266811,34.069484],[134.266371,34.069494],[134.26477,34.069627],[134.264496,34.069641],[134.264149,34.069658],[134.262497,34.069741],[134.262131,34.069759],[134.261815,34.069783],[134.261186,34.069832],[134.260401,34.069892],[134.258561,34.070035],[134.258039,34.070053],[134.257587,34.070075],[134.256107,34.070148],[134.255753,34.070169],[134.255519,34.070182],[134.253652,34.07029],[134.252073,34.070378],[134.251586,34.070431],[134.248677,34.070599],[134.248644,34.0706],[134.246417,34.070686],[134.245705,34.0708],[134.245153,34.07084],[134.244212,34.070908],[134.243477,34.070922],[134.242566,34.07064],[134.241438,34.070338],[134.241049,34.070246],[134.240752,34.070162],[134.238644,34.069562],[134.2382,34.069433],[134.237331,34.06918],[134.237195,34.069135],[134.235953,34.068836],[134.235779,34.068794],[134.23443,34.068494],[134.231978,34.067968],[134.231949,34.067962],[134.231676,34.067897],[134.231583,34.067875],[134.230769,34.067682],[134.229079,34.067289],[134.22771,34.066924],[134.22727,34.066806],[134.2265,34.066634],[134.226414,34.066614],[134.226306,34.06659],[134.226187,34.066562],[134.226042,34.066548],[134.225902,34.066542],[134.224438,34.066516],[134.224251,34.066511],[134.223839,34.066504],[134.221034,34.066399],[134.218875,34.0663],[134.217234,34.066227],[134.216947,34.066218],[134.216518,34.066206],[134.21525,34.066142],[134.213006,34.066068],[134.211189,34.065965],[134.211147,34.065963],[134.210384,34.065928],[134.209456,34.065906],[134.208706,34.065887],[134.208216,34.065847],[134.206846,34.065804],[134.206638,34.065798],[134.20588,34.065771],[134.204788,34.065689],[134.204637,34.065677],[134.204375,34.065658],[134.203843,34.065618],[134.201515,34.065504],[134.200398,34.065459],[134.200186,34.065451],[134.199843,34.065428],[134.199206,34.065399],[134.199041,34.065385],[134.198198,34.065316],[134.198144,34.065311],[134.197535,34.065261],[134.19742,34.065252],[134.19739,34.06525],[134.197126,34.065239],[134.196202,34.065219],[134.194939,34.065103],[134.194484,34.065065],[134.194124,34.065044],[134.194021,34.065038],[134.193441,34.064936],[134.192846,34.064844],[134.191424,34.064611],[134.190882,34.064528],[134.189561,34.064326],[134.188534,34.064173],[134.187688,34.06399],[134.186957,34.063842],[134.186299,34.063745],[134.186735,34.063461],[134.187075,34.063218],[134.187563,34.062794],[134.187725,34.062625],[134.187915,34.062428],[134.188217,34.062077],[134.188453,34.061779],[134.188558,34.061639],[134.188691,34.061457],[134.188813,34.061207],[134.189034,34.06067],[134.189092,34.060443],[134.189127,34.060271],[134.189213,34.060115],[134.189295,34.060029],[134.189414,34.059938],[134.189558,34.059872],[134.189697,34.059816],[134.19008,34.059723],[134.190434,34.059633],[134.190599,34.059593],[134.190645,34.059558],[134.190702,34.059502],[134.190753,34.05942],[134.19084,34.059282],[134.191107,34.058749],[134.191234,34.058412],[134.191313,34.058289],[134.191385,34.058181],[134.191513,34.058043],[134.191647,34.057917],[134.191842,34.057787],[134.192002,34.057648],[134.192169,34.05749],[134.19223,34.057378],[134.192276,34.057279],[134.192272,34.05716],[134.192281,34.057052],[134.192286,34.056932],[134.19229,34.056807],[134.192299,34.056704],[134.192235,34.05642],[134.192027,34.055832],[134.192004,34.055686],[134.192014,34.055534],[134.192029,34.055392],[134.192023,34.055291],[134.191983,34.055153],[134.191865,34.05487],[134.191669,34.054504],[134.191541,34.05438],[134.191402,34.054262],[134.191263,34.054157],[134.191207,34.054052],[134.191167,34.053905],[134.191139,34.053772],[134.191055,34.053667],[134.190902,34.053574],[134.19077,34.053533],[134.190598,34.053456],[134.190476,34.053374],[134.190398,34.053269],[134.19026,34.052974],[134.190181,34.0528],[134.190064,34.052659],[134.189772,34.052387],[134.18965,34.052236],[134.189599,34.05214],[134.189537,34.051888],[134.189526,34.051831],[134.189505,34.051712],[134.189526,34.051546],[134.189519,34.051436],[134.189435,34.051308],[134.189341,34.051226],[134.189257,34.051094],[134.189236,34.050903],[134.189262,34.050669],[134.189294,34.050513],[134.189442,34.050124],[134.18949,34.049936],[134.189512,34.049835],[134.18943,34.049649],[134.18939,34.049503],[134.189401,34.049425],[134.189439,34.049351],[134.189658,34.049212],[134.189884,34.049105],[134.190076,34.04904],[134.190313,34.048951],[134.190478,34.048923],[134.190627,34.048895],[134.190982,34.048826],[134.191126,34.048779],[134.191285,34.04871],[134.191378,34.048636],[134.191565,34.048501],[134.191762,34.048331],[134.191959,34.048169],[134.192088,34.048014],[134.19217,34.047899],[134.192263,34.047793],[134.192394,34.047696],[134.192603,34.047585],[134.192897,34.047466],[134.193062,34.047387],[134.193216,34.047331],[134.193365,34.047266],[134.19365,34.047104],[134.194034,34.046744],[134.194178,34.046611],[134.194508,34.046207],[134.195978,34.044819],[134.196691,34.044071],[134.196837,34.043918],[134.196925,34.043826],[134.197471,34.043253],[134.197504,34.043218],[134.197795,34.042984],[134.197945,34.042813],[134.197999,34.042723],[134.198017,34.042626],[134.198019,34.042615],[134.198007,34.042436],[134.197962,34.042233],[134.19794,34.042131],[134.197894,34.041773],[134.198177,34.040391],[134.198206,34.040247],[134.198248,34.04005],[134.198257,34.039781],[134.198212,34.03953],[134.198199,34.039279],[134.198088,34.039019],[134.197903,34.038787],[134.197804,34.038671],[134.197803,34.038474],[134.197839,34.03837],[134.197887,34.038231],[134.197897,34.038052],[134.197709,34.037596],[134.197533,34.037229],[134.197528,34.037218],[134.197326,34.036882],[134.197258,34.03674],[134.197248,34.036639],[134.197312,34.036536],[134.197475,34.036406],[134.198024,34.035984],[134.198175,34.035868],[134.198283,34.035773],[134.198379,34.035686],[134.198459,34.035468],[134.198613,34.034941],[134.198716,34.034504],[134.198732,34.034078],[134.198701,34.033893],[134.198654,34.033779],[134.198557,34.033699],[134.198322,34.0336],[134.198181,34.033536],[134.198039,34.033502],[134.197921,34.033468],[134.197829,34.033427],[134.197803,34.03334],[134.197802,34.033242],[134.197889,34.032829],[134.197969,34.032176],[134.198038,34.031842],[134.198061,34.031678],[134.198067,34.031572],[134.197942,34.031099],[134.197878,34.030774],[134.197867,34.030468],[134.197871,34.030374],[134.197922,34.030019],[134.197921,34.029904],[134.197837,34.029779],[134.197647,34.029595],[134.197037,34.029016],[134.196163,34.028236],[134.195786,34.027885],[134.195697,34.027802],[134.194742,34.026953],[134.194057,34.026332],[134.193376,34.025704],[134.193012,34.025367],[134.192636,34.025021],[134.191897,34.024362],[134.19106,34.023623],[134.190224,34.022885],[134.189509,34.022208],[134.188624,34.021437],[134.188294,34.021239],[134.187816,34.020812],[134.187243,34.0203],[134.186663,34.019751],[134.186515,34.019595],[134.186325,34.019422],[134.186039,34.019153],[134.185683,34.018857],[134.185548,34.018757],[134.18538,34.018598],[134.185114,34.01839],[134.184925,34.018255],[134.184733,34.018095],[134.184531,34.017936],[134.184379,34.017801],[134.183728,34.017169],[134.183437,34.01692],[134.183133,34.016584],[134.182948,34.016376],[134.182775,34.016193],[134.182682,34.016124],[134.182671,34.016084],[134.182665,34.016061],[134.182815,34.016008],[134.18303,34.01595],[134.183189,34.015928],[134.183394,34.015902],[134.183515,34.015874],[134.18384,34.015785],[134.184011,34.015735],[134.184191,34.015651],[134.184349,34.015587],[134.184549,34.015503],[134.184835,34.01544],[134.185131,34.015228],[134.185571,34.014879],[134.185968,34.014562],[134.186164,34.014432],[134.186293,34.014372],[134.186439,34.014309],[134.186573,34.014263],[134.186717,34.014225],[134.186808,34.014204],[134.186996,34.014126],[134.187238,34.013996],[134.187646,34.013778],[134.187904,34.013616],[134.188447,34.013288],[134.189174,34.012847],[134.18924,34.012784],[134.189273,34.012721],[134.189281,34.012662],[134.189288,34.012477],[134.189277,34.012192],[134.18925,34.011644],[134.189231,34.011355],[134.189198,34.011232],[134.189135,34.011159],[134.188967,34.011073],[134.188879,34.011035],[134.188853,34.010952],[134.188823,34.010799],[134.188813,34.010639],[134.188757,34.01042],[134.18865,34.010173],[134.188406,34.009696],[134.18833,34.009655],[134.188254,34.00961],[134.188204,34.009561],[134.188153,34.009429],[134.188024,34.009065],[134.187949,34.008855],[134.187864,34.008632],[134.187762,34.00841],[134.187672,34.008243],[134.187606,34.008072],[134.187504,34.007651],[134.187454,34.007464],[134.187398,34.007381],[134.187279,34.00732],[134.187071,34.00721],[134.186971,34.007141],[134.186872,34.007029],[134.186822,34.006926],[134.186715,34.00665],[134.186699,34.006562],[134.186726,34.006461],[134.186762,34.006435],[134.186837,34.00638],[134.186902,34.006344],[134.187057,34.006289],[134.187835,34.006015],[134.187968,34.005968],[134.188144,34.005884],[134.188351,34.005767],[134.188431,34.005712],[134.188483,34.005642],[134.188506,34.005563],[134.188514,34.005468],[134.188536,34.005419],[134.188597,34.005356],[134.188708,34.005268],[134.18877,34.005224],[134.188809,34.005056],[134.188861,34.004988],[134.188935,34.004918],[134.189007,34.004883],[134.189088,34.004828],[134.189168,34.004753],[134.189192,34.004686],[134.189218,34.00462],[134.189229,34.004491],[134.189231,34.004382],[134.189268,34.004325],[134.189475,34.004169],[134.1898,34.003903],[134.190086,34.003685],[134.190378,34.00346],[134.190516,34.003327],[134.190636,34.003231],[134.190746,34.003178],[134.190891,34.003112],[134.191058,34.003073],[134.191226,34.003048],[134.191446,34.003021],[134.191745,34.002969],[134.191884,34.002935],[134.192029,34.002888],[134.192453,34.002702],[134.192723,34.002578],[134.192874,34.002489],[134.192979,34.002411],[134.193197,34.002149],[134.193436,34.001904],[134.193519,34.001816],[134.193617,34.001756],[134.193726,34.001714],[134.19395,34.001668],[134.194374,34.001572],[134.194676,34.001495],[134.195128,34.00136],[134.19527,34.001303],[134.195786,34.001065],[134.195994,34.000949],[134.196056,34.000902],[134.19613,34.000817],[134.196163,34.000747],[134.196219,34.000682],[134.196327,34.000604],[134.196657,34.000411],[134.196859,34.000272],[134.197081,34.000116],[134.197247,33.999988],[134.197315,33.999908],[134.197407,33.999814],[134.197524,33.999721],[134.197637,33.999557],[134.197825,33.999016],[134.197825,33.998682],[134.198012,33.997374],[134.197962,33.996383],[134.1981,33.995433],[134.1982,33.995116],[134.198331,33.995008],[134.198362,33.994983],[134.198609,33.99471],[134.198859,33.994396],[134.199019,33.994084],[134.199099,33.993903],[134.199111,33.99366],[134.199024,33.993423],[134.198875,33.993],[134.198612,33.992075],[134.198237,33.991692],[134.197887,33.991375],[134.19735,33.990675],[134.196725,33.990242],[134.19635,33.990067],[134.196112,33.989792],[134.195787,33.989075],[134.19635,33.989075],[134.19705,33.989142],[134.197562,33.989142],[134.197937,33.989008],[134.198287,33.988733],[134.199075,33.988492],[134.199375,33.988334],[134.199662,33.987792],[134.199987,33.987634],[134.200337,33.987517],[134.200387,33.987475],[134.20045,33.987001],[134.200587,33.986842],[134.201087,33.986617],[134.201549,33.98635],[134.201924,33.986034],[134.202337,33.985584],[134.202649,33.985084],[134.202874,33.984392],[134.202936,33.984246],[134.203203,33.983956],[134.203437,33.983801],[134.203553,33.983695],[134.203624,33.983468],[134.20379,33.983013],[134.204106,33.982776],[134.204512,33.982543],[134.205537,33.982343],[134.205887,33.982201],[134.206149,33.982184],[134.206287,33.982201],[134.206987,33.982068],[134.207474,33.982026],[134.207774,33.981909],[134.207849,33.981709],[134.208687,33.981484],[134.209111,33.981534],[134.209761,33.981484],[134.210536,33.98126],[134.211299,33.980793],[134.211561,33.98081],[134.211936,33.980901],[134.213224,33.980859],[134.215086,33.98061],[134.215598,33.98046],[134.216334,33.980443],[134.216998,33.980343],[134.217323,33.980235],[134.217848,33.980081],[134.218551,33.979665],[134.219036,33.979351],[134.219898,33.97931],[134.220486,33.979376],[134.221223,33.979426],[134.221836,33.979426],[134.222373,33.979243],[134.222835,33.97916],[134.223235,33.979226],[134.223885,33.979135],[134.22426,33.978977],[134.224635,33.978868],[134.224803,33.978875],[134.224847,33.978877],[134.225035,33.978885],[134.225548,33.979043],[134.226085,33.979277],[134.22651,33.979318],[134.226998,33.979293],[134.227397,33.979452],[134.22816,33.979951],[134.228455,33.980076],[134.228667,33.980153],[134.228956,33.980244],[134.229872,33.980385],[134.230547,33.980385],[134.231485,33.980268],[134.23181,33.980185],[134.232434,33.98016],[134.233047,33.980252],[134.233422,33.980277],[134.233747,33.980202],[134.234534,33.979802],[134.234772,33.979802],[134.235384,33.979985],[134.235872,33.980002],[134.236359,33.979985],[134.236809,33.979852],[134.237459,33.979735],[134.238084,33.97976],[134.238541,33.979851],[134.238671,33.979877],[134.239321,33.980169],[134.240009,33.980502],[134.240421,33.980644],[134.240796,33.980685],[134.241096,33.980619],[134.241984,33.980102],[134.242646,33.979835],[134.243183,33.979785],[134.244458,33.97981],[134.244933,33.979902],[134.245771,33.980286],[134.246283,33.980402],[134.246708,33.980377],[134.24734,33.980464],[134.248183,33.980652],[134.249658,33.980627],[134.251433,33.980544],[134.25167,33.980836],[134.252457,33.981335],[134.25297,33.981719],[134.253495,33.982394],[134.253745,33.983069],[134.253682,33.98361],[134.25377,33.984468],[134.25392,33.984668],[134.254024,33.984719],[134.25522,33.985302],[134.255645,33.985752],[134.25607,33.986118],[134.256257,33.986227],[134.257607,33.986227],[134.258382,33.986277],[134.259082,33.98621],[134.259782,33.986252],[134.260439,33.986405],[134.260569,33.986435],[134.261294,33.98646],[134.261719,33.986552],[134.261994,33.98696],[134.262282,33.987518],[134.262794,33.987677],[134.263519,33.987702],[134.264269,33.98791],[134.265131,33.988018],[134.265756,33.988135],[134.266206,33.988068],[134.266481,33.98816],[134.266831,33.988518],[134.267419,33.988835],[134.268794,33.98881],[134.269106,33.988885],[134.269594,33.989427],[134.270431,33.990168],[134.271131,33.990552],[134.271656,33.991027],[134.272381,33.991593],[134.27303,33.992018],[134.273868,33.992243],[134.274105,33.992335],[134.274172,33.992392],[134.274718,33.99286],[134.275293,33.992768],[134.275743,33.99261],[134.27618,33.992635],[134.27688,33.992518],[134.27758,33.992568],[134.278217,33.992368],[134.278792,33.991985],[134.279892,33.992118],[134.281267,33.991893],[134.281829,33.991626],[134.282188,33.991354],[134.282279,33.991285],[134.282501,33.991258],[134.283042,33.99151],[134.283891,33.992326],[134.284379,33.992893],[134.285104,33.993434],[134.285554,33.9936],[134.285828,33.993701],[134.286391,33.993843],[134.286528,33.993926],[134.286591,33.994048],[134.286716,33.994292],[134.286828,33.994834],[134.287116,33.995392],[134.287278,33.995551],[134.287491,33.996001],[134.287578,33.9965],[134.287765,33.996925],[134.288053,33.997334],[134.28814,33.998283],[134.288615,33.99905],[134.288665,33.999933],[134.288777,34.000491],[134.28894,34.000858],[134.289202,34.001283],[134.289365,34.001441],[134.289937,34.001749],[134.290397,34.001996],[134.290714,34.002166],[134.291139,34.002433],[134.291203,34.002445],[134.291489,34.002499],[134.292077,34.002299],[134.292677,34.002233],[134.293314,34.002441],[134.293989,34.002574],[134.294801,34.002458],[134.295764,34.002391],[134.296226,34.002666],[134.296576,34.003024],[134.296688,34.003316],[134.296826,34.003599],[134.297151,34.004366],[134.297288,34.004549],[134.297776,34.004882],[134.298051,34.005199],[134.298163,34.005399],[134.298326,34.005874],[134.298488,34.006007],[134.298813,34.006416],[134.298926,34.006482],[134.299464,34.006341],[134.300739,34.005774],[134.300976,34.005707],[134.301301,34.005566],[134.301764,34.005116],[134.302114,34.005066],[134.302201,34.005091],[134.302667,34.005101],[134.302779,34.005103],[134.303014,34.005108],[134.303316,34.005119],[134.304126,34.005149],[134.304689,34.005108],[134.305076,34.005124],[134.305376,34.005191],[134.305839,34.005233],[134.306102,34.005141],[134.306352,34.005166],[134.306652,34.005249],[134.307214,34.005366],[134.307952,34.005383],[134.308214,34.005341],[134.308652,34.005399],[134.309277,34.005716],[134.309552,34.006049],[134.309689,34.006299],[134.310077,34.006816],[134.310339,34.007041],[134.310539,34.007291],[134.310752,34.007449],[134.311239,34.007649],[134.311927,34.007666],[134.312514,34.007599],[134.313189,34.007324],[134.313839,34.006941],[134.313862,34.006931],[134.314576,34.006616],[134.314714,34.006579],[134.314976,34.006508],[134.315814,34.006408],[134.316901,34.006358],[134.317476,34.006291],[134.317901,34.006066],[134.318389,34.005949],[134.318501,34.005949],[134.318739,34.005816],[134.318964,34.005449],[134.319014,34.005266],[134.319114,34.0052],[134.319576,34.004999],[134.320251,34.004924],[134.320689,34.004966],[134.320964,34.004899],[134.321201,34.004716],[134.321639,34.004516],[134.321989,34.004425],[134.322501,34.004175],[134.3235,34.003692],[134.323882,34.003477],[134.324226,34.003241],[134.324466,34.00309],[134.324663,34.002966],[134.324743,34.002932],[134.324876,34.002875],[134.325063,34.002875],[134.325113,34.002925],[134.32499,34.003109],[134.324893,34.003352],[134.324588,34.004033],[134.324326,34.004774],[134.323951,34.005208],[134.323651,34.005383],[134.323651,34.005458],[134.323976,34.005674],[134.324113,34.005833],[134.324063,34.006333],[134.323876,34.006691],[134.323551,34.007058],[134.323463,34.007233],[134.323438,34.007533],[134.323501,34.007732],[134.323501,34.00788],[134.323501,34.007958],[134.323363,34.008524],[134.323401,34.008699],[134.323563,34.008857],[134.324163,34.009174],[134.324401,34.009374],[134.324651,34.009941],[134.324813,34.010166],[134.325513,34.010207],[134.325609,34.010259],[134.326088,34.010516],[134.3265,34.010541],[134.326763,34.010582],[134.326963,34.010782],[134.32715,34.011124],[134.327663,34.011524],[134.327838,34.011974],[134.32805,34.01229],[134.328538,34.012582],[134.3287,34.012765],[134.329063,34.013007],[134.32925,34.013074],[134.329987,34.013232],[134.330175,34.01334],[134.330239,34.013497],[134.33025,34.013524],[134.33015,34.013857],[134.329775,34.014607],[134.329775,34.014765],[134.329862,34.014965],[134.330227,34.01533],[134.330287,34.01539],[134.33047,34.015829],[134.3306,34.01614],[134.330737,34.016673],[134.3309,34.016923],[134.330812,34.017173],[134.330625,34.017423],[134.33055,34.017715],[134.3306,34.01794],[134.330825,34.018206],[134.331337,34.01859],[134.331825,34.018815],[134.332562,34.019423],[134.332862,34.019598],[134.333549,34.01994],[134.333949,34.020181],[134.334087,34.020406],[134.334062,34.020565],[134.334087,34.020681],[134.334037,34.020948],[134.334062,34.021223],[134.334212,34.022031],[134.334312,34.022298],[134.334374,34.022639],[134.334433,34.022774],[134.334462,34.022839],[134.334674,34.023131],[134.334812,34.023406],[134.335087,34.024256],[134.334924,34.024872],[134.335028,34.025106],[134.335124,34.025322],[134.335124,34.025881],[134.335174,34.026089],[134.335212,34.026672],[134.335074,34.026964],[134.334887,34.027189],[134.334724,34.027889],[134.334649,34.02803],[134.334624,34.028189],[134.334649,34.028322],[134.334574,34.028997],[134.334837,34.029628],[134.334926,34.0298],[134.334999,34.029995],[134.335167,34.030353],[134.335243,34.030491],[134.33533,34.030631],[134.335371,34.030706],[134.335411,34.030798],[134.335457,34.030917],[134.335488,34.030985],[134.335525,34.031049],[134.335566,34.031105],[134.335611,34.031156],[134.335657,34.031195],[134.335778,34.031287],[134.335853,34.031337],[134.335936,34.031379],[134.336036,34.031415],[134.336133,34.031441],[134.336224,34.031459],[134.336305,34.03147],[134.33638,34.031474],[134.336465,34.03147],[134.336575,34.031461],[134.336693,34.031446],[134.336912,34.031408],[134.337019,34.031402],[134.337188,34.031461],[134.337373,34.031538],[134.337639,34.031684],[134.337661,34.031695],[134.337904,34.031796],[134.338179,34.031869],[134.338362,34.031819],[134.338609,34.031758],[134.338922,34.031713],[134.339333,34.031674],[134.339766,34.031625],[134.340245,34.031638],[134.340611,34.031635],[134.341042,34.031687],[134.341491,34.031672],[134.341916,34.031622],[134.342205,34.031533],[134.34222,34.031529],[134.342519,34.031475],[134.342708,34.031487],[134.342789,34.031492],[134.342923,34.0316],[134.34293,34.031606],[134.342898,34.031688],[134.34289,34.031724],[134.342902,34.031818],[134.342934,34.031883],[134.342991,34.032004],[134.343033,34.032066],[134.343086,34.032117],[134.343155,34.032153],[134.343242,34.032179],[134.343348,34.032202],[134.343591,34.032259],[134.34374,34.032294],[134.343764,34.032307],[134.343778,34.032328],[134.343796,34.032363],[134.343842,34.032459],[134.343889,34.032549],[134.343923,34.032595],[134.343969,34.032646],[134.344087,34.03276],[134.344197,34.032854],[134.344206,34.032859],[134.344446,34.032971],[134.34449,34.032991],[134.344507,34.03299],[134.34452,34.032994],[134.344829,34.033102],[134.345102,34.03313],[134.345358,34.033153],[134.345417,34.033191],[134.345739,34.033408],[134.346765,34.034374],[134.346833,34.034461],[134.34688,34.034568],[134.346859,34.034725],[134.346639,34.035088],[134.34661,34.035214],[134.346581,34.035296],[134.346642,34.035358],[134.346809,34.035382],[134.347452,34.03546],[134.348065,34.035581],[134.348179,34.035612],[134.34827,34.035655],[134.348617,34.035958],[134.348861,34.036258],[134.349007,34.036439],[134.349038,34.036545],[134.349006,34.036744],[134.348933,34.036977],[134.348942,34.03714],[134.348982,34.037328],[134.349036,34.037504],[134.349101,34.037581],[134.349216,34.03772],[134.349271,34.037883],[134.349381,34.03829],[134.349482,34.038648],[134.34953,34.038836],[134.349607,34.038968],[134.349691,34.039061],[134.349891,34.03912],[134.350285,34.03918],[134.350625,34.039178],[134.350882,34.039144],[134.350995,34.039093],[134.351062,34.039036],[134.351115,34.039023],[134.351213,34.039042],[134.352287,34.039487],[134.352353,34.039517],[134.352372,34.03952],[134.352647,34.039569],[134.352925,34.039675],[134.353184,34.039708],[134.353418,34.039705],[134.353592,34.039713],[134.353654,34.039719],[134.353832,34.039735],[134.354115,34.039775],[134.354298,34.03978],[134.354412,34.039775],[134.354468,34.039784],[134.354512,34.039783],[134.354527,34.039756],[134.354581,34.039609],[134.354608,34.039531],[134.354707,34.039369],[134.354711,34.039361],[134.354811,34.039167],[134.354912,34.03894],[134.354943,34.03887],[134.35495,34.038855],[134.355098,34.03869],[134.355132,34.038652],[134.355198,34.038553],[134.355284,34.038299],[134.355365,34.038014],[134.355381,34.037855],[134.355417,34.037735],[134.355459,34.037651],[134.35553,34.03758],[134.355635,34.03752],[134.355749,34.037505],[134.355905,34.037516],[134.356043,34.037521],[134.356414,34.03746],[134.356507,34.037445],[134.356574,34.037365],[134.356734,34.036953],[134.356798,34.036919],[134.356882,34.036902],[134.356945,34.036882],[134.357069,34.036837],[134.357205,34.036779],[134.357354,34.036675],[134.357635,34.036385],[134.357971,34.036131],[134.358274,34.035986],[134.359454,34.03507],[134.359735,34.034807],[134.359752,34.034767],[134.359844,34.034618],[134.359855,34.034443],[134.359832,34.034397],[134.359784,34.034288],[134.359756,34.034206],[134.359753,34.034147],[134.359769,34.034095],[134.35978,34.03407],[134.359857,34.03398],[134.359944,34.033883],[134.360039,34.033736],[134.360097,34.033589],[134.360141,34.033394],[134.36015,34.033355],[134.360275,34.033168],[134.360335,34.0331],[134.36068,34.032811],[134.360719,34.032774],[134.361002,34.032505],[134.361155,34.032359],[134.361354,34.032264],[134.361399,34.032249],[134.361515,34.032214],[134.361622,34.032181],[134.361938,34.032072],[134.362133,34.031919],[134.362238,34.031688],[134.362242,34.031677],[134.362316,34.031416],[134.362407,34.031164],[134.362506,34.031003],[134.362666,34.030895],[134.362948,34.030897],[134.363059,34.030927],[134.363317,34.031052],[134.363466,34.031108],[134.363576,34.031137],[134.363708,34.031148],[134.363846,34.031137],[134.363934,34.031113],[134.363985,34.03108],[134.364011,34.031032],[134.364058,34.030882],[134.364126,34.030746],[134.364211,34.03065],[134.364286,34.030587],[134.364349,34.030514],[134.364387,34.030476],[134.364429,34.03044],[134.364519,34.030378],[134.364615,34.030308],[134.364652,34.030286],[134.364685,34.030269],[134.364775,34.030226],[134.364872,34.030175],[134.364947,34.030118],[134.365062,34.030013],[134.36513,34.029949],[134.365166,34.029905],[134.365232,34.029816],[134.365248,34.029787],[134.365255,34.029766],[134.365258,34.029736],[134.365255,34.029657],[134.365248,34.029611],[134.365235,34.029575],[134.365218,34.029539],[134.365184,34.029482],[134.365147,34.029433],[134.365094,34.029374],[134.365072,34.029335],[134.365067,34.029295],[134.365073,34.029263],[134.365094,34.029193],[134.365107,34.02915],[134.365125,34.029131],[134.365182,34.029152],[134.365302,34.029186],[134.365437,34.029226],[134.365545,34.029271],[134.365631,34.02932],[134.365737,34.029384],[134.365799,34.029417],[134.365849,34.02944],[134.365888,34.029449],[134.36592,34.029452],[134.365994,34.029455],[134.366111,34.029465],[134.366252,34.029471],[134.366307,34.029475],[134.366402,34.029472],[134.366495,34.029446],[134.366604,34.029424],[134.366705,34.029396],[134.366799,34.029374],[134.36684,34.029371],[134.366878,34.029375],[134.366906,34.029386],[134.366928,34.029406],[134.366982,34.029474],[134.367042,34.029556],[134.367109,34.029659],[134.367173,34.029747],[134.367209,34.029787],[134.367251,34.029829],[134.367365,34.029935],[134.367504,34.030063],[134.367608,34.030161],[134.367709,34.030248],[134.367763,34.030286],[134.367821,34.030322],[134.367884,34.030354],[134.367941,34.030378],[134.36799,34.030391],[134.368037,34.0304],[134.368086,34.030412],[134.368135,34.030429],[134.36821,34.030466],[134.368613,34.030704],[134.368652,34.030732],[134.368678,34.030761],[134.368703,34.030807],[134.368737,34.030921],[134.368845,34.031188],[134.368903,34.031323],[134.368961,34.031392],[134.369053,34.031449],[134.369251,34.031521],[134.369466,34.031567],[134.370019,34.031789],[134.370165,34.031851],[134.370255,34.031896],[134.370413,34.031999],[134.370488,34.032082],[134.370533,34.032133],[134.370524,34.032395],[134.37058,34.032692],[134.370589,34.032809],[134.370604,34.033016],[134.370693,34.033394],[134.370801,34.033659],[134.370825,34.033718],[134.370841,34.033741],[134.370942,34.033893],[134.371011,34.033996],[134.371086,34.03407],[134.371106,34.034124],[134.371231,34.034259],[134.371334,34.034307],[134.371738,34.034561],[134.371857,34.034659],[134.372099,34.034822],[134.372198,34.034923],[134.372308,34.035074],[134.372374,34.035168],[134.372399,34.035235],[134.3724,34.035267],[134.372391,34.035288],[134.372308,34.035367],[134.372291,34.035386],[134.372251,34.035421],[134.372235,34.035446],[134.372214,34.035495],[134.372195,34.035554],[134.372165,34.03568],[134.372149,34.035782],[134.372143,34.035864],[134.372143,34.035984],[134.372139,34.036148],[134.372122,34.036306],[134.372097,34.03642],[134.372079,34.036479],[134.372044,34.036581],[134.37203,34.036632],[134.37202,34.036681],[134.372021,34.036719],[134.372029,34.03676],[134.372052,34.036826],[134.37208,34.036895],[134.372109,34.036967],[134.372116,34.036998],[134.372108,34.037029],[134.372093,34.03705],[134.37206,34.037089],[134.372042,34.037116],[134.372,34.037194],[134.371969,34.037257],[134.371954,34.037289],[134.371946,34.037321],[134.371937,34.037361],[134.371929,34.037398],[134.371926,34.037426],[134.371931,34.037454],[134.371942,34.037483],[134.37196,34.037515],[134.371973,34.037547],[134.371991,34.037586],[134.372014,34.03763],[134.372042,34.037676],[134.372075,34.037724],[134.37209,34.037747],[134.37211,34.037779],[134.372124,34.037803],[134.372144,34.037842],[134.372159,34.037886],[134.37216,34.037927],[134.372155,34.037959],[134.372153,34.037978],[134.372167,34.037997],[134.372308,34.03808],[134.37234,34.038106],[134.372368,34.038132],[134.372394,34.038165],[134.372408,34.038194],[134.37242,34.038233],[134.37242,34.038272],[134.372416,34.038309],[134.372374,34.038409],[134.372306,34.038592],[134.372295,34.038657],[134.372285,34.038737],[134.372279,34.038816],[134.372274,34.038951],[134.372278,34.039174],[134.372379,34.039288],[134.372684,34.039476],[134.373185,34.039644],[134.373357,34.039666],[134.373572,34.039751],[134.373812,34.039778],[134.374088,34.039824],[134.374223,34.03987],[134.374375,34.039921],[134.374421,34.039958],[134.374633,34.040129],[134.374644,34.040138],[134.374673,34.040164],[134.374901,34.040369],[134.37514,34.040526],[134.375231,34.040577],[134.375391,34.040667],[134.375595,34.040782],[134.375643,34.040809],[134.375804,34.040965],[134.375889,34.041025],[134.375953,34.041071],[134.376087,34.041184],[134.376109,34.041202],[134.376192,34.041357],[134.376275,34.041513],[134.376406,34.041609],[134.376622,34.041665],[134.376995,34.041643],[134.377007,34.041642],[134.377103,34.041633],[134.377183,34.041626],[134.377205,34.041624],[134.377216,34.041627],[134.377439,34.04169],[134.377641,34.041729],[134.377733,34.041747],[134.3779,34.041798],[134.378025,34.041839],[134.378086,34.041859],[134.378241,34.04199],[134.378403,34.042146],[134.378623,34.042194],[134.378714,34.042213],[134.378764,34.042229],[134.378984,34.0423],[134.37926,34.042412],[134.379387,34.042484],[134.379473,34.042532],[134.379572,34.042722],[134.37966,34.042902],[134.379672,34.043082],[134.379673,34.043088],[134.379689,34.043251],[134.379707,34.043424],[134.379784,34.043595],[134.379915,34.043657],[134.380035,34.043738],[134.380198,34.043791],[134.380513,34.043762],[134.380746,34.04379],[134.380807,34.043797],[134.380862,34.043822],[134.381166,34.043957],[134.381429,34.044023],[134.381449,34.044028],[134.381695,34.044044],[134.38183,34.044053],[134.38233,34.044114],[134.382625,34.044239],[134.382646,34.044247],[134.382919,34.044354],[134.383473,34.044424],[134.38372,34.044461],[134.383822,34.044476],[134.383897,34.044505],[134.38405,34.044565],[134.384334,34.044789],[134.384682,34.044796],[134.385095,34.044848],[134.385455,34.044927],[134.385566,34.044964],[134.385561,34.045026],[134.385584,34.045191],[134.385612,34.045381],[134.385644,34.045468],[134.385701,34.045627],[134.385727,34.045664],[134.385772,34.045732],[134.386149,34.045944],[134.386437,34.046041],[134.386514,34.046056],[134.386575,34.046069],[134.386797,34.046113],[134.387031,34.04618],[134.387294,34.046241],[134.387334,34.046546],[134.387434,34.046907],[134.387564,34.047198],[134.387657,34.047374],[134.387677,34.047413],[134.387916,34.047635],[134.388007,34.047679],[134.388197,34.047771],[134.388323,34.047842],[134.388484,34.047998],[134.388592,34.048141],[134.388597,34.048149],[134.388607,34.048166],[134.388674,34.048279],[134.388788,34.04843],[134.389033,34.048546],[134.389042,34.04855],[134.389273,34.048638],[134.389519,34.048689],[134.389694,34.04873],[134.389717,34.048735],[134.389872,34.048801],[134.389968,34.048877],[134.390105,34.049063],[134.390333,34.049104],[134.390542,34.0492],[134.390949,34.049408],[134.390976,34.049419],[134.391261,34.04954],[134.391458,34.049781],[134.391672,34.050032],[134.391941,34.050314],[134.39218,34.05047],[134.392467,34.050632],[134.392572,34.0507],[134.392728,34.050807],[134.392825,34.051029],[134.392871,34.051294],[134.392935,34.051569],[134.392973,34.051636],[134.393035,34.051746],[134.393042,34.05176],[134.393049,34.051772],[134.393147,34.051947],[134.393149,34.05195],[134.393216,34.051999],[134.393226,34.052006],[134.393281,34.052046],[134.393425,34.052062],[134.393503,34.052056],[134.393614,34.052156],[134.393723,34.0523],[134.393836,34.052488],[134.393842,34.052514],[134.393875,34.052563],[134.393985,34.052725],[134.394115,34.052885],[134.394116,34.052886],[134.394118,34.052887],[134.394278,34.052977],[134.394475,34.053088],[134.394637,34.053179],[134.394793,34.05318],[134.394974,34.053086],[134.395101,34.052962],[134.395233,34.052863],[134.395244,34.052858],[134.395414,34.052769],[134.395577,34.05273],[134.395769,34.052752],[134.396009,34.052778],[134.396267,34.05275],[134.396426,34.052711],[134.396497,34.052555],[134.396671,34.052355],[134.396828,34.052244],[134.396952,34.05214],[134.397062,34.051991],[134.397175,34.051886],[134.397295,34.051828],[134.397492,34.051753],[134.398456,34.051458],[134.398818,34.051321],[134.399056,34.051301],[134.399226,34.051286],[134.399307,34.051252],[134.399331,34.051172],[134.399339,34.051015],[134.399443,34.050828],[134.399574,34.050742],[134.399728,34.05068],[134.400967,34.050506],[134.40143,34.050419],[134.401761,34.050301],[134.401862,34.050267],[134.40194,34.050265],[134.402299,34.050265],[134.402581,34.050265],[134.402692,34.050246],[134.402717,34.050253],[134.402908,34.050339],[134.403189,34.05054],[134.403362,34.050746],[134.403396,34.051026],[134.403436,34.051396],[134.403496,34.051563],[134.403524,34.051642],[134.403655,34.051867],[134.403768,34.05202],[134.403792,34.052053],[134.403971,34.052219],[134.404234,34.052536],[134.404291,34.052706],[134.404289,34.053005],[134.404242,34.053337],[134.404184,34.053561],[134.404088,34.053744],[134.403968,34.053948],[134.40392,34.054029],[134.40381,34.054247],[134.403722,34.054525],[134.403647,34.054958],[134.403559,34.055573],[134.403538,34.055847],[134.403516,34.056091],[134.403461,34.056628],[134.403438,34.056842],[134.403466,34.056964],[134.403408,34.05725],[134.403369,34.057402],[134.403331,34.057595],[134.403302,34.057763],[134.403263,34.057881],[134.403222,34.057987],[134.403176,34.058185],[134.403233,34.058361],[134.403307,34.058691],[134.403356,34.05888],[134.403369,34.059019],[134.403372,34.059051],[134.403375,34.059151],[134.403374,34.059242],[134.403234,34.059428],[134.403085,34.059622],[134.402865,34.059876],[134.402695,34.059995],[134.402585,34.060113],[134.402607,34.060289],[134.402739,34.060503],[134.402843,34.060727],[134.402942,34.060883],[134.403004,34.061018],[134.403066,34.061143],[134.403201,34.061284],[134.403292,34.061422],[134.403337,34.061523],[134.403351,34.061685],[134.403373,34.061851],[134.403404,34.062074],[134.403405,34.062199],[134.403385,34.062374],[134.403354,34.06252],[134.403298,34.062608],[134.403169,34.062707],[134.403082,34.062774],[134.403073,34.062815],[134.403046,34.062952],[134.403045,34.062958],[134.403029,34.063047],[134.403004,34.06332],[134.402919,34.063625],[134.402833,34.063913],[134.40279,34.064168],[134.402679,34.064474],[134.402581,34.064875],[134.402516,34.065292],[134.402473,34.065691],[134.402363,34.066028],[134.402265,34.066392],[134.402229,34.066493],[134.402213,34.066539],[134.402174,34.066647],[134.402082,34.066857],[134.402023,34.067057],[134.401973,34.067221],[134.401956,34.067393],[134.402,34.067563],[134.402015,34.067682],[134.402073,34.067946],[134.402074,34.067952],[134.402095,34.068075],[134.4021,34.06824],[134.402126,34.068429],[134.402103,34.068548],[134.402096,34.068696],[134.402009,34.068857],[134.401896,34.069095],[134.401844,34.069378],[134.401811,34.069576],[134.401819,34.069838],[134.401848,34.070109],[134.401875,34.070289],[134.401891,34.070415],[134.401878,34.070533],[134.40184,34.070636],[134.401753,34.070824],[134.401713,34.070976],[134.401704,34.071008],[134.40169,34.071078],[134.401676,34.071192],[134.401639,34.071542],[134.401602,34.071778],[134.401597,34.071968],[134.401624,34.072149],[134.401628,34.072293],[134.401664,34.072585],[134.401664,34.073005],[134.401677,34.073328],[134.401671,34.073707],[134.401683,34.073871],[134.40169,34.074095],[134.401711,34.074246],[134.401716,34.074413],[134.401722,34.074528],[134.401727,34.075291],[134.401745,34.075569],[134.401728,34.076312],[134.401575,34.076215],[134.401466,34.07611],[134.401291,34.075805],[134.401196,34.075613],[134.40109,34.075328],[134.400945,34.075154],[134.400826,34.074996],[134.400687,34.07489],[134.400421,34.074823],[134.400389,34.074901],[134.400369,34.07495],[134.400254,34.075245],[134.400216,34.075363],[134.400135,34.075568],[134.400055,34.075916],[134.399964,34.076394],[134.39987,34.076771],[134.399823,34.076982],[134.399819,34.077],[134.399733,34.077437],[134.399667,34.077715],[134.399597,34.078108],[134.399508,34.078508],[134.399447,34.078775],[134.399388,34.079004],[134.399329,34.079278],[134.399311,34.079398],[134.399307,34.079425],[134.399303,34.079455],[134.399096,34.08042],[134.399002,34.080799],[134.398848,34.081335],[134.398717,34.081901],[134.398638,34.082102],[134.398532,34.082325],[134.398468,34.082493],[134.398435,34.082584],[134.398404,34.082669],[134.398192,34.083448],[134.398035,34.084089],[134.397904,34.08463],[134.397866,34.084785],[134.397817,34.085008],[134.397768,34.085273],[134.397675,34.085618],[134.397594,34.085958],[134.39755,34.086145],[134.397455,34.086509],[134.39741,34.086681],[134.397264,34.087203],[134.396779,34.087545],[134.396488,34.088883],[134.396367,34.089091],[134.396767,34.089338],[134.395789,34.092767],[134.387318,34.089824],[134.383413,34.088467],[134.382764,34.088377],[134.375099,34.088742],[134.37683,34.086006],[134.376541,34.086028],[134.375394,34.086114],[134.37146,34.086244],[134.366619,34.086095],[134.357226,34.085804],[134.356759,34.085802],[134.346407,34.085763],[134.346327,34.085766],[134.34628,34.085767],[134.346277,34.085767],[134.342779,34.085553],[134.336944,34.085067],[134.335552,34.085049],[134.335004,34.085021],[134.334416,34.085009],[134.334338,34.079953],[134.332251,34.078724],[134.333222,34.07726],[134.333509,34.076931],[134.333706,34.076511],[134.33385,34.076056],[134.333963,34.075622],[134.334045,34.075188],[134.334145,34.074161],[134.334134,34.074113]]]},"properties":{"code":"36205","name":"吉野川市"}}]}