{"type":"FeatureCollection","features":[{"type":"Feature","geometry":{"type":"Polygon","coordinates":[[[134.598445,34.016331],[134.598229,34.01674],[134.598241,34.016744],[134.598252,34.016751],[134.598259,34.016762],[134.598262,34.016776],[134.598264,34.016784],[134.598267,34.016799],[134.598279,34.016808],[134.59834,34.016831],[134.598444,34.016871],[134.598579,34.01692],[134.598724,34.016968],[134.598858,34.017014],[134.598959,34.017054],[134.599023,34.017084],[134.599067,34.017103],[134.5991,34.017109],[134.599132,34.017108],[134.599164,34.01711],[134.5992,34.017115],[134.599242,34.017123],[134.599282,34.01713],[134.599326,34.017136],[134.599365,34.017143],[134.599396,34.017151],[134.599419,34.017161],[134.59943,34.017172],[134.59943,34.017182],[134.599428,34.017188],[134.599415,34.017196],[134.599397,34.017203],[134.599377,34.017208],[134.599357,34.017213],[134.599342,34.017217],[134.599336,34.01722],[134.599336,34.017225],[134.599348,34.01723],[134.599366,34.017238],[134.599384,34.017248],[134.599393,34.017257],[134.599397,34.017267],[134.599393,34.01728],[134.599386,34.017294],[134.599384,34.017307],[134.599392,34.017318],[134.599408,34.017326],[134.599429,34.017329],[134.599451,34.017333],[134.599462,34.017337],[134.59947,34.017346],[134.599476,34.017365],[134.599483,34.017398],[134.599491,34.017433],[134.599499,34.017447],[134.599524,34.01747],[134.599581,34.017505],[134.599588,34.017516],[134.599589,34.017528],[134.599571,34.01754],[134.599554,34.017554],[134.599561,34.017577],[134.599588,34.017624],[134.599609,34.017636],[134.599636,34.017649],[134.599643,34.017656],[134.599651,34.017668],[134.599639,34.017722],[134.599732,34.017749],[134.599764,34.017764],[134.59979,34.017785],[134.599823,34.017811],[134.599838,34.017806],[134.599855,34.017806],[134.599905,34.017806],[134.599945,34.017773],[134.599999,34.017737],[134.600095,34.01771],[134.600097,34.017698],[134.599997,34.017716],[134.599985,34.017705],[134.599974,34.017684],[134.599972,34.017665],[134.599985,34.017656],[134.600123,34.017656],[134.600195,34.017662],[134.600213,34.017692],[134.600218,34.017731],[134.600229,34.017745],[134.600375,34.01775],[134.600419,34.01776],[134.600464,34.017805],[134.600518,34.01785],[134.600557,34.017872],[134.600581,34.017891],[134.60063,34.017898],[134.600637,34.017892],[134.600638,34.017873],[134.600659,34.017852],[134.600709,34.017837],[134.600767,34.017812],[134.600817,34.01781],[134.60088,34.017812],[134.60099,34.017829],[134.60101,34.017844],[134.601014,34.017881],[134.60104,34.017902],[134.601065,34.017913],[134.601076,34.017925],[134.601031,34.017987],[134.601019,34.017995],[134.600918,34.018017],[134.600844,34.018022],[134.600815,34.01802],[134.600753,34.018006],[134.600717,34.018013],[134.600623,34.018044],[134.600586,34.018037],[134.600498,34.018004],[134.600477,34.018003],[134.600466,34.018014],[134.600452,34.01808],[134.60045,34.01812],[134.600481,34.018218],[134.600486,34.018226],[134.600496,34.018226],[134.600524,34.018213],[134.60057,34.018218],[134.600601,34.018201],[134.600623,34.018194],[134.600668,34.018187],[134.600676,34.018184],[134.600707,34.018183],[134.600732,34.018195],[134.600757,34.018195],[134.60082,34.018187],[134.600857,34.018194],[134.600864,34.018202],[134.600891,34.018284],[134.600894,34.018304],[134.600889,34.018312],[134.600902,34.018347],[134.600897,34.018364],[134.600898,34.018411],[134.600888,34.018416],[134.600872,34.018424],[134.600859,34.018428],[134.600847,34.018429],[134.600839,34.018428],[134.60083,34.018425],[134.60082,34.01842],[134.600781,34.018413],[134.600776,34.018414],[134.600773,34.018415],[134.600774,34.01842],[134.600777,34.018424],[134.600828,34.018452],[134.600876,34.018457],[134.60088,34.018458],[134.600885,34.01846],[134.600886,34.018462],[134.600887,34.018465],[134.600879,34.018491],[134.600872,34.018497],[134.600852,34.018503],[134.600795,34.018501],[134.600754,34.01848],[134.600646,34.018452],[134.600603,34.018423],[134.600582,34.018419],[134.600519,34.018414],[134.600524,34.018437],[134.60052,34.018444],[134.60052,34.018456],[134.600527,34.018463],[134.600529,34.018477],[134.600512,34.018491],[134.600514,34.018502],[134.600528,34.018519],[134.600538,34.018528],[134.600538,34.018538],[134.60052,34.018557],[134.600518,34.018566],[134.600536,34.018583],[134.600571,34.018591],[134.600581,34.018597],[134.600607,34.018604],[134.600649,34.018624],[134.600703,34.018641],[134.600739,34.018649],[134.600759,34.018654],[134.600794,34.018654],[134.600799,34.018655],[134.600803,34.018657],[134.600805,34.018659],[134.600806,34.018664],[134.600805,34.018667],[134.600803,34.018669],[134.600777,34.018684],[134.600775,34.018687],[134.600775,34.018691],[134.600776,34.018694],[134.600779,34.018696],[134.600787,34.018696],[134.600797,34.018696],[134.600802,34.018696],[134.600809,34.0187],[134.600814,34.018704],[134.600819,34.018712],[134.600819,34.018718],[134.600819,34.018724],[134.600816,34.01873],[134.600807,34.018736],[134.600798,34.01874],[134.600786,34.018744],[134.60078,34.018746],[134.600772,34.018747],[134.6007,34.018739],[134.600688,34.018734],[134.600677,34.018733],[134.600643,34.018734],[134.600613,34.018731],[134.600575,34.018731],[134.600561,34.018723],[134.600521,34.018723],[134.60048,34.018738],[134.600435,34.018737],[134.600415,34.018741],[134.600413,34.018763],[134.600386,34.018782],[134.60038,34.018794],[134.600382,34.018831],[134.600354,34.018859],[134.600326,34.018866],[134.600316,34.018866],[134.600285,34.018877],[134.600263,34.01888],[134.600248,34.018888],[134.600254,34.018895],[134.60028,34.018904],[134.600327,34.018904],[134.600335,34.018911],[134.600335,34.01893],[134.600325,34.018944],[134.60029,34.018953],[134.600262,34.018947],[134.600233,34.018949],[134.6002,34.01896],[134.600221,34.018975],[134.600303,34.018984],[134.600321,34.018988],[134.600337,34.018999],[134.600347,34.019015],[134.600316,34.019048],[134.600309,34.019072],[134.600303,34.019081],[134.600288,34.019094],[134.600277,34.019098],[134.600253,34.0191],[134.60023,34.019104],[134.60019,34.019104],[134.600156,34.019099],[134.600137,34.019101],[134.60005,34.01909],[134.60001,34.019096],[134.599907,34.018975],[134.59989,34.018948],[134.599886,34.018933],[134.599885,34.01891],[134.599937,34.018734],[134.599968,34.018647],[134.60004,34.018532],[134.6001,34.018451],[134.600116,34.018386],[134.599971,34.01826],[134.599708,34.018147],[134.599517,34.018034],[134.599297,34.01792],[134.599192,34.017856],[134.599138,34.017722],[134.599071,34.017657],[134.598913,34.017561],[134.59872,34.017479],[134.598516,34.017474],[134.598433,34.017474],[134.598104,34.017343],[134.598026,34.017347],[134.59792,34.017405],[134.597686,34.01753],[134.59759,34.017538],[134.597472,34.017532],[134.596433,34.017382],[134.596363,34.017393],[134.596285,34.017426],[134.596228,34.017416],[134.596031,34.017363],[134.595872,34.017338],[134.595597,34.017333],[134.59541,34.017342],[134.595327,34.017357],[134.595254,34.017427],[134.595197,34.017559],[134.595125,34.01776],[134.595124,34.017959],[134.595079,34.018048],[134.594746,34.01828],[134.594532,34.018385],[134.594485,34.018447],[134.594465,34.018618],[134.594462,34.018683],[134.594405,34.018709],[134.594134,34.01877],[134.594101,34.018777],[134.593954,34.018844],[134.593698,34.018998],[134.593381,34.019278],[134.592745,34.019711],[134.592524,34.01993],[134.592487,34.020035],[134.592431,34.020087],[134.592166,34.020198],[134.592097,34.020253],[134.592042,34.020355],[134.591999,34.02041],[134.591925,34.020465],[134.59188,34.020523],[134.591891,34.020713],[134.591981,34.020898],[134.591986,34.020937],[134.591943,34.020981],[134.591765,34.021041],[134.59163,34.02106],[134.591547,34.021068],[134.591425,34.021051],[134.591316,34.021056],[134.590901,34.020991],[134.590801,34.020995],[134.59056,34.021115],[134.590347,34.021124],[134.590234,34.021136],[134.590151,34.021144],[134.590094,34.021152],[134.589895,34.021263],[134.589792,34.021354],[134.589749,34.021449],[134.58971,34.021611],[134.589633,34.021727],[134.589608,34.021825],[134.589567,34.022025],[134.589516,34.022098],[134.589412,34.022157],[134.589286,34.022209],[134.589252,34.022296],[134.589142,34.022357],[134.589003,34.022398],[134.58892,34.022403],[134.588808,34.022458],[134.588731,34.0226],[134.588684,34.022662],[134.588536,34.022729],[134.588275,34.02272],[134.588061,34.022715],[134.58784,34.022657],[134.587521,34.022566],[134.58746,34.022574],[134.587156,34.022645],[134.586999,34.022679],[134.586842,34.022688],[134.586554,34.022672],[134.585853,34.02251],[134.585747,34.022485],[134.585528,34.022364],[134.585441,34.022372],[134.585257,34.022457],[134.585099,34.022535],[134.584985,34.02255],[134.584732,34.022505],[134.584478,34.022449],[134.584169,34.022449],[134.584008,34.022495],[134.58389,34.022542],[134.58375,34.022588],[134.583602,34.022637],[134.583524,34.02263],[134.583308,34.022556],[134.583135,34.022512],[134.582897,34.022487],[134.582746,34.022489],[134.582579,34.022521],[134.582381,34.022573],[134.582156,34.022657],[134.581813,34.022787],[134.581656,34.022835],[134.581335,34.022925],[134.581083,34.023029],[134.580949,34.023052],[134.580853,34.023045],[134.580708,34.023014],[134.580664,34.022993],[134.580262,34.022683],[134.580108,34.022586],[134.579889,34.022504],[134.579735,34.022437],[134.579581,34.022333],[134.579551,34.022308],[134.579395,34.022063],[134.579267,34.021984],[134.579084,34.021942],[134.578894,34.021964],[134.578785,34.021932],[134.57868,34.021871],[134.578535,34.021829],[134.578239,34.02181],[134.578099,34.021808],[134.577947,34.021805],[134.577702,34.021771],[134.577379,34.021709],[134.57709,34.02165],[134.576783,34.021518],[134.576476,34.021383],[134.576283,34.021272],[134.576215,34.02126],[134.576166,34.021253],[134.576038,34.021281],[134.575817,34.021352],[134.575553,34.021491],[134.575313,34.02152],[134.575205,34.02152],[134.575104,34.021495],[134.57497,34.021443],[134.57492,34.021431],[134.57471,34.021377],[134.57457,34.021363],[134.574407,34.021415],[134.574312,34.021453],[134.574115,34.021471],[134.574043,34.021475],[134.573932,34.021469],[134.573824,34.021454],[134.573668,34.021383],[134.57364,34.021371],[134.57357,34.021361],[134.573462,34.021378],[134.573362,34.021415],[134.573244,34.021447],[134.573115,34.021432],[134.572995,34.021376],[134.572841,34.021304],[134.572708,34.021263],[134.572619,34.021259],[134.572227,34.021294],[134.572043,34.021295],[134.571961,34.02127],[134.571916,34.021217],[134.571807,34.021108],[134.571658,34.020893],[134.571568,34.020762],[134.571536,34.020726],[134.571478,34.020695],[134.571357,34.020676],[134.571107,34.020734],[134.570992,34.020761],[134.57066,34.020863],[134.570434,34.020902],[134.570217,34.020831],[134.569619,34.020511],[134.569056,34.020204],[134.569033,34.020192],[134.568467,34.019907],[134.568015,34.019768],[134.568012,34.019767],[134.568009,34.019777],[134.567918,34.020028],[134.567751,34.020282],[134.567531,34.020425],[134.567405,34.020507],[134.567231,34.020623],[134.566985,34.020801],[134.56666,34.020861],[134.566469,34.020865],[134.566395,34.020854],[134.566317,34.020834],[134.566211,34.020806],[134.565945,34.020885],[134.565808,34.020951],[134.565693,34.020944],[134.565573,34.020899],[134.565448,34.020843],[134.565314,34.020772],[134.565204,34.020757],[134.565112,34.020754],[134.564965,34.020817],[134.564843,34.02094],[134.564662,34.021243],[134.564355,34.02178],[134.563999,34.022225],[134.563822,34.02241],[134.563692,34.022626],[134.563494,34.023116],[134.563406,34.023549],[134.563425,34.024367],[134.563513,34.024916],[134.563678,34.025643],[134.5639,34.026717],[134.563927,34.026819],[134.563874,34.026946],[134.563786,34.027301],[134.563671,34.027594],[134.563495,34.027866],[134.563375,34.028054],[134.563262,34.028175],[134.563015,34.028455],[134.562493,34.028992],[134.562371,34.029108],[134.561897,34.028817],[134.561694,34.028686],[134.561598,34.028639],[134.56156,34.028553],[134.561572,34.028423],[134.561525,34.028221],[134.561552,34.02817],[134.561669,34.028039],[134.561729,34.027913],[134.561704,34.027846],[134.561637,34.027589],[134.561626,34.027432],[134.56161,34.02729],[134.56148,34.027118],[134.561242,34.026979],[134.561103,34.026632],[134.561027,34.026243],[134.56087,34.025924],[134.560896,34.025798],[134.560875,34.025586],[134.560841,34.025356],[134.560855,34.025317],[134.561028,34.025205],[134.561056,34.025142],[134.561026,34.024981],[134.561049,34.024937],[134.561043,34.024839],[134.561049,34.02477],[134.561171,34.024667],[134.56117,34.024628],[134.561121,34.024439],[134.561122,34.02414],[134.561217,34.023611],[134.561237,34.023546],[134.56126,34.023459],[134.56122,34.023274],[134.561132,34.023059],[134.560924,34.022726],[134.560777,34.022649],[134.560694,34.022488],[134.56065,34.022327],[134.560628,34.022099],[134.560692,34.021942],[134.560709,34.021784],[134.560431,34.021599],[134.560484,34.021474],[134.560599,34.021354],[134.560402,34.021224],[134.560359,34.021224],[134.560307,34.021255],[134.560254,34.021295],[134.560118,34.021433],[134.559594,34.021265],[134.559605,34.021217],[134.559589,34.021144],[134.559512,34.021068],[134.559413,34.021019],[134.559304,34.021019],[134.559206,34.021061],[134.559127,34.021115],[134.559006,34.021076],[134.558502,34.020838],[134.55838,34.020999],[134.557559,34.02084],[134.557604,34.020743],[134.55676,34.020585],[134.556701,34.020574],[134.556701,34.020575],[134.556691,34.020573],[134.556706,34.020539],[134.557604,34.018493],[134.556553,34.018807],[134.556632,34.018477],[134.556907,34.01748],[134.557143,34.01674],[134.557334,34.016127],[134.557529,34.015719],[134.557778,34.015257],[134.557818,34.015191],[134.558083,34.014748],[134.558325,34.014358],[134.558387,34.014176],[134.558412,34.014062],[134.558413,34.014058],[134.558417,34.01404],[134.558402,34.014007],[134.558313,34.013734],[134.558072,34.013036],[134.557759,34.012115],[134.557756,34.012106],[134.557805,34.012004],[134.557781,34.01193],[134.557667,34.011664],[134.55756,34.01141],[134.557206,34.010575],[134.556818,34.009638],[134.556207,34.00877],[134.555954,34.008367],[134.555678,34.007932],[134.555272,34.007327],[134.554021,34.005658],[134.553908,34.005507],[134.553485,34.005086],[134.552903,34.004644],[134.552815,34.004583],[134.55256,34.004409],[134.552326,34.004269],[134.551143,34.003394],[134.550867,34.003261],[134.550198,34.002654],[134.550197,34.002577],[134.550175,34.001842],[134.550046,34.000998],[134.549838,33.999601],[134.549437,33.999209],[134.548952,33.997005],[134.548618,33.995407],[134.548546,33.994981],[134.548536,33.99492],[134.548359,33.993836],[134.547854,33.991078],[134.547735,33.989688],[134.547082,33.987885],[134.547019,33.987709],[134.547689,33.98765],[134.550093,33.987332],[134.55113,33.98721],[134.551426,33.987223],[134.551668,33.987245],[134.551763,33.987259],[134.551861,33.98731],[134.552036,33.987603],[134.55212,33.987669],[134.552467,33.987847],[134.552647,33.987868],[134.552889,33.987851],[134.553071,33.987835],[134.553296,33.987863],[134.553515,33.987934],[134.553741,33.988065],[134.553947,33.988213],[134.554097,33.988384],[134.554164,33.98855],[134.554113,33.988787],[134.55408,33.988983],[134.554104,33.989216],[134.554053,33.989359],[134.553995,33.989507],[134.553951,33.989709],[134.553975,33.989792],[134.554077,33.989905],[134.554143,33.989983],[134.554273,33.990006],[134.554391,33.989995],[134.554502,33.989911],[134.554612,33.989762],[134.55467,33.989669],[134.554746,33.989594],[134.554811,33.989599],[134.554906,33.989642],[134.554965,33.989642],[134.555112,33.989566],[134.555176,33.989539],[134.555194,33.989531],[134.5553,33.989535],[134.55539,33.989599],[134.5556,33.989753],[134.555773,33.989838],[134.555933,33.989871],[134.555987,33.989905],[134.556126,33.990174],[134.556354,33.990448],[134.55658,33.990578],[134.556752,33.99067],[134.556972,33.990676],[134.557168,33.990674],[134.557511,33.990623],[134.558222,33.990455],[134.558432,33.990577],[134.558618,33.990769],[134.558681,33.99081],[134.558763,33.990807],[134.558868,33.990749],[134.55899,33.990688],[134.559196,33.990555],[134.559215,33.990549],[134.559224,33.990547],[134.559299,33.99053],[134.559407,33.990563],[134.559561,33.990615],[134.559622,33.990667],[134.559702,33.990808],[134.55974,33.990912],[134.559779,33.990948],[134.559978,33.990928],[134.560496,33.990852],[134.5608,33.99103],[134.561106,33.991316],[134.561235,33.991426],[134.561431,33.991404],[134.561924,33.991337],[134.562237,33.991313],[134.562475,33.99129],[134.562601,33.99132],[134.56274,33.991434],[134.562957,33.991714],[134.563109,33.991848],[134.563449,33.991919],[134.563736,33.991791],[134.563904,33.991734],[134.56407,33.991579],[134.564109,33.991506],[134.564155,33.991171],[134.564107,33.990874],[134.564092,33.990707],[134.564314,33.99034],[134.564451,33.990265],[134.564747,33.99024],[134.565092,33.990201],[134.565437,33.99009],[134.565936,33.989689],[134.56634,33.989632],[134.566792,33.98943],[134.56722,33.98904],[134.567441,33.98859],[134.5677,33.988264],[134.567831,33.98773],[134.568262,33.987068],[134.568728,33.986598],[134.568719,33.986573],[134.568707,33.986543],[134.568356,33.986168],[134.568283,33.986139],[134.568049,33.986099],[134.567823,33.986039],[134.567594,33.985769],[134.567566,33.985602],[134.567762,33.985235],[134.568085,33.984982],[134.568333,33.984739],[134.568532,33.984571],[134.56873,33.984402],[134.568927,33.984076],[134.569186,33.983709],[134.569295,33.983426],[134.569305,33.983396],[134.569438,33.983225],[134.569517,33.983188],[134.569618,33.983139],[134.569842,33.983016],[134.570131,33.982923],[134.570443,33.982853],[134.570537,33.982828],[134.570623,33.982779],[134.570804,33.982735],[134.571007,33.982697],[134.571196,33.982696],[134.571377,33.98267],[134.571464,33.982639],[134.571599,33.982426],[134.57169,33.982111],[134.571751,33.98179],[134.571796,33.981571],[134.572023,33.981116],[134.57205,33.980941],[134.572,33.980795],[134.571963,33.980694],[134.572041,33.98064],[134.572164,33.98056],[134.572379,33.980359],[134.572463,33.980216],[134.572418,33.980068],[134.572489,33.979996],[134.572589,33.979907],[134.572728,33.979745],[134.572783,33.979596],[134.572735,33.979401],[134.572666,33.97937],[134.572601,33.979308],[134.572228,33.979109],[134.571985,33.979017],[134.571464,33.978909],[134.571157,33.978882],[134.570659,33.978892],[134.570388,33.978888],[134.570131,33.978849],[134.569946,33.978815],[134.569773,33.978674],[134.569572,33.978557],[134.569207,33.978412],[134.568844,33.97841],[134.568787,33.978386],[134.568765,33.978351],[134.568764,33.978274],[134.568763,33.97815],[134.568823,33.977859],[134.568848,33.977699],[134.568777,33.977563],[134.568629,33.977524],[134.568469,33.977475],[134.568333,33.977293],[134.568354,33.977089],[134.568363,33.976834],[134.568293,33.976616],[134.568229,33.976372],[134.568405,33.97578],[134.568339,33.975374],[134.568422,33.97519],[134.569331,33.974374],[134.569918,33.9738],[134.570135,33.973508],[134.570402,33.973348],[134.570511,33.973306],[134.570633,33.973305],[134.570921,33.973495],[134.571102,33.973637],[134.57136,33.973686],[134.571665,33.973659],[134.571757,33.973647],[134.57192,33.973528],[134.572052,33.973283],[134.572221,33.972676],[134.572229,33.972345],[134.572166,33.971901],[134.572147,33.971656],[134.57222,33.971517],[134.57231,33.971401],[134.572327,33.971296],[134.57228,33.971264],[134.572238,33.971192],[134.572004,33.970927],[134.571844,33.970514],[134.571837,33.970398],[134.571852,33.970331],[134.57199,33.970174],[134.572007,33.970082],[134.571923,33.969825],[134.571895,33.969484],[134.571883,33.969342],[134.571808,33.968293],[134.571801,33.968164],[134.571843,33.968083],[134.571901,33.968016],[134.572166,33.967871],[134.572733,33.967362],[134.573003,33.967155],[134.573233,33.966717],[134.573541,33.966063],[134.573621,33.96586],[134.573833,33.965667],[134.573882,33.965593],[134.574091,33.965127],[134.574066,33.964667],[134.574152,33.964407],[134.574154,33.964403],[134.574174,33.964309],[134.57412,33.964179],[134.574055,33.964105],[134.573949,33.964043],[134.573787,33.963978],[134.573575,33.9639],[134.573408,33.963818],[134.573337,33.963748],[134.573275,33.963614],[134.573192,33.963426],[134.573073,33.963151],[134.572992,33.963098],[134.572839,33.963033],[134.572747,33.962991],[134.5726,33.962988],[134.572501,33.963036],[134.572376,33.963086],[134.572222,33.963199],[134.572024,33.963318],[134.571897,33.963422],[134.571793,33.963559],[134.57169,33.963736],[134.571517,33.964001],[134.571316,33.964093],[134.570996,33.964247],[134.570856,33.964321],[134.570728,33.964371],[134.570634,33.964372],[134.570298,33.964267],[134.570021,33.964158],[134.569956,33.964095],[134.569671,33.963813],[134.569582,33.963698],[134.56934,33.963573],[134.569157,33.963463],[134.569015,33.963327],[134.568885,33.963294],[134.568698,33.963305],[134.56844,33.963318],[134.568228,33.963256],[134.567981,33.963056],[134.567883,33.962965],[134.567807,33.962895],[134.567744,33.962842],[134.567682,33.962806],[134.567563,33.962656],[134.567493,33.962574],[134.567368,33.962501],[134.567228,33.962503],[134.567076,33.962485],[134.566882,33.962496],[134.566769,33.96233],[134.566696,33.962202],[134.566633,33.962044],[134.566616,33.961912],[134.566684,33.961836],[134.566841,33.96167],[134.567079,33.961328],[134.567297,33.960931],[134.567355,33.96071],[134.567421,33.960552],[134.567466,33.960463],[134.567555,33.960367],[134.567726,33.960094],[134.567889,33.959803],[134.568028,33.95966],[134.568193,33.959551],[134.568372,33.959335],[134.568382,33.959199],[134.568364,33.959016],[134.568438,33.958839],[134.568512,33.958687],[134.568623,33.958515],[134.568642,33.958212],[134.568671,33.958105],[134.568728,33.957845],[134.568786,33.95758],[134.56876,33.957359],[134.568683,33.957215],[134.568507,33.957122],[134.568327,33.95697],[134.568257,33.956893],[134.568216,33.956809],[134.56818,33.956692],[134.568147,33.956522],[134.568138,33.956409],[134.568099,33.956308],[134.568052,33.956201],[134.567983,33.956101],[134.567958,33.955975],[134.567975,33.955797],[134.567946,33.955615],[134.567968,33.955508],[134.568154,33.95526],[134.568296,33.955114],[134.568339,33.954886],[134.568436,33.954791],[134.568643,33.954665],[134.568861,33.954531],[134.568943,33.954455],[134.568987,33.954316],[134.569075,33.954119],[134.569179,33.953948],[134.569381,33.953744],[134.569591,33.953566],[134.569699,33.953442],[134.569795,33.953207],[134.569845,33.952955],[134.569919,33.95279],[134.570046,33.952707],[134.570166,33.952605],[134.570035,33.952379],[134.569918,33.952178],[134.569779,33.951939],[134.569648,33.951732],[134.569555,33.9516],[134.569516,33.9515],[134.569503,33.951358],[134.569473,33.951191],[134.569462,33.951131],[134.569415,33.950973],[134.569383,33.950885],[134.569275,33.950697],[134.569151,33.950496],[134.569035,33.950314],[134.568958,33.950207],[134.568927,33.950138],[134.568912,33.949908],[134.568941,33.949756],[134.568978,33.949661],[134.569074,33.949522],[134.569049,33.949314],[134.569053,33.94903],[134.569057,33.948796],[134.569063,33.948626],[134.569129,33.948448],[134.569202,33.948221],[134.569291,33.948068],[134.569365,33.947929],[134.569394,33.947853],[134.569443,33.947805],[134.5695,33.947766],[134.569586,33.947753],[134.569608,33.94769],[134.569608,33.947403],[134.5696,33.947034],[134.569623,33.946778],[134.569666,33.946576],[134.569668,33.946409],[134.569573,33.946113],[134.56945,33.945956],[134.569396,33.945874],[134.569387,33.945854],[134.569364,33.945799],[134.569378,33.945691],[134.569414,33.945552],[134.569481,33.9454],[134.569554,33.945248],[134.569655,33.945093],[134.569895,33.94492],[134.569579,33.9445],[134.569441,33.944375],[134.569212,33.944194],[134.569044,33.94412],[134.568914,33.94402],[134.568837,33.943945],[134.568786,33.943803],[134.568631,33.943477],[134.568415,33.943163],[134.568275,33.942918],[134.568114,33.942793],[134.56771,33.942576],[134.567611,33.942513],[134.567527,33.942426],[134.567404,33.942307],[134.567221,33.942189],[134.567098,33.94212],[134.566939,33.942059],[134.566748,33.941934],[134.566549,33.941841],[134.56645,33.941766],[134.566328,33.941729],[134.566207,33.941705],[134.566055,33.941687],[134.565934,33.941682],[134.565851,33.941702],[134.565768,33.941747],[134.565663,33.941811],[134.565573,33.941875],[134.56549,33.941919],[134.565403,33.941942],[134.565312,33.941968],[134.565237,33.941956],[134.565145,33.941919],[134.565056,33.941871],[134.564992,33.941807],[134.564916,33.941732],[134.5648,33.94169],[134.564657,33.941684],[134.564514,33.941704],[134.564423,33.941717],[134.564332,33.941718],[134.564277,33.94172],[134.564224,33.941705],[134.564148,33.941668],[134.564079,33.941633],[134.564018,33.941609],[134.563886,33.941613],[134.563774,33.941628],[134.563638,33.941623],[134.563524,33.941624],[134.563321,33.941436],[134.563191,33.941346],[134.562917,33.941235],[134.562668,33.941122],[134.562293,33.940998],[134.562188,33.940965],[134.562029,33.940916],[134.56177,33.940855],[134.561668,33.94084],[134.561603,33.940815],[134.56158,33.940771],[134.561541,33.940677],[134.56151,33.940595],[134.561361,33.940406],[134.561258,33.94029],[134.56112,33.940165],[134.561016,33.94009],[134.56083,33.939978],[134.560723,33.939931],[134.560498,33.939845],[134.560568,33.939646],[134.560598,33.93955],[134.56062,33.939488],[134.560649,33.939437],[134.560707,33.939383],[134.560803,33.939322],[134.560866,33.939305],[134.560926,33.939296],[134.561015,33.939294],[134.561093,33.939285],[134.561189,33.939273],[134.561249,33.939256],[134.561306,33.939241],[134.561378,33.939212],[134.561442,33.939178],[134.56146,33.939161],[134.561515,33.939143],[134.561542,33.939136],[134.5617,33.939137],[134.562111,33.939164],[134.562327,33.939171],[134.562529,33.939157],[134.562669,33.939138],[134.562763,33.939118],[134.562938,33.939063],[134.563164,33.938947],[134.563275,33.938893],[134.563466,33.938855],[134.563998,33.938805],[134.564331,33.938769],[134.564543,33.938733],[134.564581,33.938727],[134.564646,33.938696],[134.564694,33.938655],[134.564761,33.938556],[134.564793,33.938499],[134.564826,33.938466],[134.564896,33.938405],[134.564987,33.938312],[134.56517,33.938086],[134.565183,33.938065],[134.565204,33.938067],[134.565238,33.938087],[134.56529,33.938142],[134.565358,33.938266],[134.565445,33.938396],[134.565495,33.938468],[134.56556,33.938531],[134.565601,33.938572],[134.565723,33.938609],[134.565825,33.938624],[134.566106,33.93865],[134.56619,33.938662],[134.56645,33.938708],[134.56684,33.93877],[134.566939,33.938788],[134.567346,33.938882],[134.567528,33.938937],[134.567638,33.938977],[134.56779,33.939001],[134.567995,33.939009],[134.568037,33.939062],[134.568149,33.939235],[134.568238,33.939335],[134.568356,33.93941],[134.568547,33.939553],[134.569,33.939898],[134.569184,33.940054],[134.569286,33.940181],[134.569363,33.940297],[134.569471,33.940394],[134.569619,33.940484],[134.569824,33.940648],[134.569921,33.940799],[134.570079,33.941003],[134.570209,33.941125],[134.570346,33.941193],[134.570506,33.941226],[134.570862,33.941283],[134.570999,33.94132],[134.571194,33.941432],[134.57139,33.941526],[134.57166,33.941606],[134.571945,33.94166],[134.57222,33.941726],[134.57241,33.941793],[134.572564,33.941873],[134.572601,33.941893],[134.572762,33.942068],[134.57278,33.942276],[134.572783,33.942466],[134.572875,33.942578],[134.572998,33.942697],[134.573165,33.942778],[134.57337,33.942814],[134.573552,33.942787],[134.573786,33.942773],[134.573961,33.942828],[134.574122,33.94294],[134.574307,33.943166],[134.574482,33.943284],[134.574719,33.943402],[134.575,33.943513],[134.575297,33.943611],[134.575711,33.943709],[134.575717,33.94371],[134.57574,33.943723],[134.575736,33.943757],[134.575695,33.943786],[134.575556,33.943841],[134.575384,33.943933],[134.575298,33.943996],[134.575261,33.944057],[134.575205,33.944127],[134.575172,33.94419],[134.575087,33.944233],[134.575019,33.944256],[134.574955,33.944256],[134.574868,33.944276],[134.574823,33.944302],[134.57471,33.944394],[134.574594,33.944474],[134.574541,33.944522],[134.574519,33.94456],[134.574531,33.944576],[134.574565,33.944598],[134.574618,33.94461],[134.574721,33.944634],[134.574915,33.94473],[134.575071,33.944789],[134.575227,33.944816],[134.575349,33.94485],[134.575482,33.944893],[134.575619,33.944929],[134.575717,33.944954],[134.575831,33.944962],[134.575968,33.944958],[134.576058,33.944954],[134.576111,33.944944],[134.576121,33.944856],[134.576128,33.944796],[134.576131,33.944729],[134.576161,33.944675],[134.577941,33.945109],[134.5781,33.945045],[134.578506,33.944996],[134.578679,33.945018],[134.578934,33.945042],[134.579097,33.945061],[134.579251,33.945075],[134.579451,33.945113],[134.579735,33.945168],[134.579971,33.945191],[134.580175,33.945208],[134.580524,33.945212],[134.580736,33.945223],[134.580906,33.945222],[134.581129,33.945249],[134.581301,33.94529],[134.581591,33.945414],[134.581789,33.94552],[134.581995,33.945593],[134.582207,33.945642],[134.582473,33.945697],[134.582625,33.945746],[134.582799,33.945732],[134.582951,33.945737],[134.583073,33.945799],[134.583165,33.945905],[134.583288,33.945986],[134.583455,33.94606],[134.58365,33.946101],[134.583827,33.946101],[134.584068,33.94603],[134.584185,33.946269],[134.584279,33.946533],[134.584507,33.946556],[134.584715,33.94657],[134.584867,33.946588],[134.585048,33.946535],[134.585214,33.946496],[134.585396,33.946457],[134.585759,33.946422],[134.585979,33.946414],[134.58613,33.946374],[134.586242,33.946298],[134.586407,33.946176],[134.586528,33.946144],[134.586741,33.946167],[134.58719,33.946254],[134.587412,33.946313],[134.587672,33.946339],[134.587837,33.946306],[134.588003,33.946241],[134.588202,33.946391],[134.58837,33.946478],[134.588628,33.946513],[134.58875,33.946632],[134.588942,33.946801],[134.589049,33.946844],[134.589162,33.946856],[134.589383,33.946955],[134.58959,33.946987],[134.589884,33.947104],[134.590177,33.947293],[134.590287,33.947423],[134.590304,33.947555],[134.590306,33.947707],[134.590383,33.94782],[134.590505,33.947888],[134.590695,33.947918],[134.590939,33.947917],[134.591317,33.947976],[134.591643,33.947979],[134.591839,33.947939],[134.59196,33.947938],[134.592065,33.948],[134.592175,33.948094],[134.592221,33.948169],[134.592289,33.948181],[134.592402,33.948124],[134.5925,33.948041],[134.592681,33.948001],[134.592916,33.948012],[134.593075,33.948036],[134.593081,33.948036],[134.593301,33.948055],[134.593496,33.948073],[134.593686,33.948071],[134.59389,33.948025],[134.594101,33.947985],[134.5942,33.948029],[134.594323,33.948141],[134.594331,33.948147],[134.594461,33.948291],[134.594585,33.948473],[134.594631,33.948568],[134.594855,33.948594],[134.595151,33.948604],[134.595295,33.948603],[134.595438,33.94857],[134.595527,33.948361],[134.595597,33.948275],[134.5957,33.948271],[134.595928,33.948395],[134.596203,33.948525],[134.596446,33.948605],[134.596534,33.948671],[134.59653,33.948892],[134.596555,33.949074],[134.596579,33.949194],[134.596708,33.949243],[134.596914,33.949305],[134.597141,33.949334],[134.597528,33.949362],[134.597719,33.949468],[134.597818,33.949543],[134.597971,33.949617],[134.59807,33.949654],[134.598161,33.949685],[134.598298,33.949696],[134.598509,33.949663],[134.598637,33.949573],[134.598718,33.949383],[134.59879,33.949136],[134.598858,33.949066],[134.598956,33.949015],[134.599121,33.94895],[134.59928,33.948898],[134.599401,33.948891],[134.599552,33.948877],[134.599704,33.948926],[134.599788,33.948951],[134.599864,33.948931],[134.600077,33.948768],[134.60019,33.948673],[134.60028,33.948659],[134.600493,33.948714],[134.600684,33.948788],[134.600881,33.948824],[134.600973,33.948899],[134.60102,33.949037],[134.601105,33.949157],[134.601221,33.949313],[134.601344,33.949489],[134.60143,33.94964],[134.601559,33.949683],[134.601771,33.949693],[134.60199,33.949653],[134.602088,33.949602],[134.60217,33.949488],[134.60229,33.949392],[134.602494,33.949327],[134.602577,33.949282],[134.602928,33.949377],[134.603321,33.949428],[134.603605,33.949507],[134.603724,33.949531],[134.604026,33.949465],[134.604166,33.949473],[134.604356,33.949516],[134.604508,33.949508],[134.604658,33.949418],[134.604847,33.949185],[134.604926,33.949088],[134.605039,33.948986],[134.605137,33.948953],[134.605236,33.948984],[134.605436,33.949222],[134.60562,33.949378],[134.605825,33.949445],[134.605999,33.949463],[134.606266,33.949561],[134.606517,33.949616],[134.606835,33.949607],[134.606955,33.949574],[134.607077,33.949567],[134.607349,33.949577],[134.607587,33.949515],[134.607723,33.949495],[134.608027,33.949511],[134.608254,33.949521],[134.60833,33.949565],[134.608392,33.949659],[134.608479,33.949961],[134.608684,33.949997],[134.60892,33.950058],[134.609064,33.950063],[134.609185,33.950049],[134.609343,33.950059],[134.609385,33.950112],[134.609453,33.950127],[134.60953,33.950136],[134.60959,33.950142],[134.6097,33.950163],[134.609837,33.950216],[134.609909,33.950221],[134.610003,33.950186],[134.610146,33.950118],[134.610241,33.950101],[134.610332,33.950101],[134.610446,33.950125],[134.610613,33.95013],[134.610734,33.950141],[134.610879,33.950197],[134.611019,33.950255],[134.611168,33.950355],[134.611304,33.950475],[134.611392,33.950512],[134.611598,33.950596],[134.611731,33.950661],[134.611854,33.950748],[134.612043,33.950928],[134.612175,33.951125],[134.612207,33.951248],[134.612242,33.951457],[134.612317,33.951641],[134.612336,33.951687],[134.612325,33.951741],[134.612285,33.95187],[134.612169,33.952135],[134.612056,33.952455],[134.611971,33.952597],[134.611882,33.952769],[134.611832,33.95305],[134.611767,33.953221],[134.611702,33.953337],[134.611501,33.9538],[134.611492,33.953821],[134.611451,33.954013],[134.611409,33.954109],[134.611329,33.95426],[134.611243,33.954583],[134.611158,33.954894],[134.61119,33.955061],[134.611238,33.955222],[134.611289,33.955372],[134.611369,33.955563],[134.611383,33.95578],[134.611457,33.955893],[134.611501,33.956147],[134.611514,33.956224],[134.611535,33.956382],[134.611532,33.956451],[134.611456,33.95657],[134.611352,33.956729],[134.611261,33.956982],[134.611524,33.957005],[134.611661,33.95699],[134.612019,33.95685],[134.612025,33.956862],[134.612092,33.956979],[134.612227,33.95711],[134.612341,33.957172],[134.612475,33.957256],[134.612544,33.957313],[134.612638,33.957386],[134.612696,33.957502],[134.612731,33.957603],[134.612748,33.957707],[134.612772,33.957836],[134.612806,33.957851],[134.612848,33.957842],[134.612912,33.957775],[134.613433,33.957491],[134.613489,33.957727],[134.61352,33.957796],[134.613566,33.957859],[134.61322,33.958026],[134.61296,33.958174],[134.613197,33.958563],[134.613396,33.958482],[134.613501,33.958115],[134.613527,33.958052],[134.613576,33.95801],[134.613636,33.957975],[134.613641,33.958238],[134.613597,33.958774],[134.613566,33.958969],[134.613547,33.959279],[134.613535,33.959381],[134.613483,33.959489],[134.613744,33.959981],[134.613798,33.960008],[134.613863,33.960026],[134.614029,33.96003],[134.614173,33.960015],[134.614207,33.960012],[134.614435,33.960315],[134.61434,33.960367],[134.614048,33.960489],[134.613914,33.960543],[134.613139,33.960854],[134.613278,33.961062],[134.613421,33.961262],[134.613546,33.961494],[134.613614,33.961635],[134.613706,33.961682],[134.613777,33.96167],[134.613976,33.961606],[134.614177,33.961546],[134.614343,33.96149],[134.614444,33.961457],[134.614519,33.961432],[134.614542,33.961432],[134.614595,33.961431],[134.614692,33.961449],[134.614794,33.961468],[134.614843,33.961469],[134.614909,33.96159],[134.614959,33.961659],[134.614985,33.961727],[134.615063,33.96177],[134.615127,33.961786],[134.615166,33.961814],[134.615136,33.961844],[134.615054,33.96189],[134.614827,33.961988],[134.614645,33.962083],[134.61449,33.962167],[134.614429,33.962232],[134.614603,33.962504],[134.614641,33.962565],[134.614367,33.962706],[134.614234,33.962745],[134.614341,33.96292],[134.614766,33.96362],[134.614898,33.963517],[134.61498,33.963451],[134.615016,33.963422],[134.615109,33.963366],[134.615157,33.963372],[134.615288,33.963497],[134.615301,33.963509],[134.615419,33.963619],[134.615495,33.963694],[134.615556,33.963732],[134.615563,33.963734],[134.616172,33.964017],[134.616241,33.964052],[134.616753,33.963973],[134.616757,33.964022],[134.616851,33.964038],[134.617,33.96402],[134.617076,33.964021],[134.61717,33.964028],[134.617289,33.964069],[134.617769,33.964275],[134.617828,33.964294],[134.618019,33.964336],[134.618128,33.964374],[134.618286,33.964421],[134.618436,33.964479],[134.618473,33.964494],[134.618667,33.96478],[134.618821,33.964989],[134.618876,33.965049],[134.61915,33.964957],[134.619264,33.964926],[134.61947,33.96488],[134.619552,33.96517],[134.619683,33.965202],[134.619961,33.965252],[134.62002,33.965477],[134.620092,33.965657],[134.620209,33.965632],[134.620278,33.965901],[134.620348,33.965922],[134.62038,33.96595],[134.620403,33.965998],[134.620412,33.966035],[134.620241,33.966043],[134.620274,33.966238],[134.620294,33.966341],[134.620332,33.966494],[134.620728,33.96656],[134.620727,33.966568],[134.620721,33.966601],[134.620723,33.966633],[134.620755,33.966718],[134.620757,33.966766],[134.62074,33.966805],[134.6207,33.966841],[134.620667,33.966878],[134.620745,33.967012],[134.620942,33.967324],[134.620803,33.967416],[134.620879,33.96749],[134.620897,33.967528],[134.620919,33.967571],[134.62095,33.967601],[134.621024,33.967649],[134.621094,33.967691],[134.621151,33.967711],[134.621199,33.967722],[134.621267,33.967731],[134.621328,33.96774],[134.621396,33.967749],[134.621455,33.967778],[134.621514,33.967826],[134.621573,33.967855],[134.621638,33.967876],[134.621682,33.96792],[134.621763,33.968046],[134.621835,33.968226],[134.621882,33.968343],[134.621924,33.968367],[134.622028,33.968424],[134.622089,33.968455],[134.622118,33.968449],[134.622195,33.968395],[134.622309,33.968316],[134.622459,33.968224],[134.622514,33.968206],[134.622565,33.9682],[134.622865,33.96838],[134.623164,33.968535],[134.623326,33.968372],[134.623492,33.968396],[134.623751,33.968426],[134.623929,33.96845],[134.623945,33.968456],[134.624106,33.968746],[134.624172,33.96893],[134.624232,33.969135],[134.624274,33.969224],[134.624322,33.969323],[134.624344,33.969391],[134.624354,33.969493],[134.624364,33.969586],[134.624378,33.96965],[134.624414,33.969711],[134.624454,33.969748],[134.624554,33.96981],[134.624608,33.969836],[134.624694,33.969859],[134.624765,33.969873],[134.624866,33.969878],[134.62498,33.969885],[134.625069,33.969862],[134.625172,33.969826],[134.625275,33.969765],[134.625333,33.96971],[134.625354,33.969661],[134.625351,33.969621],[134.62532,33.969554],[134.625295,33.969507],[134.625292,33.969439],[134.625319,33.969343],[134.62534,33.96925],[134.625342,33.969217],[134.625332,33.969159],[134.625324,33.969106],[134.625338,33.969049],[134.625361,33.968993],[134.625375,33.968953],[134.625352,33.968917],[134.62535,33.968871],[134.625362,33.968821],[134.625409,33.96871],[134.625427,33.968656],[134.625433,33.968566],[134.62545,33.96852],[134.625482,33.968457],[134.625527,33.968411],[134.625563,33.968379],[134.625632,33.968337],[134.625696,33.968311],[134.625785,33.968285],[134.626217,33.968194],[134.626486,33.968135],[134.626432,33.967967],[134.626399,33.96786],[134.626367,33.967756],[134.626318,33.967748],[134.62625,33.96774],[134.626187,33.96772],[134.626074,33.967706],[134.625944,33.967689],[134.625906,33.967675],[134.625881,33.96765],[134.625862,33.967607],[134.625837,33.967551],[134.6258,33.967509],[134.625759,33.967477],[134.625691,33.967434],[134.625591,33.967393],[134.625577,33.967191],[134.625572,33.967111],[134.625564,33.967012],[134.625528,33.966978],[134.62531,33.966865],[134.625257,33.966834],[134.625195,33.96679],[134.625168,33.966757],[134.625009,33.966562],[134.625438,33.966241],[134.625752,33.966449],[134.626537,33.966069],[134.626614,33.966034],[134.626696,33.96601],[134.62673,33.966005],[134.626776,33.966009],[134.626853,33.966028],[134.626877,33.966041],[134.626922,33.966063],[134.62712,33.965987],[134.627147,33.965914],[134.627188,33.965866],[134.627227,33.96582],[134.627402,33.966119],[134.627434,33.966182],[134.627431,33.966237],[134.627412,33.966283],[134.627256,33.966536],[134.627201,33.966637],[134.627142,33.966764],[134.627677,33.967071],[134.627915,33.966987],[134.627967,33.966958],[134.627995,33.966925],[134.628035,33.966871],[134.628069,33.966822],[134.628098,33.966764],[134.628178,33.966696],[134.628255,33.96664],[134.628337,33.966571],[134.628447,33.966501],[134.628605,33.966416],[134.628691,33.966382],[134.628713,33.966323],[134.628726,33.966281],[134.62873,33.966226],[134.628772,33.96615],[134.628829,33.966107],[134.628894,33.966062],[134.629045,33.965972],[134.629318,33.965794],[134.629388,33.965755],[134.629475,33.965715],[134.629841,33.965536],[134.630005,33.965471],[134.630115,33.965426],[134.630197,33.965416],[134.630297,33.96541],[134.630484,33.965428],[134.630633,33.965432],[134.630771,33.965449],[134.63095,33.96544],[134.631037,33.965435],[134.631125,33.965414],[134.631177,33.96538],[134.631223,33.965335],[134.631276,33.965286],[134.631391,33.965139],[134.631452,33.965047],[134.631586,33.964861],[134.631601,33.964838],[134.631752,33.964589],[134.631841,33.964565],[134.631923,33.964555],[134.632027,33.964545],[134.632103,33.964552],[134.632235,33.964575],[134.632382,33.964601],[134.632458,33.964629],[134.63264,33.964724],[134.632685,33.964742],[134.632749,33.964736],[134.633074,33.964598],[134.633185,33.96455],[134.633272,33.964491],[134.633382,33.964427],[134.633414,33.964397],[134.633454,33.96437],[134.633539,33.964328],[134.634001,33.964116],[134.634207,33.964025],[134.634392,33.963946],[134.634459,33.963901],[134.634535,33.963852],[134.634567,33.963832],[134.634773,33.963701],[134.634895,33.963648],[134.635041,33.963591],[134.635238,33.963534],[134.635311,33.963519],[134.635401,33.963511],[134.635545,33.963507],[134.635612,33.963511],[134.635656,33.963518],[134.635706,33.96353],[134.63575,33.963547],[134.635809,33.963578],[134.63586,33.963624],[134.635881,33.963704],[134.635903,33.963777],[134.635907,33.963852],[134.635913,33.963911],[134.635935,33.963996],[134.63597,33.964087],[134.636032,33.964255],[134.636044,33.964333],[134.636048,33.964493],[134.636043,33.964732],[134.636038,33.964832],[134.636024,33.964896],[134.635945,33.965094],[134.635757,33.965501],[134.635723,33.965557],[134.635671,33.965609],[134.635619,33.965687],[134.635594,33.965734],[134.635557,33.96581],[134.635534,33.965902],[134.635515,33.965993],[134.635492,33.966032],[134.635432,33.966123],[134.635285,33.966331],[134.635186,33.966482],[134.635118,33.966629],[134.635082,33.966768],[134.635083,33.966866],[134.635137,33.967169],[134.635167,33.967305],[134.635203,33.967371],[134.635258,33.967486],[134.635392,33.96772],[134.635576,33.968015],[134.635619,33.968049],[134.635707,33.968102],[134.635731,33.968115],[134.63598,33.968245],[134.6361,33.968314],[134.636136,33.968335],[134.636142,33.968338],[134.636328,33.968446],[134.636449,33.968511],[134.636801,33.968715],[134.637167,33.968914],[134.637504,33.96885],[134.638297,33.969116],[134.638355,33.969139],[134.638545,33.96895],[134.638598,33.968902],[134.638697,33.968989],[134.638784,33.969074],[134.63886,33.96916],[134.638904,33.969225],[134.638966,33.969343],[134.639002,33.969433],[134.63923,33.970199],[134.638739,33.970328],[134.638695,33.970345],[134.638734,33.970871],[134.63878,33.971307],[134.638823,33.971486],[134.638869,33.97151],[134.639452,33.97133],[134.639514,33.971466],[134.639589,33.971617],[134.63882,33.971862],[134.638888,33.97236],[134.63939,33.972335],[134.639506,33.972522],[134.639552,33.972575],[134.639622,33.972641],[134.63968,33.972697],[134.639709,33.972728],[134.639657,33.972809],[134.639605,33.972899],[134.639552,33.972993],[134.639514,33.973084],[134.639496,33.973147],[134.639487,33.973247],[134.639484,33.973335],[134.639499,33.973351],[134.639535,33.973386],[134.639611,33.973457],[134.639656,33.973507],[134.639701,33.973547],[134.639665,33.973676],[134.639646,33.973784],[134.639656,33.973867],[134.639693,33.973924],[134.640138,33.974314],[134.640414,33.974596],[134.640439,33.974611],[134.640504,33.974567],[134.640524,33.974558],[134.640555,33.974583],[134.640732,33.974721],[134.640827,33.97479],[134.640908,33.97484],[134.640991,33.974875],[134.641082,33.974894],[134.641182,33.974905],[134.641283,33.974915],[134.641372,33.97493],[134.641424,33.97584],[134.641501,33.976864],[134.641529,33.977275],[134.641581,33.978019],[134.641811,33.978023],[134.641813,33.978027],[134.641962,33.978387],[134.642161,33.978829],[134.642358,33.979004],[134.642487,33.979145],[134.642813,33.979606],[134.643017,33.979538],[134.643142,33.979512],[134.643309,33.979626],[134.643395,33.979872],[134.643454,33.980014],[134.643577,33.980264],[134.643719,33.980517],[134.643842,33.980714],[134.64392,33.980818],[134.643955,33.980847],[134.644058,33.981075],[134.644055,33.98113],[134.644074,33.981216],[134.644082,33.981301],[134.644095,33.981418],[134.644109,33.981564],[134.64416,33.981778],[134.644229,33.981909],[134.644396,33.982103],[134.644556,33.982269],[134.644723,33.982371],[134.64497,33.982449],[134.645049,33.982471],[134.645183,33.982586],[134.645357,33.982699],[134.645836,33.98292],[134.646263,33.983104],[134.6466,33.98328],[134.646791,33.98349],[134.64688,33.983584],[134.646979,33.983653],[134.647047,33.98369],[134.647189,33.983694],[134.647317,33.983698],[134.647383,33.983721],[134.647414,33.983752],[134.647503,33.98381],[134.647611,33.983825],[134.647704,33.983856],[134.647764,33.98387],[134.64836,33.983347],[134.64853,33.983494],[134.648701,33.983665],[134.648835,33.983815],[134.649105,33.984106],[134.649199,33.984179],[134.649271,33.984214],[134.649371,33.984237],[134.649185,33.984513],[134.649004,33.984822],[134.649061,33.98485],[134.650055,33.985232],[134.650311,33.985328],[134.650445,33.985375],[134.650596,33.985428],[134.650644,33.985441],[134.651326,33.985681],[134.651401,33.985707],[134.651521,33.985749],[134.651461,33.985898],[134.651374,33.986057],[134.651729,33.986163],[134.651963,33.986211],[134.651936,33.986276],[134.651915,33.986359],[134.6519,33.986446],[134.651892,33.986521],[134.651892,33.986529],[134.651893,33.986579],[134.651896,33.986604],[134.651913,33.986655],[134.65197,33.986757],[134.651961,33.986781],[134.651827,33.986752],[134.651805,33.986798],[134.651915,33.986829],[134.651847,33.986884],[134.651793,33.986932],[134.651741,33.986978],[134.651695,33.987027],[134.651674,33.987052],[134.651636,33.987106],[134.651601,33.987168],[134.65157,33.987242],[134.651553,33.987284],[134.651525,33.987377],[134.651514,33.987426],[134.6515,33.987528],[134.651499,33.987629],[134.651501,33.987676],[134.651509,33.987757],[134.651521,33.987823],[134.651536,33.987878],[134.651574,33.987987],[134.651552,33.98798],[134.651548,33.987978],[134.651544,33.987977],[134.651534,33.987976],[134.651525,33.987977],[134.65152,33.987978],[134.651516,33.987979],[134.651511,33.987981],[134.651508,33.987983],[134.651504,33.987985],[134.651494,33.987994],[134.651489,33.988003],[134.651474,33.98804],[134.651473,33.988043],[134.651473,33.988052],[134.651475,33.988055],[134.651479,33.988061],[134.651481,33.988062],[134.651488,33.988066],[134.651491,33.988067],[134.651529,33.988075],[134.651481,33.988104],[134.65144,33.988135],[134.651399,33.988176],[134.65136,33.988229],[134.651342,33.988261],[134.65131,33.988332],[134.651287,33.988409],[134.65127,33.988483],[134.651261,33.988547],[134.651258,33.988603],[134.651252,33.988659],[134.651242,33.988717],[134.651223,33.988781],[134.651193,33.98885],[134.651159,33.98892],[134.651131,33.988987],[134.651113,33.98905],[134.651107,33.989084],[134.651103,33.989156],[134.651106,33.989232],[134.651111,33.98927],[134.651128,33.989338],[134.651151,33.989394],[134.651176,33.989444],[134.65116,33.98946],[134.651155,33.989465],[134.651004,33.989427],[134.650988,33.989467],[134.651178,33.989524],[134.651114,33.989606],[134.65107,33.989669],[134.651039,33.989721],[134.651019,33.989763],[134.650974,33.98988],[134.650941,33.989967],[134.650928,33.989996],[134.650915,33.990024],[134.6509,33.990051],[134.650884,33.990081],[134.650865,33.990112],[134.650846,33.990144],[134.650828,33.990177],[134.650811,33.99021],[134.650797,33.990241],[134.650788,33.990272],[134.650781,33.990301],[134.650776,33.990328],[134.650775,33.990353],[134.650775,33.990377],[134.650779,33.990398],[134.650784,33.990416],[134.65079,33.990433],[134.650797,33.990449],[134.650723,33.990425],[134.650691,33.990486],[134.650776,33.990513],[134.650822,33.990522],[134.650796,33.990542],[134.650784,33.990555],[134.650773,33.990571],[134.650761,33.99059],[134.650748,33.990611],[134.650737,33.990635],[134.650723,33.99066],[134.650712,33.990686],[134.650707,33.990708],[134.650711,33.990724],[134.650722,33.990733],[134.650747,33.990742],[134.650751,33.990747],[134.65075,33.990758],[134.650741,33.990777],[134.650725,33.990813],[134.650703,33.990861],[134.650677,33.990914],[134.650652,33.990966],[134.650629,33.991008],[134.650591,33.991072],[134.650575,33.991095],[134.65056,33.991116],[134.650546,33.991137],[134.650535,33.991162],[134.650523,33.99119],[134.650506,33.99125],[134.650502,33.991276],[134.650499,33.991299],[134.650499,33.99131],[134.650499,33.991313],[134.650498,33.991317],[134.650497,33.99132],[134.650495,33.991322],[134.650488,33.991328],[134.650482,33.991332],[134.650478,33.991333],[134.650473,33.991333],[134.650464,33.991331],[134.650291,33.991283],[134.65027,33.991334],[134.650434,33.991385],[134.650437,33.991386],[134.650441,33.991388],[134.650443,33.99139],[134.650445,33.991392],[134.650446,33.991394],[134.650448,33.9914],[134.650448,33.991403],[134.650447,33.991406],[134.65043,33.991462],[134.650425,33.991483],[134.65042,33.991505],[134.650419,33.991527],[134.650418,33.991547],[134.65042,33.991565],[134.650423,33.991581],[134.650426,33.991597],[134.650352,33.99157],[134.650338,33.991562],[134.650327,33.991553],[134.65032,33.991543],[134.650312,33.991512],[134.650308,33.991503],[134.650302,33.991496],[134.650292,33.991494],[134.65028,33.991496],[134.650267,33.9915],[134.650257,33.991507],[134.65025,33.991515],[134.650199,33.991571],[134.65018,33.991593],[134.650162,33.99162],[134.650144,33.99165],[134.650133,33.991674],[134.650081,33.991792],[134.650069,33.991825],[134.650056,33.991861],[134.650047,33.991901],[134.65004,33.99194],[134.650037,33.991978],[134.650038,33.992011],[134.650042,33.992038],[134.65005,33.992062],[134.65006,33.992086],[134.650073,33.992113],[134.650085,33.99214],[134.650057,33.992153],[134.64989,33.992111],[134.649866,33.99216],[134.650078,33.992239],[134.650115,33.992253],[134.650063,33.992255],[134.650041,33.992263],[134.650023,33.99228],[134.650005,33.992302],[134.649985,33.992326],[134.649963,33.992351],[134.649942,33.992369],[134.64992,33.992379],[134.649902,33.992379],[134.649885,33.992369],[134.64987,33.992354],[134.649859,33.992339],[134.649851,33.992324],[134.649845,33.99231],[134.649804,33.992318],[134.649783,33.992325],[134.649762,33.992337],[134.649737,33.992357],[134.649705,33.992385],[134.649671,33.992421],[134.64964,33.992464],[134.649615,33.99251],[134.649594,33.992557],[134.649576,33.9926],[134.649563,33.992637],[134.649558,33.992665],[134.64956,33.992684],[134.649564,33.992701],[134.649514,33.992802],[134.649485,33.992866],[134.649455,33.992941],[134.649428,33.993018],[134.649404,33.993088],[134.649387,33.993145],[134.64938,33.993182],[134.649382,33.993201],[134.649387,33.993211],[134.649359,33.993204],[134.649335,33.993263],[134.649472,33.993311],[134.649362,33.993391],[134.649254,33.993427],[134.649268,33.993336],[134.649137,33.993309],[134.648819,33.993938],[134.648781,33.994007],[134.648839,33.994028],[134.648873,33.994061],[134.648845,33.994131],[134.648731,33.994102],[134.648575,33.99441],[134.648557,33.994445],[134.648569,33.994484],[134.648583,33.994514],[134.648606,33.994539],[134.648638,33.994558],[134.648674,33.994577],[134.648653,33.994652],[134.648477,33.994599],[134.648454,33.994592],[134.648449,33.994602],[134.648427,33.994647],[134.648625,33.994738],[134.648535,33.994832],[134.648357,33.994799],[134.648146,33.995252],[134.64825,33.995289],[134.648337,33.995257],[134.648318,33.995347],[134.648315,33.995383],[134.648314,33.995411],[134.648315,33.995436],[134.648221,33.995411],[134.648183,33.995404],[134.648154,33.995406],[134.648134,33.995419],[134.648123,33.995438],[134.648113,33.995458],[134.64811,33.995476],[134.648114,33.995489],[134.648124,33.995497],[134.648138,33.995503],[134.648094,33.995575],[134.648061,33.99564],[134.648015,33.995728],[134.647966,33.995823],[134.647936,33.995876],[134.647916,33.995913],[134.647875,33.995991],[134.647849,33.996051],[134.647842,33.996076],[134.647836,33.996112],[134.647837,33.99614],[134.647838,33.996161],[134.647841,33.996181],[134.64783,33.996178],[134.647701,33.996131],[134.64769,33.996154],[134.647813,33.996211],[134.647794,33.996257],[134.647773,33.996293],[134.64774,33.996335],[134.647703,33.996383],[134.64767,33.996431],[134.647644,33.996478],[134.64763,33.99652],[134.647623,33.996551],[134.647624,33.996575],[134.647629,33.99659],[134.647634,33.996599],[134.647642,33.996605],[134.647622,33.996649],[134.648924,33.997097],[134.649078,33.996785],[134.649153,33.99681],[134.648951,33.99722],[134.648876,33.997195],[134.648903,33.997139],[134.647597,33.99669],[134.647575,33.996682],[134.647272,33.997003],[134.646871,33.997754],[134.646889,33.99784],[134.646804,33.99792],[134.646768,33.997962],[134.646736,33.998008],[134.646706,33.998063],[134.646674,33.998127],[134.646644,33.998193],[134.646618,33.998252],[134.646597,33.998301],[134.64658,33.998345],[134.646535,33.998333],[134.646528,33.998352],[134.646514,33.998388],[134.646507,33.998413],[134.646499,33.998446],[134.64649,33.99849],[134.646483,33.998535],[134.646477,33.99858],[134.646319,33.998523],[134.646283,33.998585],[134.646459,33.998649],[134.646426,33.998676],[134.646394,33.998703],[134.646366,33.998729],[134.646343,33.998756],[134.646327,33.998784],[134.646316,33.998812],[134.646308,33.998842],[134.646301,33.998875],[134.646293,33.998917],[134.646284,33.998939],[134.646271,33.998967],[134.646251,33.99899],[134.646244,33.998997],[134.646232,33.999003],[134.646223,33.999005],[134.646208,33.999002],[134.646182,33.998988],[134.646165,33.998975],[134.646152,33.998964],[134.646143,33.998953],[134.646136,33.998941],[134.646132,33.998931],[134.646114,33.998885],[134.646112,33.99888],[134.646105,33.998878],[134.6461,33.99888],[134.646095,33.998884],[134.646093,33.99889],[134.646093,33.998897],[134.646105,33.998941],[134.646113,33.998965],[134.646119,33.998978],[134.64613,33.998988],[134.646162,33.999005],[134.646192,33.999024],[134.646211,33.999042],[134.646219,33.999054],[134.646217,33.999058],[134.646204,33.999072],[134.646177,33.999102],[134.646144,33.999143],[134.646113,33.999187],[134.646084,33.999233],[134.646063,33.999277],[134.646049,33.999316],[134.64604,33.999351],[134.646036,33.999388],[134.646038,33.999427],[134.645987,33.999409],[134.645949,33.9994],[134.645936,33.9994],[134.645922,33.999407],[134.645915,33.999417],[134.645916,33.999424],[134.64593,33.999438],[134.645955,33.999451],[134.646013,33.999479],[134.645959,33.999517],[134.645914,33.999551],[134.645879,33.99958],[134.645842,33.999616],[134.645812,33.999649],[134.64579,33.999686],[134.645762,33.999729],[134.645723,33.999788],[134.645682,33.999853],[134.645653,33.999899],[134.645624,33.99997],[134.645524,33.999934],[134.645502,33.999981],[134.645604,34.000017],[134.645564,34.000057],[134.645526,34.0001],[134.645493,34.000147],[134.645464,34.000186],[134.645437,34.000228],[134.645412,34.000275],[134.645389,34.000324],[134.645365,34.000378],[134.645341,34.000438],[134.645308,34.000534],[134.64521,34.000503],[134.645195,34.000523],[134.645189,34.000541],[134.64519,34.000549],[134.645202,34.00056],[134.645258,34.000582],[134.645218,34.000618],[134.645187,34.000658],[134.645164,34.000701],[134.645141,34.000745],[134.645116,34.000796],[134.645088,34.000856],[134.64506,34.000921],[134.645041,34.000977],[134.64501,34.001081],[134.644999,34.001082],[134.644971,34.001095],[134.644899,34.001072],[134.644873,34.001124],[134.644922,34.001146],[134.64481,34.001283],[134.644773,34.001339],[134.644759,34.001367],[134.644728,34.001424],[134.644696,34.001486],[134.644665,34.001549],[134.644645,34.001602],[134.644639,34.001646],[134.644598,34.001639],[134.644574,34.001644],[134.644565,34.001652],[134.644558,34.001661],[134.644553,34.001668],[134.644553,34.001684],[134.644562,34.0017],[134.644416,34.001906],[134.644365,34.001971],[134.644335,34.002011],[134.64431,34.002052],[134.644287,34.002091],[134.644273,34.002129],[134.644271,34.002147],[134.64427,34.002182],[134.644274,34.002216],[134.644204,34.002196],[134.64416,34.002253],[134.644234,34.002298],[134.64418,34.002335],[134.644132,34.002373],[134.644096,34.00241],[134.644044,34.002471],[134.644,34.002525],[134.643953,34.002582],[134.643917,34.002631],[134.643888,34.002681],[134.643858,34.002746],[134.643795,34.002719],[134.643766,34.002767],[134.64382,34.002796],[134.643793,34.002827],[134.643768,34.002872],[134.643743,34.002924],[134.643712,34.00297],[134.643681,34.003007],[134.64365,34.003043],[134.643621,34.003089],[134.643593,34.003134],[134.643562,34.003174],[134.643528,34.003214],[134.643497,34.003257],[134.643472,34.003304],[134.643382,34.003274],[134.643346,34.00331],[134.643369,34.003322],[134.643429,34.003354],[134.643351,34.003451],[134.643332,34.003474],[134.643316,34.003495],[134.643254,34.003566],[134.643205,34.00362],[134.643168,34.00366],[134.643142,34.003686],[134.643116,34.003724],[134.643104,34.003746],[134.643094,34.003771],[134.643091,34.003787],[134.643092,34.003838],[134.643048,34.003821],[134.643011,34.003807],[134.642997,34.003804],[134.642987,34.003804],[134.642978,34.003807],[134.642967,34.00382],[134.642956,34.003833],[134.642956,34.00384],[134.642969,34.003853],[134.643023,34.003892],[134.64298,34.003927],[134.642934,34.003963],[134.642889,34.004003],[134.642853,34.004041],[134.642824,34.004071],[134.6428,34.004097],[134.64278,34.004127],[134.642762,34.004156],[134.642749,34.004182],[134.642736,34.004218],[134.642674,34.004378],[134.642625,34.00435],[134.642592,34.004335],[134.642584,34.004333],[134.642568,34.004341],[134.642553,34.004356],[134.642547,34.004362],[134.642546,34.004368],[134.642553,34.004377],[134.642613,34.004416],[134.642584,34.004449],[134.642549,34.004485],[134.64251,34.004523],[134.642471,34.004558],[134.642441,34.004585],[134.64242,34.004607],[134.642399,34.004633],[134.642384,34.004661],[134.642372,34.004692],[134.642354,34.004732],[134.642344,34.004754],[134.642313,34.004797],[134.642274,34.004847],[134.642255,34.004873],[134.642249,34.004893],[134.642253,34.004909],[134.642258,34.004921],[134.64223,34.004901],[134.642212,34.004891],[134.642193,34.004885],[134.642152,34.004876],[134.642128,34.004901],[134.642194,34.004953],[134.642207,34.004963],[134.642194,34.004971],[134.642163,34.00499],[134.642108,34.005025],[134.642048,34.005066],[134.641999,34.0051],[134.641958,34.005134],[134.641918,34.005173],[134.641882,34.005211],[134.641858,34.005243],[134.641839,34.005274],[134.641807,34.005321],[134.641772,34.00538],[134.641746,34.005429],[134.641931,34.005555],[134.641922,34.005564],[134.64174,34.00544],[134.641733,34.005456],[134.641731,34.005464],[134.641745,34.005485],[134.641691,34.005505],[134.641649,34.005525],[134.641609,34.005552],[134.641545,34.005593],[134.641487,34.00563],[134.641467,34.005645],[134.64145,34.005661],[134.641421,34.005701],[134.641411,34.005721],[134.641388,34.00575],[134.641356,34.005788],[134.641327,34.005834],[134.64132,34.005848],[134.641325,34.005866],[134.641292,34.005845],[134.641264,34.005829],[134.641251,34.005824],[134.641239,34.005825],[134.641215,34.005836],[134.641202,34.005847],[134.641207,34.005854],[134.641269,34.005913],[134.641218,34.005942],[134.641169,34.005973],[134.641123,34.006008],[134.641075,34.006047],[134.641032,34.006087],[134.640996,34.00613],[134.640959,34.00619],[134.640916,34.006262],[134.640865,34.006339],[134.64076,34.006269],[134.640731,34.006304],[134.640823,34.006375],[134.640768,34.006394],[134.640723,34.006423],[134.64068,34.006462],[134.640623,34.006501],[134.640568,34.006546],[134.640517,34.006599],[134.640462,34.006657],[134.640412,34.006707],[134.640368,34.006749],[134.64033,34.006796],[134.640305,34.006836],[134.640294,34.006867],[134.640198,34.006813],[134.640162,34.006842],[134.640251,34.006908],[134.64021,34.006914],[134.640178,34.006923],[134.64015,34.00694],[134.640109,34.006968],[134.640067,34.007005],[134.64003,34.007046],[134.639989,34.007089],[134.639964,34.007125],[134.639953,34.007154],[134.639939,34.007186],[134.63991,34.007233],[134.639878,34.007286],[134.639871,34.007304],[134.639871,34.007329],[134.639776,34.007242],[134.63973,34.007282],[134.639752,34.007301],[134.639761,34.007321],[134.639759,34.007337],[134.639752,34.007347],[134.639727,34.007367],[134.639688,34.007392],[134.639646,34.007411],[134.639593,34.007435],[134.639539,34.007465],[134.639496,34.007488],[134.639466,34.00751],[134.639435,34.00754],[134.639412,34.007567],[134.639397,34.007586],[134.639233,34.007751],[134.639166,34.007679],[134.639114,34.007706],[134.639175,34.007799],[134.639132,34.007815],[134.639084,34.007842],[134.639032,34.007876],[134.63898,34.007898],[134.638936,34.007917],[134.638745,34.008025],[134.638669,34.00807],[134.638625,34.008033],[134.638564,34.008072],[134.638596,34.008119],[134.638372,34.008231],[134.63821,34.008302],[134.638144,34.008336],[134.638097,34.008367],[134.638065,34.008398],[134.638038,34.008433],[134.63796,34.008364],[134.637904,34.008401],[134.637954,34.008472],[134.637848,34.008487],[134.637803,34.0085],[134.637762,34.008517],[134.637719,34.008544],[134.637599,34.008633],[134.637428,34.008774],[134.637299,34.008626],[134.637079,34.008753],[134.63709,34.008777],[134.636919,34.008869],[134.636918,34.008919],[134.636722,34.008952],[134.636651,34.008994],[134.636649,34.009],[134.636621,34.009061],[134.636595,34.009114],[134.63658,34.009161],[134.636564,34.009194],[134.636543,34.009229],[134.636531,34.009244],[134.636517,34.009258],[134.636506,34.009264],[134.636486,34.009274],[134.636471,34.009277],[134.636453,34.009279],[134.636389,34.00928],[134.636351,34.009276],[134.636306,34.009269],[134.636284,34.009263],[134.636272,34.009264],[134.63626,34.009266],[134.636243,34.009271],[134.636223,34.009281],[134.636132,34.009336],[134.636125,34.009272],[134.635864,34.009403],[134.63565,34.009502],[134.635531,34.009549],[134.635294,34.009636],[134.635292,34.009637],[134.635287,34.009639],[134.635234,34.009699],[134.635228,34.009699],[134.635108,34.0097],[134.635079,34.0097],[134.635076,34.009701],[134.634669,34.009844],[134.634692,34.009873],[134.634545,34.009991],[134.634502,34.010021],[134.63444,34.010055],[134.634348,34.010094],[134.634145,34.01017],[134.633989,34.010251],[134.633878,34.010309],[134.633774,34.010368],[134.633709,34.010397],[134.633639,34.010424],[134.633614,34.010433],[134.63357,34.010445],[134.633503,34.010455],[134.633381,34.010469],[134.633348,34.010476],[134.633323,34.010482],[134.633263,34.010501],[134.633119,34.010548],[134.632949,34.010599],[134.633018,34.010767],[134.63297,34.010781],[134.632915,34.010645],[134.63285,34.010629],[134.632817,34.010631],[134.632769,34.010639],[134.632706,34.010654],[134.632549,34.010704],[134.632455,34.010739],[134.632239,34.010834],[134.63213,34.010887],[134.632044,34.010934],[134.631989,34.010968],[134.631972,34.010981],[134.631961,34.010992],[134.631945,34.011012],[134.631969,34.011411],[134.631908,34.011415],[134.631852,34.010723],[134.631829,34.010724],[134.631819,34.010701],[134.631811,34.010689],[134.631802,34.010676],[134.631793,34.010666],[134.631783,34.010658],[134.631766,34.010651],[134.631756,34.010648],[134.631741,34.010645],[134.631727,34.010645],[134.63172,34.010647],[134.631722,34.010669],[134.631686,34.010671],[134.631676,34.010632],[134.631671,34.010619],[134.631617,34.010618],[134.631619,34.010659],[134.631578,34.01066],[134.63139,34.010667],[134.631205,34.010672],[134.631014,34.010675],[134.630834,34.010675],[134.630662,34.010676],[134.630496,34.010675],[134.630404,34.01067],[134.630351,34.010667],[134.630296,34.010661],[134.630234,34.010653],[134.630189,34.010646],[134.630125,34.010635],[134.630063,34.010623],[134.629997,34.010609],[134.629939,34.010594],[134.629847,34.010567],[134.629764,34.010538],[134.629605,34.010478],[134.629438,34.010415],[134.62928,34.010357],[134.628949,34.010334],[134.628932,34.010336],[134.628923,34.01034],[134.628919,34.010366],[134.628858,34.010334],[134.628837,34.01037],[134.628787,34.010453],[134.628749,34.010438],[134.628739,34.010429],[134.628732,34.010416],[134.628723,34.010375],[134.62872,34.01036],[134.628714,34.010348],[134.628702,34.010333],[134.62869,34.010324],[134.628675,34.010316],[134.628644,34.010303],[134.628613,34.010295],[134.628524,34.010273],[134.628412,34.010253],[134.628325,34.010243],[134.628233,34.010236],[134.628118,34.010232],[134.627969,34.010236],[134.628133,34.010027],[134.628086,34.010004],[134.627938,34.010186],[134.627936,34.010099],[134.627925,34.010003],[134.627913,34.009944],[134.627902,34.009898],[134.627885,34.009854],[134.627864,34.009814],[134.627837,34.009773],[134.627802,34.009728],[134.627722,34.009638],[134.627682,34.0096],[134.627641,34.009566],[134.62759,34.009532],[134.627456,34.009455],[134.627325,34.009392],[134.6272,34.009347],[134.62704,34.009295],[134.626904,34.009256],[134.626777,34.009225],[134.626583,34.009175],[134.626416,34.00913],[134.626308,34.009094],[134.626255,34.00907],[134.626153,34.00902],[134.626241,34.008964],[134.626211,34.008925],[134.626011,34.00905],[134.625989,34.009026],[134.626011,34.009012],[134.626218,34.008882],[134.626218,34.00887],[134.626221,34.00886],[134.626231,34.008849],[134.626245,34.008838],[134.626289,34.008813],[134.6263,34.008806],[134.62631,34.008798],[134.626317,34.008789],[134.626325,34.00878],[134.62633,34.00877],[134.626332,34.008763],[134.626331,34.008754],[134.626326,34.008743],[134.626293,34.008687],[134.62627,34.008642],[134.626215,34.00853],[134.626182,34.008468],[134.626143,34.008404],[134.626094,34.008337],[134.62603,34.008266],[134.626,34.008237],[134.625879,34.008143],[134.625807,34.008069],[134.62573,34.007989],[134.625664,34.007913],[134.62561,34.007846],[134.625568,34.007789],[134.625502,34.007687],[134.625396,34.007707],[134.625389,34.007689],[134.625536,34.007662],[134.625533,34.007605],[134.62552,34.007541],[134.625509,34.007504],[134.625469,34.007417],[134.625421,34.007325],[134.625378,34.007238],[134.625341,34.007155],[134.625303,34.007061],[134.625256,34.006944],[134.625212,34.006832],[134.625183,34.006754],[134.625166,34.006703],[134.625147,34.006703],[134.625129,34.0067],[134.625116,34.006689],[134.625107,34.006673],[134.625104,34.006658],[134.625103,34.006651],[134.625112,34.006641],[134.625146,34.006632],[134.625343,34.00659],[134.625352,34.006474],[134.625361,34.006345],[134.625366,34.006237],[134.625368,34.006188],[134.625373,34.00602],[134.625373,34.005889],[134.625367,34.005825],[134.625355,34.005797],[134.625339,34.005758],[134.625321,34.005698],[134.62531,34.005642],[134.625309,34.005623],[134.625311,34.00561],[134.625326,34.005584],[134.625313,34.005549],[134.625302,34.005511],[134.625289,34.005464],[134.625277,34.005406],[134.625264,34.005337],[134.625252,34.005265],[134.625244,34.005198],[134.625236,34.005138],[134.625228,34.005018],[134.62524,34.005011],[134.625238,34.004946],[134.625236,34.004886],[134.625233,34.004834],[134.625232,34.004795],[134.625227,34.004767],[134.625216,34.004744],[134.625196,34.004718],[134.625163,34.004684],[134.625123,34.004642],[134.62508,34.004593],[134.625039,34.004541],[134.625003,34.004484],[134.62497,34.004421],[134.624942,34.004352],[134.624915,34.004274],[134.624894,34.00419],[134.624878,34.004106],[134.62487,34.004025],[134.62487,34.003947],[134.624875,34.003871],[134.624885,34.003797],[134.624897,34.003721],[134.624914,34.003645],[134.624934,34.003562],[134.624961,34.003476],[134.624995,34.003384],[134.625019,34.003319],[134.625028,34.003296],[134.625062,34.003213],[134.62509,34.003143],[134.625115,34.003079],[134.625141,34.00302],[134.625169,34.00296],[134.625267,34.00277],[134.625314,34.002784],[134.625376,34.002654],[134.625419,34.002665],[134.625343,34.002822],[134.625369,34.002849],[134.625377,34.002861],[134.625382,34.002874],[134.625385,34.002888],[134.625385,34.002904],[134.625383,34.002921],[134.625381,34.002938],[134.625374,34.002953],[134.625365,34.002968],[134.625353,34.002976],[134.625407,34.002994],[134.625414,34.002995],[134.625422,34.002978],[134.625438,34.002981],[134.625498,34.002868],[134.625512,34.002821],[134.625551,34.002831],[134.625538,34.002877],[134.625516,34.002873],[134.625512,34.00288],[134.625456,34.002987],[134.625475,34.002997],[134.625453,34.003043],[134.625433,34.003037],[134.625426,34.003045],[134.625412,34.003043],[134.625421,34.003011],[134.625338,34.002984],[134.625335,34.002986],[134.625317,34.002993],[134.625299,34.002999],[134.625282,34.003005],[134.625265,34.003011],[134.625248,34.003018],[134.625223,34.00307],[134.625218,34.00308],[134.625215,34.003088],[134.625209,34.003115],[134.625208,34.003124],[134.625208,34.003142],[134.625211,34.003169],[134.625214,34.003177],[134.625217,34.003186],[134.625224,34.003203],[134.625228,34.003211],[134.625233,34.003217],[134.625299,34.003319],[134.625508,34.003639],[134.625627,34.003821],[134.625666,34.003813],[134.625711,34.003805],[134.625766,34.003798],[134.625837,34.003791],[134.625924,34.003786],[134.625942,34.003785],[134.626029,34.003781],[134.62615,34.003779],[134.626287,34.003779],[134.626442,34.00378],[134.626616,34.003781],[134.626813,34.003782],[134.627501,34.003777],[134.627558,34.00382],[134.6277,34.003807],[134.627844,34.003795],[134.627993,34.003779],[134.628149,34.003758],[134.62831,34.003733],[134.62847,34.003708],[134.628624,34.003685],[134.628762,34.003666],[134.628886,34.00365],[134.628995,34.003634],[134.629044,34.003626],[134.629127,34.003606],[134.629197,34.003585],[134.629255,34.003566],[134.629306,34.003549],[134.629429,34.003519],[134.629467,34.003494],[134.629504,34.003468],[134.629536,34.003442],[134.629563,34.003413],[134.629585,34.00338],[134.629604,34.003335],[134.629608,34.00332],[134.629624,34.00327],[134.629645,34.003182],[134.629671,34.003077],[134.629697,34.002962],[134.629725,34.002847],[134.629891,34.002198],[134.630132,34.001868],[134.630643,34.001165],[134.631022,34.000644],[134.630599,34.000431],[134.629534,33.999895],[134.629512,33.999884],[134.629489,33.999875],[134.629465,33.999866],[134.629417,33.999852],[134.629392,33.999847],[134.629366,33.999842],[134.629341,33.99984],[134.629315,33.999838],[134.629289,33.999837],[134.629263,33.999837],[134.629238,33.999838],[134.629212,33.999841],[134.629187,33.999845],[134.629161,33.99985],[134.629137,33.999855],[134.629089,33.99987],[134.629066,33.99988],[134.629043,33.99989],[134.62902,33.999901],[134.628999,33.999913],[134.62898,33.999926],[134.628626,34.000163],[134.628396,34.000039],[134.628403,34.000029],[134.628625,34.000149],[134.628971,33.999917],[134.628992,33.999902],[134.629013,33.999891],[134.629036,33.999879],[134.629059,33.999869],[134.629084,33.99986],[134.62914,33.999842],[134.629158,33.999838],[134.629184,33.999833],[134.62921,33.99983],[134.629236,33.999827],[134.629262,33.999825],[134.62929,33.999825],[134.629317,33.999826],[134.629343,33.999828],[134.629369,33.999831],[134.629395,33.999835],[134.629412,33.999838],[134.62947,33.999855],[134.629489,33.999862],[134.629542,33.999885],[134.630609,34.000422],[134.630764,34.000197],[134.630889,34.000256],[134.631297,33.999714],[134.631332,33.999711],[134.631634,33.999861],[134.631631,33.999878],[134.631962,34.000026],[134.631971,34.00003],[134.631978,34.000035],[134.631983,34.000037],[134.63199,34.000043],[134.631993,34.000046],[134.632002,34.000056],[134.632004,34.000059],[134.632102,34.000186],[134.632105,34.000189],[134.63215,34.000148],[134.632146,34.000142],[134.632091,34.000042],[134.632086,34.000032],[134.632084,34.000027],[134.632081,34.000016],[134.632079,34.000004],[134.632079,33.999993],[134.63208,33.999982],[134.632081,33.999977],[134.63209,33.999955],[134.632103,33.999937],[134.632144,33.999891],[134.632063,33.999845],[134.6322,33.999656],[134.631417,33.99911],[134.631449,33.999077],[134.631498,33.999027],[134.631477,33.999013],[134.631486,33.999004],[134.63151,33.998983],[134.631572,33.999026],[134.631589,33.999011],[134.631683,33.999075],[134.632003,33.999294],[134.632156,33.99907],[134.632561,33.998538],[134.632789,33.998505],[134.632807,33.998443],[134.632613,33.998454],[134.631867,33.998052],[134.631873,33.998041],[134.631765,33.997989],[134.631325,33.998603],[134.631225,33.998551],[134.631183,33.99861],[134.631113,33.998643],[134.630899,33.998964],[134.630859,33.998962],[134.630762,33.999083],[134.630336,33.999681],[134.63035,33.999703],[134.63035,33.999717],[134.630343,33.999732],[134.63033,33.999744],[134.630311,33.999752],[134.6303,33.999753],[134.630282,33.999751],[134.630267,33.999742],[134.630261,33.999731],[134.630258,33.999721],[134.630259,33.999713],[134.630264,33.999708],[134.630194,33.999664],[134.630615,33.999085],[134.630819,33.998813],[134.630653,33.998517],[134.630494,33.998228],[134.630331,33.998324],[134.629618,33.998738],[134.629575,33.998763],[134.629482,33.998824],[134.62944,33.998853],[134.6294,33.998883],[134.629104,33.999098],[134.628933,33.999216],[134.62888,33.999175],[134.628807,33.999311],[134.628977,33.999376],[134.628977,33.999382],[134.62923,33.999478],[134.629225,33.99949],[134.628968,33.999389],[134.628963,33.999399],[134.628793,33.999331],[134.628544,33.999773],[134.62852,33.999764],[134.628859,33.999173],[134.628956,33.9991],[134.629331,33.99882],[134.629375,33.998789],[134.62942,33.998757],[134.629512,33.998696],[134.629559,33.998668],[134.630272,33.998254],[134.630694,33.998009],[134.630563,33.997751],[134.629901,33.998132],[134.629869,33.998092],[134.63054,33.997705],[134.630442,33.997513],[134.630138,33.99698],[134.629856,33.996484],[134.629854,33.996481],[134.629851,33.996468],[134.62985,33.996456],[134.629851,33.996447],[134.629854,33.99644],[134.629857,33.996436],[134.629861,33.996428],[134.629869,33.996418],[134.629877,33.996414],[134.629992,33.99634],[134.629996,33.996337],[134.630005,33.996333],[134.630014,33.99633],[134.630028,33.996327],[134.630034,33.996326],[134.630053,33.996326],[134.630059,33.996326],[134.63008,33.996331],[134.630827,33.995782],[134.631939,33.994962],[134.632491,33.99456],[134.632823,33.994317],[134.632848,33.994319],[134.632843,33.994348],[134.63288,33.994352],[134.632901,33.994309],[134.632995,33.994314],[134.63306,33.9942],[134.633067,33.994187],[134.63307,33.994184],[134.633079,33.994176],[134.633092,33.994168],[134.633097,33.994165],[134.633108,33.994161],[134.633119,33.994158],[134.633129,33.994156],[134.633153,33.994156],[134.633164,33.994158],[134.633186,33.994165],[134.633196,33.99417],[134.6332,33.994173],[134.633209,33.99418],[134.633219,33.99419],[134.633222,33.994195],[134.63324,33.99419],[134.633245,33.994197],[134.633251,33.994215],[134.633253,33.994218],[134.633253,33.994245],[134.633252,33.99425],[134.633251,33.994256],[134.633161,33.99449],[134.633154,33.994506],[134.633141,33.994528],[134.633129,33.994543],[134.633118,33.994554],[134.633106,33.994566],[134.632956,33.994665],[134.632941,33.994655],[134.632886,33.994693],[134.63289,33.994753],[134.633181,33.995],[134.633219,33.995003],[134.633602,33.994712],[134.633811,33.994547],[134.633935,33.994454],[134.634269,33.994198],[134.634146,33.993871],[134.634069,33.993864],[134.633929,33.993967],[134.633636,33.994182],[134.633481,33.994034],[134.633925,33.99371],[134.634019,33.993641],[134.634068,33.993686],[134.634094,33.993668],[134.634472,33.993398],[134.634533,33.993364],[134.634198,33.993129],[134.634174,33.99314],[134.633919,33.993246],[134.633789,33.993301],[134.633535,33.993385],[134.633536,33.99339],[134.633544,33.993411],[134.633375,33.993466],[134.633331,33.993482],[134.633291,33.9935],[134.633271,33.99351],[134.633233,33.993532],[134.633215,33.993545],[134.633176,33.993572],[134.633251,33.993634],[134.633235,33.993648],[134.633161,33.993583],[134.633151,33.99359],[134.633083,33.993527],[134.633036,33.993562],[134.633103,33.993626],[134.633098,33.993631],[134.633171,33.993701],[134.633155,33.993713],[134.63308,33.993644],[134.632633,33.99402],[134.632141,33.994401],[134.631887,33.994565],[134.63127,33.994961],[134.62977,33.995939],[134.629772,33.995943],[134.629457,33.996008],[134.629453,33.995995],[134.626291,33.996652],[134.626295,33.996646],[134.625691,33.996781],[134.625284,33.996579],[134.624507,33.996192],[134.625572,33.994662],[134.62553,33.99464],[134.625595,33.994542],[134.625649,33.994462],[134.625691,33.994379],[134.62575,33.994262],[134.627039,33.991726],[134.6276,33.99137],[134.627147,33.991195],[134.626825,33.991071],[134.626622,33.99147],[134.626285,33.99212],[134.626286,33.992121],[134.626269,33.992154],[134.626322,33.992176],[134.626326,33.992179],[134.626312,33.992197],[134.626303,33.992207],[134.62629,33.992218],[134.626275,33.992226],[134.626261,33.992235],[134.626251,33.992238],[134.626236,33.992241],[134.626222,33.992245],[134.626208,33.992246],[134.626193,33.992247],[134.626171,33.992245],[134.626153,33.992241],[134.626152,33.992241],[134.625977,33.992569],[134.625949,33.992623],[134.625953,33.992638],[134.625965,33.992645],[134.625985,33.99266],[134.626001,33.992676],[134.626001,33.992677],[134.626006,33.992682],[134.626011,33.992693],[134.626017,33.992707],[134.626022,33.992719],[134.626024,33.99273],[134.626024,33.992744],[134.626024,33.992754],[134.626023,33.992764],[134.62602,33.992774],[134.626018,33.99278],[134.626014,33.992785],[134.62601,33.992785],[134.625956,33.992764],[134.625845,33.992982],[134.6258,33.993072],[134.625793,33.993087],[134.625226,33.994204],[134.625216,33.994222],[134.625209,33.994229],[134.625197,33.994236],[134.625173,33.99424],[134.625155,33.994236],[134.623578,33.993473],[134.622373,33.995159],[134.617195,33.992612],[134.617267,33.992518],[134.617836,33.992794],[134.617864,33.992754],[134.617843,33.992743],[134.617905,33.99266],[134.618382,33.992886],[134.618501,33.992871],[134.618935,33.992242],[134.618877,33.99223],[134.618817,33.992212],[134.618768,33.99219],[134.618761,33.992186],[134.618724,33.992165],[134.618687,33.992139],[134.61867,33.992127],[134.618648,33.992111],[134.618629,33.992095],[134.618603,33.992076],[134.618557,33.992044],[134.618462,33.991989],[134.618319,33.991918],[134.618016,33.991772],[134.617687,33.991617],[134.617453,33.991506],[134.61735,33.991457],[134.617245,33.991405],[134.617188,33.991376],[134.617072,33.991313],[134.617017,33.991282],[134.617006,33.991278],[134.616983,33.991272],[134.616969,33.991273],[134.616961,33.991273],[134.616946,33.991277],[134.616941,33.99128],[134.61693,33.991288],[134.616925,33.991293],[134.61692,33.9913],[134.616912,33.991311],[134.616904,33.99132],[134.616898,33.991325],[134.61689,33.991327],[134.616961,33.991746],[134.613593,33.991708],[134.613588,33.992138],[134.612952,33.992135],[134.612953,33.992007],[134.612968,33.992004],[134.612969,33.9917],[134.611909,33.991684],[134.610614,33.9909],[134.610717,33.991525],[134.608929,33.99172],[134.608935,33.991747],[134.608939,33.991787],[134.608986,33.99213],[134.609369,33.992885],[134.609552,33.993],[134.609565,33.993008],[134.609615,33.99304],[134.609737,33.993117],[134.609919,33.993234],[134.610104,33.993354],[134.610299,33.993479],[134.610503,33.993607],[134.610706,33.993732],[134.610888,33.993848],[134.611048,33.993954],[134.611203,33.994053],[134.611364,33.99415],[134.611445,33.994201],[134.611528,33.994257],[134.611611,33.994319],[134.611693,33.994387],[134.611869,33.994549],[134.612074,33.994746],[134.612078,33.994751],[134.612333,33.994989],[134.612605,33.995238],[134.612853,33.995466],[134.613077,33.99567],[134.613314,33.995888],[134.613585,33.996137],[134.613852,33.996382],[134.614057,33.996571],[134.614284,33.996786],[134.614252,33.996814],[134.61423,33.996829],[134.61403,33.99698],[134.613977,33.99702],[134.613829,33.997133],[134.613618,33.997295],[134.613402,33.99746],[134.612696,33.997998],[134.612391,33.997723],[134.612089,33.997451],[134.611797,33.997184],[134.611236,33.996663],[134.611042,33.996608],[134.610817,33.996545],[134.610529,33.996466],[134.609607,33.996217],[134.609569,33.996206],[134.609498,33.996199],[134.609448,33.996189],[134.609387,33.996175],[134.609174,33.996118],[134.609163,33.996116],[134.60915,33.996113],[134.609138,33.996113],[134.609125,33.996113],[134.609109,33.996117],[134.609057,33.996141],[134.609009,33.996167],[134.608953,33.996193],[134.608897,33.996216],[134.608848,33.996232],[134.608804,33.996243],[134.608788,33.996247],[134.608751,33.996257],[134.608678,33.996279],[134.608595,33.996311],[134.60852,33.996351],[134.608478,33.996379],[134.608449,33.996403],[134.608434,33.99642],[134.608424,33.996436],[134.608419,33.996454],[134.608418,33.9965],[134.608416,33.996504],[134.60841,33.996505],[134.60838,33.996497],[134.608355,33.996495],[134.608333,33.996498],[134.608319,33.9965],[134.608222,33.996535],[134.608149,33.996554],[134.608069,33.996576],[134.607989,33.9966],[134.607906,33.996625],[134.607887,33.996629],[134.607862,33.99663],[134.607841,33.996623],[134.607832,33.996617],[134.607825,33.996609],[134.607792,33.996563],[134.607775,33.996546],[134.607757,33.996533],[134.607716,33.996511],[134.607685,33.996497],[134.607671,33.996494],[134.607662,33.996497],[134.607656,33.996502],[134.607651,33.996512],[134.607643,33.996543],[134.607637,33.996554],[134.607627,33.996562],[134.607613,33.99657],[134.607558,33.996591],[134.60754,33.996596],[134.607505,33.996601],[134.60747,33.996597],[134.607436,33.996588],[134.607406,33.996576],[134.607362,33.996551],[134.607341,33.996532],[134.607333,33.996522],[134.607329,33.996509],[134.607327,33.996498],[134.60733,33.996483],[134.607337,33.996461],[134.60737,33.996397],[134.607375,33.996383],[134.607378,33.996369],[134.607376,33.99633],[134.607381,33.996275],[134.607378,33.996258],[134.607375,33.996254],[134.607369,33.996248],[134.607361,33.996245],[134.607337,33.996243],[134.607305,33.996244],[134.6073,33.996242],[134.607295,33.996236],[134.607296,33.996216],[134.607301,33.996202],[134.607309,33.996194],[134.607321,33.996185],[134.60732,33.996107],[134.60729,33.996096],[134.607287,33.996095],[134.607237,33.996082],[134.607165,33.996072],[134.60707,33.996066],[134.606966,33.996066],[134.606863,33.99607],[134.606764,33.996082],[134.606665,33.996098],[134.606566,33.996119],[134.606464,33.996143],[134.606352,33.996169],[134.606234,33.9962],[134.606105,33.996236],[134.605972,33.996275],[134.605834,33.996315],[134.605697,33.99635],[134.605575,33.99638],[134.605482,33.996406],[134.605408,33.996427],[134.605341,33.99645],[134.605245,33.996489],[134.605141,33.996535],[134.605048,33.996579],[134.604967,33.996622],[134.604876,33.996673],[134.604659,33.99679],[134.604629,33.996811],[134.60462,33.996818],[134.604601,33.996838],[134.604587,33.996855],[134.60457,33.996888],[134.604525,33.997043],[134.60487,33.997439],[134.604847,33.997455],[134.604486,33.997039],[134.604207,33.997128],[134.603929,33.997216],[134.60313,33.997467],[134.603128,33.997505],[134.603125,33.99755],[134.60312,33.997611],[134.603109,33.997683],[134.603097,33.997753],[134.603085,33.997802],[134.603077,33.997824],[134.603069,33.997832],[134.603064,33.997834],[134.603057,33.997826],[134.603048,33.997789],[134.603042,33.997736],[134.603038,33.99768],[134.603041,33.99763],[134.603047,33.997587],[134.603066,33.997518],[134.602999,33.99751],[134.602931,33.997505],[134.602862,33.997502],[134.602789,33.997504],[134.602718,33.997511],[134.602686,33.997516],[134.602644,33.997524],[134.602598,33.997536],[134.602561,33.997548],[134.60246,33.997588],[134.602344,33.997643],[134.602231,33.997699],[134.602132,33.997746],[134.602038,33.997794],[134.601934,33.997849],[134.601819,33.997913],[134.601703,33.997977],[134.601513,33.998078],[134.601115,33.998287],[134.601026,33.998337],[134.600934,33.998386],[134.600838,33.998439],[134.600733,33.998497],[134.600625,33.998557],[134.600511,33.99862],[134.600507,33.998643],[134.600538,33.998677],[134.600487,33.998709],[134.600452,33.998669],[134.600433,33.998672],[134.600339,33.998715],[134.600283,33.998745],[134.600223,33.998779],[134.600158,33.998817],[134.60009,33.99886],[134.600037,33.998895],[134.600032,33.998914],[134.600042,33.998922],[134.599994,33.998963],[134.59996,33.998934],[134.599932,33.998938],[134.599923,33.998943],[134.599896,33.998962],[134.599853,33.998994],[134.599797,33.999039],[134.599727,33.999097],[134.599644,33.999166],[134.599552,33.999243],[134.599453,33.999328],[134.599402,33.999368],[134.599314,33.999432],[134.599377,33.999481],[134.59933,33.999523],[134.599263,33.999471],[134.599135,33.999565],[134.598997,33.999665],[134.598867,33.999762],[134.598847,33.999778],[134.598888,33.999815],[134.598834,33.999856],[134.598793,33.999819],[134.598772,33.999836],[134.598673,33.999915],[134.598565,34.00001],[134.598458,34.000115],[134.598361,34.000214],[134.598232,34.000361],[134.598056,34.000562],[134.59786,34.000779],[134.597679,34.000979],[134.597528,34.001156],[134.597391,34.001314],[134.597258,34.001475],[134.597124,34.001648],[134.598906,34.003322],[134.599299,34.003692],[134.598973,34.00388],[134.596198,34.005478],[134.597559,34.007124],[134.597693,34.007286],[134.597705,34.007281],[134.597764,34.007352],[134.597712,34.007384],[134.598198,34.008696],[134.59861,34.010029],[134.599107,34.011654],[134.599492,34.012861],[134.599502,34.01289],[134.599752,34.013657],[134.599773,34.013728],[134.599805,34.013723],[134.599814,34.013755],[134.599659,34.014088],[134.599643,34.014122],[134.599607,34.01411],[134.598907,34.015456],[134.598445,34.016331]]]},"properties":{"code":"36203","name":"小松島市"}}]}