{"type":"FeatureCollection","features":[{"type":"Feature","geometry":{"type":"Polygon","coordinates":[[[134.187725,34.062625],[134.187563,34.062794],[134.187075,34.063218],[134.186735,34.063461],[134.186299,34.063745],[134.186232,34.064051],[134.186161,34.064378],[134.186068,34.064632],[134.185903,34.065156],[134.185605,34.066153],[134.185558,34.066436],[134.185473,34.066709],[134.185447,34.066781],[134.185356,34.067056],[134.185248,34.067402],[134.185206,34.067519],[134.185287,34.067559],[134.185193,34.067743],[134.185099,34.067976],[134.185049,34.068102],[134.184995,34.068333],[134.184858,34.06885],[134.184808,34.06901],[134.184813,34.069113],[134.184835,34.06916],[134.184956,34.069287],[134.184999,34.069379],[134.185013,34.069472],[134.184997,34.069561],[134.184972,34.069629],[134.184926,34.069753],[134.184837,34.069877],[134.184491,34.070284],[134.184342,34.070448],[134.184151,34.070506],[134.183934,34.070692],[134.183549,34.070952],[134.183127,34.071174],[134.182714,34.07137],[134.182462,34.071489],[134.182396,34.071536],[134.182295,34.071603],[134.182286,34.071613],[134.182149,34.071761],[134.182034,34.071981],[134.182009,34.072207],[134.182048,34.072358],[134.182045,34.072474],[134.181978,34.072625],[134.181773,34.072912],[134.181713,34.073001],[134.181603,34.073147],[134.181313,34.073496],[134.181089,34.07378],[134.181018,34.073878],[134.18101,34.074055],[134.181005,34.074429],[134.181072,34.074477],[134.181285,34.074709],[134.181392,34.0749],[134.181467,34.075074],[134.181459,34.075151],[134.181267,34.07558],[134.181068,34.076109],[134.181014,34.076461],[134.180978,34.076575],[134.180977,34.076578],[134.180954,34.076644],[134.180908,34.076712],[134.180787,34.076877],[134.180472,34.077203],[134.180379,34.077329],[134.180246,34.077672],[134.180087,34.078153],[134.179991,34.078683],[134.179946,34.078911],[134.179883,34.079056],[134.179868,34.079154],[134.1799,34.079323],[134.179908,34.079381],[134.179928,34.079524],[134.179899,34.079662],[134.179696,34.080061],[134.179663,34.080202],[134.179612,34.080344],[134.179446,34.080607],[134.179378,34.080714],[134.179257,34.08107],[134.17906,34.081542],[134.178981,34.081792],[134.178883,34.082261],[134.17887,34.082363],[134.178886,34.082438],[134.179044,34.08308],[134.179246,34.083754],[134.179315,34.083864],[134.179327,34.083955],[134.179308,34.084214],[134.179384,34.084223],[134.179357,34.085125],[134.179342,34.085159],[134.179293,34.085197],[134.1793,34.085366],[134.179418,34.085674],[134.179501,34.085838],[134.179509,34.085859],[134.179651,34.086251],[134.179715,34.086481],[134.179781,34.08679],[134.179857,34.086988],[134.179983,34.087234],[134.180084,34.087376],[134.180325,34.087567],[134.18079,34.087911],[134.181231,34.088154],[134.181625,34.0884],[134.18184,34.088855],[134.182102,34.089298],[134.182409,34.089718],[134.182673,34.090048],[134.182949,34.090231],[134.183422,34.090313],[134.18354,34.090332],[134.183684,34.090337],[134.183704,34.090338],[134.183975,34.090349],[134.184263,34.090362],[134.184481,34.090395],[134.184716,34.090394],[134.184834,34.090452],[134.184929,34.090559],[134.185204,34.091017],[134.185465,34.091299],[134.185668,34.091689],[134.185892,34.091854],[134.186247,34.092038],[134.18643,34.092115],[134.186644,34.092131],[134.187004,34.092252],[134.187227,34.092466],[134.187335,34.09257],[134.187618,34.092901],[134.187973,34.093104],[134.188291,34.09323],[134.188604,34.093281],[134.18893,34.09334],[134.189439,34.093378],[134.189873,34.09339],[134.190304,34.093438],[134.190307,34.093439],[134.190642,34.093443],[134.190958,34.093529],[134.190976,34.093566],[134.191104,34.093823],[134.191219,34.094172],[134.191546,34.094831],[134.19174,34.09534],[134.191961,34.095761],[134.19269,34.096839],[134.193481,34.097577],[134.194132,34.098091],[134.194377,34.098224],[134.194822,34.098468],[134.195276,34.098711],[134.195675,34.098915],[134.195956,34.099029],[134.196226,34.099144],[134.196448,34.099275],[134.196255,34.099603],[134.19617,34.100181],[134.196227,34.100581],[134.196406,34.101162],[134.196561,34.101665],[134.196699,34.102131],[134.196959,34.102867],[134.197186,34.103407],[134.197547,34.10399],[134.197828,34.104448],[134.197869,34.105175],[134.197954,34.1057],[134.198117,34.106033],[134.198537,34.106701],[134.198851,34.107003],[134.199013,34.107166],[134.199112,34.10722],[134.199139,34.107235],[134.199295,34.107283],[134.199576,34.107266],[134.200096,34.107148],[134.200359,34.107147],[134.200582,34.107179],[134.200869,34.107329],[134.20121,34.107598],[134.201325,34.107766],[134.201447,34.107936],[134.201541,34.10805],[134.20168,34.108116],[134.201823,34.108167],[134.202127,34.108247],[134.202485,34.108404],[134.202624,34.10846],[134.202808,34.108611],[134.20302,34.108688],[134.203161,34.10875],[134.203256,34.108831],[134.203371,34.109022],[134.203519,34.109187],[134.203622,34.109309],[134.203653,34.109369],[134.20365,34.109482],[134.203621,34.10957],[134.203647,34.109617],[134.204076,34.109865],[134.204355,34.110022],[134.204568,34.110209],[134.204713,34.110353],[134.204851,34.110597],[134.205034,34.11122],[134.205168,34.111581],[134.20553,34.112216],[134.205664,34.112341],[134.205789,34.112495],[134.206191,34.112825],[134.207556,34.113952],[134.208507,34.11497],[134.20908,34.115507],[134.20936,34.115924],[134.209334,34.116287],[134.209246,34.116512],[134.208534,34.117211],[134.208746,34.117528],[134.2092,34.118299],[134.209498,34.119068],[134.209877,34.120013],[134.210092,34.12043],[134.210202,34.120848],[134.210322,34.12187],[134.210385,34.122326],[134.210467,34.122846],[134.21053,34.123334],[134.210674,34.124066],[134.210796,34.124802],[134.210809,34.125348],[134.210791,34.126383],[134.210674,34.127468],[134.210688,34.127506],[134.210814,34.127856],[134.211497,34.128797],[134.211565,34.128909],[134.211643,34.129144],[134.21174,34.130152],[134.211744,34.130701],[134.211588,34.131462],[134.211487,34.131799],[134.211221,34.132601],[134.211133,34.133301],[134.211358,34.133685],[134.211472,34.133762],[134.21249,34.134636],[134.213184,34.135704],[134.213548,34.135869],[134.214795,34.136901],[134.214958,34.137151],[134.21532,34.137376],[134.215708,34.137776],[134.216145,34.138451],[134.216832,34.139334],[134.21714,34.139944],[134.217432,34.140617],[134.217269,34.140949],[134.217211,34.141217],[134.217375,34.141585],[134.217622,34.142153],[134.21777,34.142959],[134.218157,34.144875],[134.218157,34.145167],[134.218246,34.145575],[134.218172,34.146463],[134.218045,34.147325],[134.217953,34.147981],[134.217694,34.149175],[134.217407,34.150111],[134.217207,34.150841],[134.217036,34.151521],[134.217139,34.151754],[134.217624,34.151919],[134.21818,34.152125],[134.219134,34.152874],[134.221205,34.154637],[134.221469,34.155191],[134.221537,34.155741],[134.22173,34.157063],[134.221694,34.157849],[134.221601,34.158505],[134.221419,34.159174],[134.220917,34.161005],[134.220799,34.161424],[134.220582,34.162482],[134.220599,34.1627],[134.220702,34.163357],[134.220758,34.16345],[134.220884,34.163658],[134.220836,34.163734],[134.220791,34.163812],[134.220741,34.163924],[134.220688,34.16406],[134.22063,34.164204],[134.220567,34.164349],[134.220517,34.16446],[134.220486,34.164514],[134.220432,34.164582],[134.22041,34.164616],[134.22039,34.16465],[134.220371,34.16469],[134.220348,34.164738],[134.22032,34.164792],[134.220291,34.164846],[134.220263,34.164893],[134.22024,34.164936],[134.220221,34.164981],[134.220203,34.165029],[134.220177,34.165082],[134.220136,34.165135],[134.220089,34.165186],[134.220046,34.165226],[134.220007,34.165258],[134.219959,34.165295],[134.219893,34.165345],[134.219821,34.165401],[134.219756,34.165453],[134.219704,34.165496],[134.219662,34.165533],[134.219624,34.165563],[134.219585,34.165593],[134.219543,34.165626],[134.219497,34.165663],[134.21945,34.165702],[134.219405,34.16574],[134.219361,34.165775],[134.219319,34.165808],[134.219276,34.165837],[134.219237,34.165861],[134.219199,34.165878],[134.219161,34.165891],[134.219119,34.165901],[134.219071,34.165909],[134.219021,34.165918],[134.218973,34.165926],[134.218924,34.165935],[134.218874,34.165946],[134.218822,34.16596],[134.218768,34.16598],[134.218711,34.166007],[134.218656,34.166035],[134.218609,34.166059],[134.218569,34.166077],[134.218533,34.166094],[134.218495,34.166114],[134.218456,34.166143],[134.218416,34.166179],[134.218375,34.166223],[134.218337,34.166268],[134.218298,34.166307],[134.21826,34.166341],[134.218225,34.166373],[134.21819,34.166401],[134.218155,34.166425],[134.218135,34.166433],[134.218096,34.166445],[134.218052,34.166451],[134.218,34.166452],[134.217944,34.166454],[134.217883,34.166463],[134.217822,34.166481],[134.217767,34.166504],[134.217719,34.166527],[134.217675,34.166554],[134.21763,34.166585],[134.217585,34.166621],[134.217565,34.166642],[134.217549,34.166664],[134.217537,34.166688],[134.217522,34.166739],[134.217514,34.166797],[134.217503,34.166857],[134.217493,34.166917],[134.217479,34.166975],[134.217462,34.167029],[134.217441,34.167087],[134.217411,34.167149],[134.217377,34.167212],[134.21734,34.16727],[134.217303,34.16732],[134.217265,34.167368],[134.217224,34.167415],[134.217181,34.167463],[134.217136,34.167511],[134.217088,34.167562],[134.217039,34.167613],[134.216986,34.16766],[134.216932,34.167706],[134.216877,34.167749],[134.216822,34.167792],[134.216761,34.167835],[134.216691,34.16788],[134.216625,34.167926],[134.216573,34.167967],[134.216536,34.168007],[134.216499,34.16805],[134.216451,34.168097],[134.216397,34.168147],[134.216347,34.168194],[134.216304,34.168237],[134.216261,34.168281],[134.216214,34.168325],[134.216165,34.168372],[134.216115,34.168421],[134.216067,34.168471],[134.216017,34.168523],[134.215966,34.168572],[134.215914,34.168618],[134.215864,34.16866],[134.215818,34.168696],[134.215772,34.168726],[134.215721,34.168749],[134.215664,34.168769],[134.215597,34.168789],[134.21552,34.168808],[134.215445,34.168825],[134.215377,34.168836],[134.215319,34.168845],[134.215273,34.168856],[134.215252,34.168865],[134.215208,34.168891],[134.215145,34.168936],[134.215068,34.168996],[134.215064,34.168999],[134.214996,34.169056],[134.21494,34.169103],[134.214889,34.169144],[134.214828,34.169189],[134.214751,34.169239],[134.214674,34.16929],[134.214604,34.169337],[134.214542,34.169383],[134.214483,34.169429],[134.214424,34.169476],[134.214369,34.169525],[134.214315,34.169573],[134.214256,34.169626],[134.214191,34.169685],[134.214121,34.169747],[134.214061,34.169802],[134.214017,34.16984],[134.213982,34.169873],[134.213933,34.169915],[134.213868,34.169973],[134.213809,34.170032],[134.213755,34.170089],[134.21371,34.17014],[134.213669,34.170184],[134.213631,34.170225],[134.213598,34.170273],[134.213567,34.170338],[134.21354,34.170411],[134.213511,34.170482],[134.213483,34.170544],[134.213455,34.170599],[134.213427,34.170646],[134.213394,34.170697],[134.213354,34.170764],[134.213281,34.170856],[134.213059,34.171136],[134.212995,34.171212],[134.212936,34.171276],[134.212908,34.171301],[134.212854,34.171341],[134.212791,34.171382],[134.212704,34.171438],[134.212586,34.171517],[134.212448,34.171615],[134.212301,34.171722],[134.212161,34.171825],[134.212026,34.171922],[134.211883,34.172016],[134.211716,34.17211],[134.211517,34.172204],[134.211304,34.172295],[134.211099,34.172378],[134.210927,34.172446],[134.21079,34.172498],[134.210672,34.172538],[134.210557,34.172567],[134.210431,34.172588],[134.210297,34.172607],[134.210168,34.17263],[134.210107,34.172645],[134.21005,34.172662],[134.209997,34.172681],[134.209947,34.172703],[134.209903,34.172727],[134.209828,34.172773],[134.209771,34.172818],[134.209729,34.17286],[134.209689,34.172905],[134.209644,34.172958],[134.209585,34.173022],[134.209529,34.173092],[134.209508,34.173128],[134.209494,34.173163],[134.209491,34.173195],[134.209499,34.173225],[134.209517,34.173252],[134.209541,34.173278],[134.209602,34.173327],[134.209661,34.173377],[134.209683,34.173402],[134.209712,34.173456],[134.209722,34.173483],[134.209717,34.173502],[134.209695,34.173538],[134.209614,34.173647],[134.209569,34.173721],[134.209541,34.173753],[134.209511,34.173783],[134.209444,34.173838],[134.209377,34.173884],[134.209314,34.173926],[134.209256,34.173963],[134.209198,34.173996],[134.209137,34.174026],[134.209102,34.174039],[134.209032,34.174067],[134.208963,34.174103],[134.208932,34.174125],[134.208902,34.174153],[134.208876,34.174185],[134.208853,34.174222],[134.208819,34.174306],[134.208806,34.174351],[134.208791,34.174443],[134.208786,34.17453],[134.20879,34.174616],[134.208801,34.174698],[134.208744,34.174687],[134.208144,34.174512],[134.208057,34.174512],[134.207499,34.174446],[134.207354,34.174411],[134.207268,34.174236],[134.207234,34.174192],[134.207196,34.174156],[134.207136,34.174137],[134.207055,34.17412],[134.20699,34.174094],[134.206873,34.174008],[134.20677,34.173988],[134.206695,34.173986],[134.206607,34.173998],[134.20654,34.174029],[134.206425,34.174093],[134.206312,34.174101],[134.206167,34.174052],[134.206063,34.173977],[134.205843,34.173775],[134.205741,34.173703],[134.205577,34.173644],[134.205468,34.173639],[134.205322,34.173668],[134.205246,34.173688],[134.205121,34.173679],[134.205009,34.173647],[134.204953,34.17359],[134.204932,34.173538],[134.204925,34.173496],[134.204929,34.173426],[134.204999,34.173185],[134.204983,34.173101],[134.204922,34.173038],[134.204786,34.172955],[134.204604,34.172871],[134.204499,34.172838],[134.204372,34.172824],[134.204173,34.172827],[134.204027,34.172851],[134.203907,34.172987],[134.203632,34.173187],[134.203145,34.173395],[134.202732,34.173503],[134.20147,34.173753],[134.201195,34.17387],[134.201082,34.174203],[134.200995,34.174636],[134.200695,34.174811],[134.20012,34.174928],[134.19977,34.175103],[134.19927,34.175219],[134.198945,34.175261],[134.19877,34.175511],[134.198583,34.175578],[134.198333,34.175469],[134.19817,34.175336],[134.197983,34.174811],[134.197895,34.174136],[134.197758,34.174028],[134.197508,34.173894],[134.197258,34.173828],[134.197033,34.173548],[134.196983,34.173486],[134.19682,34.172919],[134.196745,34.172744],[134.196158,34.172336],[134.195308,34.171936],[134.195096,34.171869],[134.194871,34.171869],[134.194621,34.171953],[134.193833,34.172519],[134.193583,34.172586],[134.193008,34.172544],[134.191934,34.172411],[134.191609,34.172478],[134.191059,34.172661],[134.190834,34.172769],[134.190559,34.172861],[134.189709,34.173019],[134.188422,34.173061],[134.188059,34.172677],[134.187867,34.172605],[134.187509,34.172819],[134.187347,34.172886],[134.187159,34.172886],[134.186434,34.172369],[134.186159,34.172702],[134.186059,34.172952],[134.185922,34.173586],[134.185759,34.173852],[134.185347,34.174169],[134.18501,34.174352],[134.184685,34.174419],[134.184185,34.174394],[134.183835,34.174352],[134.182825,34.174046],[134.182679,34.174025],[134.182515,34.174055],[134.182404,34.174177],[134.182259,34.174285],[134.182011,34.174544],[134.181713,34.174925],[134.181644,34.174961],[134.181506,34.174962],[134.181407,34.174948],[134.181216,34.174864],[134.181121,34.174797],[134.180501,34.174603],[134.180392,34.174576],[134.18027,34.174582],[134.180094,34.174645],[134.179989,34.174699],[134.179779,34.174751],[134.179643,34.174791],[134.179555,34.174865],[134.179508,34.17495],[134.179488,34.175001],[134.179516,34.175074],[134.179571,34.17517],[134.179668,34.175299],[134.179764,34.175445],[134.179812,34.175541],[134.17982,34.175654],[134.179814,34.175744],[134.179781,34.17584],[134.179714,34.175965],[134.179613,34.176073],[134.179531,34.176124],[134.179409,34.176136],[134.179239,34.176063],[134.179096,34.176019],[134.179027,34.175957],[134.178979,34.175839],[134.178924,34.175715],[134.178895,34.175552],[134.178605,34.174899],[134.178577,34.174814],[134.178502,34.174758],[134.178332,34.174737],[134.178189,34.174749],[134.178088,34.174811],[134.178048,34.17493],[134.178063,34.175105],[134.178037,34.175246],[134.17795,34.175399],[134.177829,34.175563],[134.177776,34.175721],[134.177742,34.175835],[134.177712,34.176258],[134.177693,34.176399],[134.177666,34.176478],[134.177585,34.176535],[134.177443,34.176564],[134.177266,34.176554],[134.177103,34.176549],[134.176947,34.176595],[134.176812,34.176652],[134.176669,34.176619],[134.176559,34.176552],[134.176504,34.176468],[134.176449,34.176355],[134.176435,34.176237],[134.176447,34.176096],[134.176452,34.175915],[134.176438,34.175808],[134.176355,34.175617],[134.176153,34.175378],[134.175988,34.175232],[134.175845,34.175165],[134.175682,34.175132],[134.175566,34.175127],[134.17539,34.175145],[134.175261,34.175179],[134.175119,34.17522],[134.174963,34.175305],[134.174889,34.175385],[134.174782,34.175588],[134.174708,34.175696],[134.174627,34.175764],[134.174532,34.175787],[134.174396,34.175765],[134.174301,34.175721],[134.174184,34.175597],[134.174095,34.175508],[134.173918,34.175446],[134.173782,34.175425],[134.17368,34.175436],[134.17362,34.175488],[134.173613,34.175578],[134.173718,34.175933],[134.173748,34.176068],[134.173948,34.17686],[134.174033,34.177105],[134.174048,34.177212],[134.174055,34.177319],[134.174035,34.177393],[134.173975,34.177427],[134.173839,34.177445],[134.17373,34.1774],[134.173641,34.177338],[134.173552,34.17726],[134.173449,34.177142],[134.173374,34.177047],[134.173312,34.176968],[134.173264,34.176855],[134.173137,34.176258],[134.173088,34.1761],[134.172979,34.176039],[134.172842,34.176005],[134.172458,34.175971],[134.172125,34.175967],[134.171874,34.175991],[134.171663,34.175969],[134.171425,34.175926],[134.171235,34.17587],[134.171112,34.17582],[134.171098,34.175764],[134.171239,34.17556],[134.17134,34.175463],[134.171367,34.175356],[134.171359,34.175305],[134.171291,34.175255],[134.171216,34.175221],[134.171026,34.175211],[134.170822,34.175223],[134.170659,34.175275],[134.170415,34.175355],[134.170144,34.175413],[134.169852,34.175438],[134.169669,34.175427],[134.169484,34.175293],[134.169266,34.17513],[134.169135,34.174956],[134.169019,34.174895],[134.168502,34.174723],[134.168324,34.174588],[134.168289,34.174464],[134.168261,34.173993],[134.168233,34.173858],[134.168198,34.173734],[134.16813,34.173661],[134.168014,34.173594],[134.167761,34.173471],[134.167543,34.173303],[134.167344,34.173129],[134.167098,34.172938],[134.166934,34.172747],[134.166865,34.172635],[134.166584,34.171872],[134.166488,34.171782],[134.166372,34.17172],[134.166168,34.171648],[134.165905,34.171489],[134.165761,34.171343],[134.165645,34.171304],[134.165312,34.171244],[134.165142,34.171194],[134.164978,34.171037],[134.164765,34.170818],[134.164472,34.170639],[134.164308,34.170487],[134.164075,34.170268],[134.16389,34.170094],[134.163645,34.169983],[134.163152,34.169955],[134.162791,34.169996],[134.162429,34.170085],[134.16215,34.170135],[134.16135,34.170105],[134.160906,34.170108],[134.160474,34.1701],[134.159925,34.170016],[134.159469,34.169912],[134.159129,34.169807],[134.159139,34.169555],[134.159125,34.169186],[134.159123,34.169021],[134.15904,34.168876],[134.158407,34.168492],[134.158278,34.168415],[134.158236,34.168323],[134.158224,34.168178],[134.158291,34.167886],[134.158279,34.167741],[134.158196,34.167654],[134.157974,34.167539],[134.157623,34.167463],[134.154699,34.166771],[134.154136,34.166493],[134.15286,34.165986],[134.152486,34.165871],[134.151801,34.166027],[134.151201,34.166252],[134.150564,34.166252],[134.148727,34.165777],[134.147839,34.165669],[134.147077,34.165511],[134.146739,34.165403],[134.146164,34.164969],[134.145802,34.164319],[134.145452,34.162919],[134.145115,34.162228],[134.144152,34.15952],[134.143627,34.15817],[134.143415,34.157945],[134.142665,34.15752],[134.142365,34.157087],[134.141924,34.156313],[134.141353,34.155712],[134.140803,34.155196],[134.140751,34.154993],[134.140528,34.154996],[134.140253,34.154929],[134.13899,34.154954],[134.138378,34.154796],[134.138128,34.154679],[134.137615,34.154571],[134.137559,34.154587],[134.137303,34.154662],[134.137115,34.154596],[134.135791,34.152363],[134.135378,34.151888],[134.135278,34.151438],[134.135353,34.151305],[134.135741,34.151013],[134.136266,34.150496],[134.1363,34.150428],[134.136974,34.149079],[134.137278,34.148397],[134.137478,34.147655],[134.137516,34.146887],[134.137666,34.143889],[134.137878,34.142356],[134.138078,34.14184],[134.138603,34.141406],[134.138515,34.140865],[134.138378,34.140598],[134.137878,34.138957],[134.137741,34.138232],[134.137828,34.137599],[134.138191,34.136382],[134.138644,34.135641],[134.138722,34.135169],[134.139067,34.134403],[134.13929,34.133883],[134.139136,34.133791],[134.138938,34.133666],[134.138708,34.133518],[134.138576,34.133337],[134.138531,34.133193],[134.138507,34.132957],[134.138448,34.132689],[134.138326,34.132515],[134.138205,34.132381],[134.13797,34.132282],[134.137656,34.132148],[134.137173,34.131961],[134.136968,34.131922],[134.136804,34.131758],[134.136314,34.131385],[134.136132,34.131146],[134.13604,34.131036],[134.135877,34.130957],[134.135541,34.130866],[134.135018,34.130649],[134.134902,34.130524],[134.134769,34.130465],[134.134595,34.130446],[134.1343,34.130457],[134.134185,34.130403],[134.133949,34.130239],[134.133726,34.130155],[134.133527,34.130141],[134.133413,34.130132],[134.133228,34.129905],[134.133022,34.129731],[134.132949,34.129627],[134.132888,34.129547],[134.132803,34.129477],[134.132568,34.129374],[134.132495,34.129319],[134.132235,34.127867],[134.132239,34.127672],[134.13222,34.127472],[134.132091,34.127193],[134.131933,34.126898],[134.131508,34.126445],[134.131264,34.125624],[134.131219,34.125254],[134.130742,34.124971],[134.130391,34.124668],[134.130217,34.124583],[134.130149,34.124549],[134.130124,34.124479],[134.130017,34.123683],[134.129442,34.123433],[134.129342,34.123407],[134.128593,34.123208],[134.12708,34.122984],[134.126515,34.122537],[134.125655,34.121859],[134.124768,34.120984],[134.124031,34.120034],[134.123393,34.119426],[134.122681,34.118842],[134.122609,34.118809],[134.122431,34.118726],[134.122331,34.118751],[134.121769,34.119292],[134.121006,34.119859],[134.120556,34.120134],[134.120206,34.120292],[134.120018,34.12032],[134.119694,34.120367],[134.119394,34.120367],[134.118981,34.120217],[134.118132,34.119659],[134.117582,34.119284],[134.117344,34.119017],[134.116294,34.118234],[134.116219,34.118192],[134.115969,34.118192],[134.115322,34.11833],[134.114933,34.118305],[134.114511,34.118205],[134.113995,34.118034],[134.113532,34.117942],[134.113095,34.117926],[134.112445,34.117976],[134.112032,34.117959],[134.111545,34.117876],[134.111008,34.117876],[134.110595,34.117817],[134.109745,34.117442],[134.10932,34.117334],[134.108858,34.117359],[134.108631,34.117382],[134.108243,34.117411],[134.107865,34.117358],[134.107008,34.117218],[134.106221,34.117201],[134.105921,34.117159],[134.105371,34.116851],[134.104971,34.116584],[134.104471,34.116159],[134.104196,34.115893],[134.103234,34.115226],[134.102834,34.115001],[134.102371,34.114943],[134.102259,34.115009],[134.101421,34.115176],[134.101196,34.115151],[134.100772,34.114909],[134.100297,34.11476],[134.099897,34.11476],[134.099272,34.114834],[134.098509,34.114818],[134.097997,34.114776],[134.097464,34.114772],[134.096909,34.114719],[134.096065,34.114686],[134.095497,34.114684],[134.093573,34.114684],[134.09266,34.114784],[134.092173,34.114908],[134.091948,34.114968],[134.091685,34.115218],[134.091235,34.116059],[134.090998,34.116309],[134.090598,34.116559],[134.090161,34.116742],[134.089111,34.117001],[134.088736,34.117142],[134.088411,34.117301],[134.087736,34.117984],[134.086849,34.118734],[134.085961,34.119192],[134.085049,34.119317],[134.084212,34.119409],[134.083962,34.119592],[134.083649,34.119983],[134.083299,34.120183],[134.082562,34.120308],[134.082137,34.120517],[134.081925,34.120692],[134.08165,34.121242],[134.081575,34.121283],[134.081162,34.121241],[134.080625,34.121225],[134.079375,34.1211],[134.0791,34.121016],[134.078938,34.120858],[134.078688,34.120525],[134.078163,34.119942],[134.07735,34.119408],[134.076913,34.119208],[134.076138,34.118408],[134.075863,34.118025],[134.075613,34.117825],[134.075363,34.117558],[134.075851,34.117217],[134.075453,34.11736],[134.074747,34.116922],[134.074351,34.116825],[134.073976,34.116625],[134.073751,34.116558],[134.072796,34.116212],[134.072251,34.1161],[134.071951,34.115833],[134.071726,34.115542],[134.071401,34.114775],[134.071026,34.11325],[134.070939,34.113092],[134.070743,34.112784],[134.069651,34.112409],[134.069139,34.112275],[134.068539,34.112525],[134.068189,34.112642],[134.067877,34.1128],[134.067739,34.112825],[134.067414,34.112967],[134.067277,34.112992],[134.066977,34.112967],[134.066467,34.112808],[134.065802,34.1126],[134.065039,34.112425],[134.06414,34.112092],[134.062215,34.111525],[134.061752,34.111242],[134.061577,34.111195],[134.061502,34.111175],[134.061366,34.111196],[134.06134,34.1112],[134.061343,34.111196],[134.061279,34.111197],[134.060715,34.111517],[134.060078,34.11195],[134.05994,34.112108],[134.059653,34.112792],[134.05899,34.113716],[134.058728,34.1146],[134.058365,34.115258],[134.058066,34.115599],[134.057503,34.115991],[134.055991,34.116724],[134.055666,34.116858],[134.054641,34.117074],[134.054178,34.117074],[134.053966,34.117124],[134.053728,34.117241],[134.053566,34.117441],[134.053466,34.117966],[134.053403,34.118141],[134.053116,34.118257],[134.051379,34.118207],[134.050804,34.118057],[134.050154,34.117816],[134.049854,34.117566],[134.049654,34.117341],[134.049166,34.116783],[134.048216,34.115533],[134.047729,34.115],[134.047616,34.114949],[134.047058,34.115049],[134.046721,34.114799],[134.046441,34.114583],[134.046122,34.114118],[134.045807,34.113922],[134.045461,34.113834],[134.044755,34.11376],[134.044687,34.113392],[134.044534,34.113096],[134.044299,34.112702],[134.044027,34.11246],[134.043841,34.112308],[134.043579,34.1115],[134.043429,34.111277],[134.043304,34.111092],[134.042641,34.110559],[134.042127,34.110329],[134.042125,34.110123],[134.04237,34.109074],[134.042326,34.108812],[134.042291,34.108223],[134.042227,34.107826],[134.042179,34.107543],[134.041866,34.106759],[134.041676,34.106246],[134.041595,34.10551],[134.041291,34.104668],[134.040879,34.104018],[134.040791,34.10366],[134.040716,34.102427],[134.040266,34.101327],[134.040104,34.101052],[134.039829,34.100768],[134.039141,34.100343],[134.039066,34.100318],[134.038704,34.100077],[134.038142,34.099765],[134.038029,34.099702],[134.037591,34.099594],[134.037451,34.09946],[134.036791,34.098769],[134.036236,34.098729],[134.035916,34.098435],[134.035685,34.098368],[134.034941,34.098535],[134.034754,34.098519],[134.034542,34.098452],[134.034073,34.098012],[134.033773,34.097858],[134.033202,34.097907],[134.032803,34.097888],[134.032377,34.097672],[134.031917,34.097619],[134.031478,34.097551],[134.031104,34.09756],[134.031054,34.097439],[134.031043,34.097237],[134.030366,34.096783],[134.030176,34.096245],[134.029827,34.095867],[134.029738,34.095505],[134.029585,34.09508],[134.029476,34.095013],[134.029076,34.09488],[134.02895,34.094735],[134.029024,34.094569],[134.029073,34.094372],[134.029133,34.094081],[134.028932,34.093812],[134.028431,34.093451],[134.028258,34.093153],[134.027807,34.092961],[134.027419,34.092818],[134.027121,34.092538],[134.027068,34.092487],[134.026842,34.09227],[134.026567,34.09222],[134.025684,34.092135],[134.025459,34.092053],[134.025359,34.091929],[134.025311,34.091367],[134.025337,34.090549],[134.025492,34.090019],[134.025706,34.089553],[134.026014,34.089053],[134.026365,34.088479],[134.026642,34.088028],[134.02688,34.087753],[134.027092,34.087612],[134.027504,34.087428],[134.027654,34.087295],[134.027717,34.087137],[134.027679,34.087003],[134.027517,34.086845],[134.027217,34.086637],[134.026942,34.08637],[134.026504,34.08567],[134.026404,34.085337],[134.02638,34.085309],[134.026217,34.085223],[134.025944,34.085144],[134.025638,34.085082],[134.025256,34.08503],[134.024808,34.084942],[134.024415,34.084899],[134.024033,34.08491],[134.02369,34.084946],[134.023663,34.084948],[134.023368,34.084905],[134.022844,34.084826],[134.022451,34.08472],[134.021632,34.084607],[134.021141,34.08461],[134.020759,34.084612],[134.02016,34.084733],[134.019627,34.084944],[134.019148,34.085136],[134.0188,34.08531],[134.01843,34.08552],[134.018126,34.085703],[134.017745,34.085886],[134.017528,34.085987],[134.017114,34.086079],[134.016743,34.086172],[134.016547,34.086263],[134.016199,34.08641],[134.015709,34.086521],[134.015613,34.086536],[134.015349,34.086578],[134.014989,34.086607],[134.014673,34.086627],[134.014335,34.086683],[134.013877,34.086694],[134.013452,34.086652],[134.013026,34.086618],[134.012687,34.086502],[134.012305,34.08645],[134.01188,34.08647],[134.011531,34.086535],[134.011128,34.086646],[134.010747,34.086703],[134.010387,34.08675],[134.010038,34.086752],[134.009678,34.086681],[134.009393,34.086484],[134.009076,34.08625],[134.008856,34.086062],[134.008692,34.085882],[134.008571,34.085747],[134.008319,34.08563],[134.007959,34.085515],[134.007657,34.085333],[134.007423,34.085192],[134.007171,34.08504],[134.006886,34.084879],[134.006679,34.084871],[134.006395,34.084818],[134.006111,34.084729],[134.005794,34.084604],[134.005608,34.084451],[134.005454,34.084307],[134.005344,34.084127],[134.005256,34.083829],[134.005167,34.083576],[134.005079,34.083414],[134.004838,34.083289],[134.004576,34.083191],[134.004269,34.082993],[134.003787,34.082607],[134.00359,34.082391],[134.003141,34.082059],[134.00279,34.08178],[134.002473,34.081574],[134.002265,34.081403],[134.002089,34.081124],[134.002,34.080889],[134.001998,34.080527],[134.002025,34.080455],[134.002063,34.080355],[134.002073,34.080129],[134.002202,34.079811],[134.002298,34.079522],[134.002308,34.07935],[134.002329,34.07915],[134.002372,34.078996],[134.002502,34.078797],[134.002577,34.078643],[134.002576,34.078453],[134.002488,34.078326],[134.002379,34.078228],[134.002323,34.078101],[134.002333,34.077911],[134.002321,34.077712],[134.002352,34.07735],[134.002284,34.076826],[134.002205,34.076401],[134.002106,34.076239],[134.001909,34.076159],[134.001745,34.07597],[134.001591,34.075808],[134.001525,34.075582],[134.001399,34.075394],[134.001327,34.075284],[134.001207,34.075236],[134.00113,34.075204],[134.00089,34.075169],[134.000541,34.075144],[134.000202,34.075073],[133.999809,34.075003],[133.999648,34.074932],[133.99947,34.074833],[133.999502,34.074769],[133.999562,34.074618],[134.000551,34.072143],[134.000554,34.072046],[134.000526,34.071972],[133.999907,34.070885],[133.999209,34.069532],[133.99893,34.069156],[133.998805,34.068984],[133.998693,34.06879],[133.998586,34.068564],[133.99854,34.068431],[133.998483,34.068232],[133.998453,34.06806],[133.998441,34.067972],[133.998436,34.067874],[133.998437,34.06777],[133.998442,34.067669],[133.998449,34.067568],[133.998458,34.067457],[133.998466,34.067328],[133.998476,34.067193],[133.998488,34.067071],[133.998507,34.066964],[133.998531,34.066867],[133.99856,34.066772],[133.998592,34.066682],[133.998622,34.066601],[133.998651,34.066528],[133.998684,34.066463],[133.998721,34.066389],[133.998747,34.066346],[133.998782,34.066296],[133.998839,34.066231],[133.998907,34.066171],[133.998986,34.066115],[133.999072,34.066058],[133.999163,34.065997],[133.999253,34.065927],[133.999342,34.065856],[133.999422,34.065792],[133.999491,34.065741],[133.999548,34.065704],[133.999602,34.065669],[133.999657,34.065628],[133.999717,34.065571],[133.999784,34.065505],[133.999853,34.065443],[133.999922,34.065393],[133.999989,34.065358],[134.000054,34.065333],[134.000115,34.065315],[134.000173,34.065297],[134.000229,34.065281],[134.000285,34.065263],[134.00034,34.065241],[134.000396,34.065216],[134.000452,34.065192],[134.000504,34.06517],[134.000552,34.06515],[134.000594,34.065132],[134.000614,34.065121],[134.000646,34.065094],[134.000659,34.065077],[134.000679,34.065036],[134.000693,34.064984],[134.0007,34.064922],[134.000701,34.064849],[134.000697,34.064771],[134.000689,34.064689],[134.000679,34.06461],[134.000665,34.064535],[134.000652,34.064466],[134.000641,34.064414],[134.000639,34.064404],[134.000624,34.064347],[134.000615,34.064294],[134.000612,34.064239],[134.000619,34.064177],[134.000636,34.064107],[134.00066,34.064037],[134.000687,34.063973],[134.000715,34.063916],[134.00075,34.063862],[134.000802,34.063802],[134.000878,34.063726],[134.000977,34.063634],[134.001137,34.063495],[134.00116,34.06346],[134.001189,34.0634],[134.001201,34.063367],[134.001216,34.063295],[134.001222,34.063218],[134.00122,34.063138],[134.001213,34.063064],[134.001203,34.063002],[134.001188,34.062957],[134.001133,34.062832],[134.001093,34.062723],[134.00108,34.062683],[134.001076,34.062638],[134.001084,34.062611],[134.0011,34.062571],[134.001131,34.062524],[134.001188,34.062451],[134.001251,34.06237],[134.001316,34.062295],[134.001392,34.062221],[134.001456,34.062165],[134.001482,34.062142],[134.001563,34.062064],[134.001592,34.062029],[134.001608,34.061995],[134.001615,34.061965],[134.001613,34.061934],[134.001597,34.061869],[134.001574,34.061791],[134.001552,34.061694],[134.001529,34.061571],[134.001507,34.061434],[134.001482,34.061303],[134.001449,34.061193],[134.001384,34.06106],[134.001333,34.060982],[134.00127,34.060902],[134.00112,34.060756],[134.001108,34.060721],[134.001106,34.06056],[134.001115,34.060199],[134.001124,34.059824],[134.001135,34.059648],[134.001159,34.059531],[134.001165,34.05947],[134.001173,34.059337],[134.001173,34.059203],[134.00117,34.059071],[134.001166,34.058936],[134.001166,34.058916],[134.001169,34.058455],[134.00123,34.058175],[134.00119,34.057738],[134.001199,34.057485],[134.001197,34.057363],[134.001195,34.057183],[134.001176,34.057052],[134.001137,34.056896],[134.001066,34.056711],[134.001053,34.056605],[134.00108,34.056215],[134.00107,34.055722],[134.001001,34.055217],[134.000956,34.054949],[134.000828,34.054528],[134.000713,34.054345],[134.000639,34.054067],[134.0006,34.053868],[134.000566,34.053629],[134.000532,34.053324],[134.0005,34.053077],[134.000483,34.052902],[134.00047,34.052577],[134.000468,34.052524],[134.000425,34.052118],[134.00027,34.051263],[133.999857,34.049122],[133.999798,34.048709],[133.999762,34.048353],[133.999717,34.047849],[133.999682,34.04765],[133.999668,34.047552],[133.99964,34.047153],[133.999621,34.046955],[133.999608,34.046876],[133.999605,34.046859],[133.999583,34.046763],[133.999528,34.046571],[133.999459,34.046371],[133.99938,34.046157],[133.999294,34.045936],[133.999205,34.045709],[133.999117,34.045478],[133.999032,34.04524],[133.998954,34.045003],[133.998945,34.044975],[133.998884,34.044785],[133.99886,34.044705],[133.998824,34.044593],[133.998797,34.044501],[133.998709,34.043851],[133.998561,34.043237],[133.998555,34.043123],[133.99857,34.043009],[133.998723,34.04279],[133.998795,34.04253],[133.998837,34.042253],[133.998802,34.041955],[133.998713,34.041482],[133.998667,34.041145],[133.99864,34.040911],[133.998591,34.040602],[133.998567,34.040355],[133.998569,34.040119],[133.998608,34.03964],[133.998636,34.039476],[133.998708,34.039293],[133.998793,34.039087],[133.998826,34.038981],[133.998874,34.038832],[133.998933,34.038655],[133.998997,34.038465],[133.99907,34.038278],[133.999111,34.038192],[133.999155,34.038111],[133.999205,34.038038],[133.999256,34.037968],[133.999374,34.037832],[133.999501,34.037694],[133.99962,34.037566],[133.99967,34.037512],[133.999831,34.037315],[133.999951,34.037348],[134.000241,34.037425],[134.000982,34.037557],[134.001223,34.0376],[134.002652,34.037737],[134.003033,34.037735],[134.003305,34.03767],[134.004286,34.037647],[134.00602,34.037647],[134.007152,34.037585],[134.007317,34.037576],[134.008952,34.037594],[134.010872,34.03781],[134.010988,34.037824],[134.011194,34.037849],[134.012148,34.037966],[134.013491,34.038338],[134.013786,34.038436],[134.014147,34.038588],[134.014813,34.038865],[134.015403,34.039133],[134.015627,34.039272],[134.015852,34.039411],[134.016205,34.039677],[134.016481,34.039862],[134.016978,34.040222],[134.0172,34.040382],[134.017687,34.040744],[134.017875,34.040884],[134.018507,34.041295],[134.019128,34.041833],[134.019577,34.042345],[134.019582,34.042351],[134.020134,34.042983],[134.020539,34.043468],[134.020703,34.043666],[134.021334,34.043996],[134.02166,34.044148],[134.022217,34.044287],[134.02268,34.044404],[134.023157,34.044492],[134.023635,34.044598],[134.023931,34.044636],[134.024352,34.04461],[134.024831,34.044535],[134.025107,34.044574],[134.025562,34.044639],[134.026162,34.044618],[134.027219,34.044621],[134.028266,34.044624],[134.029236,34.044537],[134.029315,34.044536],[134.030425,34.044421],[134.03129,34.044335],[134.032692,34.044033],[134.034135,34.04388],[134.0351,34.043777],[134.035215,34.043763],[134.035739,34.043698],[134.035906,34.043677],[134.036425,34.043613],[134.038414,34.043425],[134.038508,34.043416],[134.03859,34.043408],[134.039129,34.043373],[134.039434,34.043332],[134.040235,34.043247],[134.04097,34.043153],[134.041161,34.043084],[134.041639,34.043101],[134.041916,34.04302],[134.04227,34.04299],[134.043033,34.043035],[134.04422,34.043125],[134.04519,34.043246],[134.046646,34.043452],[134.047808,34.043648],[134.049336,34.043821],[134.050702,34.044055],[134.050863,34.044084],[134.051212,34.044144],[134.053619,34.044596],[134.055002,34.044833],[134.057108,34.045281],[134.057583,34.045342],[134.05885,34.045654],[134.061115,34.046103],[134.063425,34.046485],[134.063847,34.046496],[134.064327,34.046462],[134.065375,34.046584],[134.06564,34.046601],[134.066023,34.046625],[134.066092,34.04663],[134.067742,34.046736],[134.069149,34.046893],[134.069543,34.047003],[134.070424,34.047144],[134.07096,34.047272],[134.071497,34.047462],[134.071784,34.047637],[134.072501,34.048183],[134.073012,34.048626],[134.073992,34.049939],[134.074235,34.050322],[134.074427,34.051162],[134.074475,34.051407],[134.074432,34.051542],[134.07436,34.051719],[134.074324,34.051873],[134.074408,34.051995],[134.078446,34.053904],[134.07875,34.053795],[134.083537,34.055962],[134.086462,34.057302],[134.087038,34.056764],[134.087319,34.056471],[134.086662,34.055056],[134.086197,34.053859],[134.086287,34.053226],[134.086381,34.05242],[134.086423,34.052426],[134.090555,34.052964],[134.093158,34.053352],[134.093257,34.053369],[134.094039,34.053502],[134.094355,34.05264],[134.094507,34.052279],[134.094773,34.051665],[134.094783,34.051644],[134.095079,34.05133],[134.095224,34.051076],[134.095328,34.050778],[134.095359,34.050629],[134.095359,34.050528],[134.095317,34.050426],[134.094791,34.049836],[134.09465,34.049656],[134.094579,34.049475],[134.094476,34.049156],[134.094365,34.048669],[134.09433,34.048337],[134.094356,34.048033],[134.094376,34.047901],[134.094451,34.04762],[134.094461,34.047262],[134.094276,34.04671],[134.094081,34.046303],[134.094021,34.046229],[134.093822,34.045984],[134.093649,34.045838],[134.093597,34.045739],[134.093587,34.045603],[134.09362,34.045442],[134.093722,34.045221],[134.093912,34.044808],[134.093938,34.044705],[134.093918,34.044562],[134.093885,34.044436],[134.093814,34.044298],[134.093605,34.044053],[134.093555,34.043959],[134.093545,34.043878],[134.093559,34.043763],[134.093637,34.043631],[134.094625,34.042787],[134.09496,34.042575],[134.095102,34.042505],[134.095362,34.042413],[134.095504,34.042302],[134.096216,34.041341],[134.096649,34.040977],[134.096839,34.040763],[134.096902,34.040627],[134.097024,34.040434],[134.097356,34.040159],[134.097507,34.039982],[134.097669,34.039834],[134.097786,34.039722],[134.097898,34.039591],[134.098027,34.039359],[134.098095,34.039297],[134.098325,34.039108],[134.098555,34.038853],[134.098652,34.038726],[134.098705,34.038598],[134.098695,34.038476],[134.098624,34.038243],[134.098603,34.038087],[134.098615,34.037975],[134.098659,34.037905],[134.098722,34.037831],[134.098854,34.037736],[134.099025,34.0376],[134.099294,34.037361],[134.099529,34.037176],[134.099822,34.036876],[134.099905,34.036818],[134.100176,34.036707],[134.100235,34.036683],[134.100724,34.036482],[134.101599,34.036063],[134.101957,34.035905],[134.10201,34.035869],[134.102158,34.035765],[134.102374,34.035621],[134.103334,34.035096],[134.103591,34.034933],[134.103649,34.034847],[134.103654,34.034728],[134.103647,34.034573],[134.103676,34.034487],[134.10374,34.034417],[134.103842,34.034318],[134.104222,34.033768],[134.104329,34.033575],[134.104358,34.033456],[134.104333,34.033143],[134.104365,34.032729],[134.104432,34.032541],[134.10452,34.032405],[134.104734,34.032085],[134.104792,34.031962],[134.104862,34.031816],[134.104994,34.031643],[134.105072,34.031475],[134.1051,34.031332],[134.105114,34.031172],[134.105098,34.031103],[134.105149,34.030974],[134.105246,34.030913],[134.10558,34.030986],[134.106028,34.0312],[134.10664,34.031609],[134.106984,34.031959],[134.107114,34.032012],[134.107488,34.032024],[134.107886,34.031988],[134.108226,34.031899],[134.108735,34.031585],[134.10897,34.031496],[134.109165,34.031468],[134.109449,34.031426],[134.1095,34.031413],[134.109636,34.031378],[134.110005,34.031204],[134.110129,34.031146],[134.110963,34.03081],[134.111993,34.030582],[134.112147,34.030528],[134.112284,34.030398],[134.112437,34.030154],[134.112467,34.029904],[134.112409,34.029654],[134.112278,34.029506],[134.11218,34.029412],[134.112146,34.02927],[134.112144,34.028993],[134.112297,34.028178],[134.112295,34.027948],[134.112231,34.027492],[134.112114,34.027094],[134.111851,34.026582],[134.111817,34.026379],[134.11184,34.02621],[134.111944,34.026041],[134.112195,34.025857],[134.113084,34.025264],[134.113321,34.02503],[134.113521,34.02461],[134.113721,34.023605],[134.113807,34.023172],[134.113786,34.022483],[134.113722,34.021537],[134.113643,34.021244],[134.113634,34.021088],[134.113641,34.020953],[134.113729,34.020729],[134.113937,34.019806],[134.114068,34.018859],[134.114067,34.018731],[134.114124,34.018636],[134.114188,34.018595],[134.114472,34.018593],[134.116162,34.018632],[134.116527,34.01857],[134.11681,34.018453],[134.118177,34.017723],[134.118569,34.0174],[134.118777,34.017102],[134.118881,34.016784],[134.118906,34.016514],[134.118911,34.016466],[134.118876,34.016175],[134.118612,34.015528],[134.118512,34.015217],[134.118306,34.014122],[134.118237,34.013705],[134.118158,34.013222],[134.117883,34.012413],[134.117308,34.011038],[134.117258,34.010697],[134.117254,34.009803],[134.117321,34.009227],[134.117383,34.008847],[134.117483,34.008647],[134.11772,34.008355],[134.117773,34.008241],[134.117796,34.008141],[134.117783,34.007972],[134.11772,34.007789],[134.117551,34.007459],[134.117345,34.007156],[134.116908,34.006689],[134.11647,34.006239],[134.11642,34.006147],[134.116408,34.005606],[134.116434,34.005178],[134.116458,34.004773],[134.116415,34.004446],[134.116408,34.004389],[134.116295,34.003689],[134.116191,34.003518],[134.115621,34.003089],[134.115169,34.002749],[134.115146,34.002731],[134.114383,34.001989],[134.113039,34.000274],[134.112971,34.00019],[134.11288,34.000095],[134.112161,33.999515],[134.112095,33.999434],[134.112052,33.99935],[134.111896,33.998973],[134.111634,33.998617],[134.111258,33.998273],[134.110903,33.998032],[134.110546,33.997848],[134.109584,33.997556],[134.10937,33.99745],[134.109245,33.997335],[134.109121,33.997131],[134.109108,33.996861],[134.109084,33.996365],[134.108946,33.99594],[134.108922,33.995775],[134.108921,33.995398],[134.108946,33.994673],[134.108809,33.994265],[134.108621,33.992873],[134.108646,33.992623],[134.109059,33.991207],[134.109434,33.990349],[134.109771,33.989424],[134.109948,33.988621],[134.110033,33.988477],[134.110128,33.988381],[134.110259,33.988299],[134.11181,33.987398],[134.111862,33.987332],[134.111888,33.98724],[134.111958,33.986924],[134.111771,33.985457],[134.111683,33.985062],[134.111624,33.984998],[134.110763,33.984543],[134.110634,33.984424],[134.11054,33.984264],[134.109259,33.982149],[134.108896,33.981316],[134.108409,33.980482],[134.107934,33.979807],[134.107725,33.97966],[134.107409,33.979532],[134.106759,33.979357],[134.107084,33.978699],[134.107309,33.978232],[134.108184,33.977191],[134.10845,33.976938],[134.108534,33.976858],[134.10863,33.976712],[134.108646,33.976541],[134.108237,33.97546],[134.107846,33.974691],[134.106909,33.973367],[134.108421,33.973317],[134.108696,33.971942],[134.108946,33.971267],[134.108688,33.970852],[134.108534,33.970459],[134.108429,33.970107],[134.108384,33.969667],[134.108422,33.969417],[134.108634,33.968609],[134.108471,33.967234],[134.108409,33.966718],[134.108326,33.966433],[134.108229,33.966241],[134.108022,33.966018],[134.107284,33.965618],[134.106855,33.96531],[134.106643,33.965103],[134.106484,33.964851],[134.106297,33.963901],[134.106129,33.963648],[134.105909,33.963435],[134.105084,33.96271],[134.104172,33.962168],[134.103674,33.961786],[134.103482,33.961692],[134.103328,33.961644],[134.101752,33.961189],[134.101485,33.961094],[134.10121,33.96091],[134.100735,33.96051],[134.100347,33.960102],[134.09941,33.959402],[134.099192,33.959288],[134.099,33.959249],[134.098963,33.959266],[134.098907,33.958883],[134.098535,33.957802],[134.098386,33.957421],[134.098238,33.95708],[134.098165,33.956742],[134.098145,33.956448],[134.09823,33.955919],[134.098329,33.954889],[134.098402,33.954094],[134.098472,33.953665],[134.098473,33.953661],[134.098476,33.95364],[134.098542,33.953208],[134.098724,33.952773],[134.098663,33.95227],[134.098429,33.951616],[134.098375,33.951411],[134.098374,33.951212],[134.098617,33.950748],[134.098787,33.95039],[134.098803,33.950185],[134.098792,33.94989],[134.098844,33.949692],[134.098958,33.949573],[134.099169,33.949455],[134.099838,33.949187],[134.101087,33.9486],[134.101197,33.948529],[134.101271,33.948415],[134.101345,33.948271],[134.10141,33.948047],[134.101548,33.947554],[134.101775,33.946578],[134.102112,33.945672],[134.102159,33.945404],[134.102345,33.944175],[134.102396,33.943962],[134.102527,33.943777],[134.102919,33.943602],[134.105084,33.94271],[134.10525,33.942584],[134.105476,33.942075],[134.105527,33.941766],[134.105502,33.941388],[134.105339,33.94069],[134.105158,33.940147],[134.105066,33.939633],[134.105022,33.938953],[134.105117,33.938673],[134.105178,33.938526],[134.105164,33.938412],[134.104879,33.938082],[134.104843,33.937987],[134.104833,33.937832],[134.10489,33.937222],[134.104857,33.936252],[134.104768,33.936083],[134.104514,33.935838],[134.104016,33.935311],[134.103695,33.93482],[134.10348,33.934402],[134.103205,33.934131],[134.102938,33.933838],[134.102852,33.933556],[134.102824,33.933284],[134.102917,33.932761],[134.103022,33.931335],[134.103011,33.931099],[134.102948,33.930909],[134.102375,33.930261],[134.101948,33.929902],[134.101691,33.929668],[134.100774,33.929147],[134.100614,33.928972],[134.100546,33.92877],[134.100327,33.927705],[134.100098,33.92638],[134.099974,33.925707],[134.099902,33.923961],[134.099886,33.923566],[134.09982,33.923398],[134.100505,33.923427],[134.100898,33.92347],[134.101333,33.92352],[134.101384,33.923525],[134.101676,33.923562],[134.102308,33.92363],[134.102593,33.923603],[134.102869,33.923524],[134.103154,33.923437],[134.10364,33.923304],[134.104658,33.922998],[134.105408,33.922733],[134.105706,33.922547],[134.106055,33.922275],[134.106203,33.921982],[134.106389,33.921796],[134.106726,33.921589],[134.107535,33.921244],[134.107964,33.921144],[134.108314,33.921143],[134.108965,33.921269],[134.109486,33.921332],[134.109953,33.921319],[134.110238,33.921176],[134.110491,33.921094],[134.110764,33.921082],[134.111037,33.921135],[134.111311,33.921231],[134.11174,33.921261],[134.1153,33.921135],[134.115935,33.920883],[134.116467,33.920804],[134.116897,33.920845],[134.119857,33.921399],[134.120663,33.921417],[134.120884,33.92134],[134.121394,33.920855],[134.121574,33.920703],[134.121924,33.920593],[134.123283,33.920678],[134.124076,33.92063],[134.124634,33.920573],[134.125896,33.920733],[134.126119,33.920785],[134.126267,33.92082],[134.126501,33.920786],[134.126561,33.920574],[134.126624,33.920192],[134.126583,33.919974],[134.126278,33.918562],[134.126257,33.918393],[134.126289,33.918256],[134.126978,33.917594],[134.126975,33.917226],[134.126734,33.916584],[134.12672,33.916177],[134.126744,33.915798],[134.126884,33.915472],[134.127109,33.915184],[134.127315,33.914912],[134.127361,33.914013],[134.127252,33.913386],[134.127101,33.913175],[134.12607,33.912531],[134.125823,33.912423],[134.125533,33.912318],[134.125185,33.91224],[134.125087,33.91218],[134.125012,33.912105],[134.124911,33.911933],[134.124768,33.911644],[134.124693,33.911548],[134.124138,33.911197],[134.124098,33.911115],[134.124091,33.911039],[134.12424,33.910776],[134.125007,33.909309],[134.125186,33.908994],[134.12531,33.908084],[134.125398,33.907672],[134.125406,33.907534],[134.125434,33.907094],[134.125549,33.906182],[134.125559,33.90576],[134.125617,33.904882],[134.125659,33.903894],[134.125659,33.902624],[134.125695,33.90218],[134.125906,33.90174],[134.125968,33.901263],[134.125969,33.901097],[134.125859,33.900812],[134.125538,33.900173],[134.12525,33.899622],[134.125126,33.899135],[134.124981,33.898499],[134.124967,33.89844],[134.124899,33.898199],[134.124789,33.897934],[134.124613,33.897379],[134.124452,33.896843],[134.124439,33.896602],[134.124474,33.896431],[134.12455,33.896109],[134.124515,33.895956],[134.124465,33.895892],[134.124357,33.895756],[134.124235,33.895545],[134.124203,33.895354],[134.124164,33.894903],[134.124042,33.894303],[134.123887,33.893756],[134.12372,33.893518],[134.123363,33.893269],[134.123053,33.893014],[134.122983,33.892917],[134.122946,33.892817],[134.122978,33.892168],[134.122934,33.891938],[134.122878,33.891737],[134.122756,33.891496],[134.122665,33.891391],[134.122489,33.891231],[134.122289,33.891062],[134.121951,33.890589],[134.121731,33.890213],[134.121575,33.88986],[134.121397,33.889434],[134.121275,33.889273],[134.121106,33.889134],[134.120757,33.888928],[134.12064,33.88886],[134.120201,33.888573],[134.119898,33.888444],[134.119536,33.888345],[134.119234,33.888297],[134.118773,33.888201],[134.117916,33.888009],[134.117264,33.887932],[134.116896,33.887869],[134.116594,33.88777],[134.116407,33.887675],[134.115738,33.887294],[134.115526,33.88719],[134.115315,33.887136],[134.115068,33.887117],[134.114893,33.887138],[134.11461,33.887195],[134.114309,33.887216],[134.11393,33.887213],[134.113724,33.887194],[134.11338,33.887115],[134.112885,33.886992],[134.11224,33.88697],[134.111282,33.88689],[134.110124,33.88676],[134.109959,33.886691],[134.109829,33.886584],[134.109736,33.886335],[134.109539,33.886065],[134.10937,33.885947],[134.109109,33.885862],[134.10881,33.885788],[134.108468,33.885682],[134.108295,33.885556],[134.107516,33.884841],[134.10711,33.884596],[134.106736,33.884398],[134.105018,33.883409],[134.104413,33.883122],[134.103885,33.882943],[134.103813,33.882851],[134.103605,33.882444],[134.103255,33.881896],[134.102908,33.881252],[134.1026,33.880306],[134.10235,33.879885],[134.102207,33.879777],[134.101685,33.879542],[134.101151,33.879295],[134.100604,33.87907],[134.099568,33.878669],[134.099217,33.878584],[134.098886,33.878591],[134.097453,33.878929],[134.094108,33.879898],[134.093744,33.879943],[134.093459,33.879955],[134.092835,33.879904],[134.092468,33.879871],[134.092334,33.879778],[134.092221,33.879625],[134.092148,33.879378],[134.091899,33.878852],[134.091724,33.87864],[134.091509,33.878513],[134.090645,33.878385],[134.090348,33.878344],[134.08997,33.878312],[134.089541,33.878314],[134.089,33.878342],[134.088785,33.878351],[134.089058,33.877873],[134.089664,33.876214],[134.089878,33.875434],[134.089888,33.875315],[134.089855,33.875025],[134.089895,33.874846],[134.089975,33.874624],[134.089974,33.874514],[134.089928,33.874438],[134.089972,33.874187],[134.090414,33.87369],[134.090928,33.873427],[134.091087,33.873257],[134.091275,33.872732],[134.091362,33.872149],[134.091387,33.871607],[134.091473,33.87083],[134.0913,33.870257],[134.091325,33.869691],[134.0913,33.869291],[134.091551,33.868457],[134.091266,33.868028],[134.090995,33.867169],[134.090709,33.866505],[134.090659,33.866062],[134.090653,33.865319],[134.090886,33.865031],[134.091322,33.864781],[134.091443,33.864168],[134.09119,33.863739],[134.091203,33.863387],[134.091544,33.862981],[134.092292,33.862574],[134.09254,33.862233],[134.092725,33.861292],[134.093187,33.86025],[134.0936,33.859575],[134.094125,33.8591],[134.094711,33.85856],[134.095099,33.858154],[134.09535,33.857751],[134.095484,33.857278],[134.095568,33.855987],[134.095672,33.855217],[134.095887,33.855034],[134.095912,33.855027],[134.096059,33.854938],[134.096221,33.854981],[134.096532,33.854974],[134.096808,33.854978],[134.097185,33.85489],[134.097399,33.854789],[134.098111,33.854509],[134.099523,33.854321],[134.100212,33.854209],[134.100987,33.853893],[134.101662,33.853826],[134.102549,33.853735],[134.103287,33.85376],[134.104112,33.853668],[134.105374,33.853443],[134.106887,33.853351],[134.107524,33.853301],[134.108349,33.853143],[134.108949,33.85296],[134.109965,33.85275],[134.110645,33.852758],[134.111328,33.853288],[134.111786,33.854135],[134.111974,33.85456],[134.11214,33.855329],[134.112237,33.855561],[134.112466,33.855756],[134.113239,33.856016],[134.115361,33.856093],[134.115686,33.856093],[134.117136,33.855976],[134.11901,33.856084],[134.12016,33.856243],[134.121285,33.856426],[134.122455,33.856771],[134.123122,33.857084],[134.123672,33.857401],[134.124006,33.857575],[134.124264,33.857574],[134.124747,33.857334],[134.125022,33.857334],[134.12511,33.857376],[134.125385,33.857784],[134.125685,33.858051],[134.12596,33.858168],[134.126147,33.858368],[134.126372,33.858439],[134.126647,33.858526],[134.126884,33.858751],[134.127109,33.859067],[134.127247,33.859401],[134.127247,33.859784],[134.127434,33.860076],[134.127909,33.860459],[134.128737,33.861057],[134.129215,33.861228],[134.129703,33.861342],[134.130434,33.861409],[134.130984,33.861542],[134.131396,33.861767],[134.131646,33.86195],[134.131859,33.86235],[134.131859,33.862509],[134.132109,33.863117],[134.132546,33.863634],[134.133459,33.86395],[134.133596,33.864017],[134.133871,33.864267],[134.134171,33.8646],[134.134404,33.865078],[134.134881,33.865421],[134.13506,33.865551],[134.13622,33.866067],[134.136956,33.866278],[134.137596,33.866377],[134.138208,33.86626],[134.138658,33.866067],[134.139233,33.8657],[134.139583,33.865617],[134.139833,33.865633],[134.140058,33.865792],[134.140408,33.866308],[134.140795,33.8666],[134.141233,33.866808],[134.142,33.866944],[134.142415,33.867792],[134.142636,33.86829],[134.142924,33.868617],[134.143409,33.868921],[134.144425,33.869199],[134.145664,33.869465],[134.14644,33.86954],[134.147304,33.869535],[134.147669,33.869508],[134.148244,33.869391],[134.148657,33.869166],[134.149461,33.86849],[134.150291,33.867831],[134.150744,33.867541],[134.151407,33.867225],[134.152007,33.867116],[134.152582,33.867041],[134.152945,33.866908],[134.15388,33.865964],[134.154227,33.865879],[134.154575,33.865861],[134.154914,33.865925],[134.156383,33.866324],[134.156702,33.866421],[134.15696,33.866395],[134.157168,33.866336],[134.157895,33.865933],[134.158032,33.865892],[134.15847,33.865825],[134.159507,33.865825],[134.160357,33.865642],[134.161182,33.86555],[134.161907,33.865525],[134.162507,33.865575],[134.163245,33.865683],[134.163657,33.865591],[134.164182,33.86555],[134.164416,33.865588],[134.164646,33.865703],[134.16481,33.865798],[134.165791,33.866567],[134.16605,33.866719],[134.166284,33.866796],[134.166632,33.866833],[134.167182,33.86685],[134.168144,33.867233],[134.168357,33.867275],[134.168907,33.8673],[134.169319,33.867258],[134.169594,33.867366],[134.170394,33.867883],[134.170482,33.867999],[134.171688,33.868976],[134.172375,33.86979],[134.172423,33.870047],[134.172101,33.871058],[134.171997,33.871412],[134.172026,33.871856],[134.172115,33.872315],[134.173124,33.873135],[134.173366,33.873599],[134.174599,33.874998],[134.17534,33.875558],[134.176999,33.877582],[134.177741,33.87819],[134.178093,33.878317],[134.178479,33.878368],[134.178921,33.878346],[134.180105,33.878289],[134.18035,33.878427],[134.180905,33.878581],[134.181255,33.879031],[134.18148,33.879431],[134.18173,33.879772],[134.182442,33.880406],[134.182692,33.880831],[134.182967,33.881122],[134.183567,33.881372],[134.184042,33.881439],[134.184642,33.881455],[134.185217,33.881522],[134.185817,33.881705],[134.186454,33.881972],[134.186954,33.882222],[134.187329,33.882339],[134.187504,33.882422],[134.188516,33.883172],[134.188604,33.88328],[134.188679,33.883663],[134.188854,33.883913],[134.189129,33.884113],[134.189503,33.884588],[134.189916,33.884855],[134.190441,33.885396],[134.190778,33.88553],[134.191353,33.885646],[134.19302,33.885908],[134.193768,33.886044],[134.194092,33.886022],[134.194949,33.885425],[134.195884,33.884978],[134.196714,33.884813],[134.198051,33.884956],[134.198593,33.884873],[134.199178,33.884597],[134.199865,33.88428],[134.200915,33.88388],[134.201353,33.883763],[134.201653,33.883513],[134.201815,33.883088],[134.20199,33.882888],[134.203052,33.882522],[134.204793,33.881896],[134.205115,33.88153],[134.205527,33.881189],[134.206266,33.880925],[134.208652,33.880813],[134.209402,33.882222],[134.209739,33.88263],[134.209764,33.882947],[134.209927,33.883488],[134.210152,33.883872],[134.210477,33.884272],[134.211002,33.884788],[134.211226,33.885105],[134.211439,33.885238],[134.211623,33.885268],[134.212301,33.88538],[134.212714,33.88553],[134.213064,33.885738],[134.213451,33.88583],[134.214189,33.885846],[134.215101,33.886163],[134.216526,33.886455],[134.216976,33.88663],[134.217213,33.886813],[134.217351,33.887105],[134.217663,33.887463],[134.218013,33.887763],[134.218175,33.887846],[134.219063,33.888029],[134.219475,33.888429],[134.219863,33.888679],[134.220788,33.888746],[134.2217,33.889088],[134.222775,33.889013],[134.223237,33.889013],[134.225379,33.889039],[134.225792,33.888853],[134.226529,33.887998],[134.22686,33.887973],[134.228187,33.888355],[134.228574,33.888354],[134.228986,33.888221],[134.229586,33.888379],[134.230524,33.888555],[134.231236,33.888713],[134.232636,33.889229],[134.233248,33.889571],[134.234023,33.890271],[134.234186,33.890379],[134.235035,33.890787],[134.236798,33.891212],[134.237073,33.891187],[134.237598,33.891321],[134.238148,33.891546],[134.238773,33.891704],[134.239185,33.891746],[134.23921,33.891796],[134.239193,33.891907],[134.239048,33.892879],[134.238835,33.893529],[134.238835,33.893876],[134.238835,33.893937],[134.238923,33.894362],[134.238785,33.894787],[134.238748,33.895195],[134.23881,33.895645],[134.238485,33.896387],[134.238398,33.896686],[134.23876,33.897428],[134.23876,33.897786],[134.238623,33.898011],[134.236658,33.899392],[134.236493,33.899462],[134.236345,33.899877],[134.236948,33.901144],[134.236973,33.901619],[134.236898,33.901869],[134.23681,33.901936],[134.236235,33.902227],[134.235798,33.90256],[134.23541,33.902744],[134.23511,33.902952],[134.234773,33.903244],[134.234361,33.903469],[134.233236,33.904169],[134.232798,33.904327],[134.232636,33.90446],[134.232411,33.904727],[134.232386,33.904868],[134.232448,33.90516],[134.232723,33.905452],[134.232886,33.90581],[134.232836,33.906193],[134.232661,33.906577],[134.232423,33.90696],[134.23145,33.907896],[134.231399,33.908043],[134.230749,33.908068],[134.230386,33.908018],[134.230249,33.907976],[134.229949,33.907793],[134.229561,33.907485],[134.228599,33.907035],[134.228024,33.906827],[134.227587,33.907126],[134.227224,33.907443],[134.226862,33.907685],[134.226512,33.907826],[134.226124,33.908093],[134.225824,33.908185],[134.225462,33.908185],[134.224449,33.908093],[134.2239,33.908368],[134.223375,33.908701],[134.222575,33.909109],[134.22195,33.909243],[134.221512,33.909293],[134.221125,33.909384],[134.220925,33.909609],[134.220687,33.909993],[134.220438,33.910243],[134.220163,33.910401],[134.220025,33.910576],[134.220075,33.910801],[134.220487,33.911234],[134.22115,33.912084],[134.221262,33.912442],[134.22105,33.913301],[134.220875,33.913667],[134.220887,33.914001],[134.220987,33.914184],[134.221187,33.914317],[134.2213,33.914542],[134.221325,33.914834],[134.221075,33.916009],[134.220887,33.916525],[134.220587,33.916975],[134.2205,33.917492],[134.220525,33.917834],[134.220662,33.91815],[134.220789,33.918281],[134.22079,33.918282],[134.22105,33.91855],[134.221112,33.91855],[134.22135,33.918892],[134.221487,33.919208],[134.221585,33.919514],[134.221737,33.919992],[134.221787,33.920008],[134.221737,33.920025],[134.221625,33.920275],[134.221687,33.920617],[134.222037,33.921333],[134.2227,33.922033],[134.223162,33.923233],[134.22335,33.923591],[134.223774,33.925083],[134.224049,33.925375],[134.224312,33.925783],[134.224499,33.926191],[134.224612,33.926575],[134.224637,33.927041],[134.224744,33.927313],[134.224752,33.927332],[134.224824,33.927516],[134.225337,33.927883],[134.225712,33.928216],[134.226062,33.928649],[134.226212,33.929074],[134.227186,33.929416],[134.227586,33.929708],[134.227869,33.930005],[134.227886,33.930024],[134.228174,33.930541],[134.228449,33.930791],[134.228736,33.930857],[134.229274,33.930907],[134.229711,33.931066],[134.229786,33.931132],[134.229949,33.931557],[134.230136,33.932374],[134.230224,33.932661],[134.230323,33.932982],[134.230536,33.933432],[134.230623,33.93379],[134.230561,33.934357],[134.230273,33.934874],[134.230048,33.93539],[134.229973,33.935823],[134.230023,33.936523],[134.229698,33.937307],[134.229436,33.938123],[134.229373,33.938798],[134.229461,33.939206],[134.229811,33.939748],[134.229811,33.940423],[134.229673,33.940714],[134.229373,33.941056],[134.229136,33.941256],[134.228923,33.941506],[134.228836,33.941839],[134.228861,33.942223],[134.229073,33.943014],[134.229111,33.943489],[134.228998,33.944056],[134.228786,33.944414],[134.228598,33.944614],[134.229211,33.945314],[134.229261,33.945497],[134.229186,33.945539],[134.229073,33.945747],[134.228836,33.945972],[134.228048,33.946555],[134.226923,33.947097],[134.22681,33.948116],[134.226806,33.948153],[134.226786,33.94833],[134.226973,33.949255],[134.226948,33.94928],[134.226948,33.949888],[134.227086,33.950047],[134.227886,33.95023],[134.228448,33.95043],[134.228823,33.950638],[134.229073,33.95093],[134.229236,33.951246],[134.229473,33.951588],[134.229823,33.95188],[134.229898,33.951896],[134.230573,33.951763],[134.230973,33.951763],[134.23141,33.951838],[134.231648,33.951921],[134.231948,33.952288],[134.23216,33.952671],[134.23251,33.952988],[134.23391,33.953954],[134.233885,33.954004],[134.233935,33.954704],[134.23401,33.955038],[134.234282,33.955264],[134.23436,33.955329],[134.234522,33.955354],[134.235147,33.955354],[134.235835,33.955421],[134.23616,33.955513],[134.23681,33.955879],[134.237322,33.956054],[134.237935,33.956079],[134.238722,33.956304],[134.239197,33.956354],[134.239872,33.956579],[134.240359,33.957254],[134.240684,33.957396],[134.241159,33.957504],[134.241759,33.957504],[134.242422,33.957554],[134.243721,33.957621],[134.244196,33.957754],[134.244695,33.957973],[134.244709,33.957979],[134.244921,33.958504],[134.245334,33.958862],[134.245484,33.960171],[134.245996,33.961321],[134.246046,33.961771],[134.245921,33.961979],[134.245734,33.962154],[134.245646,33.962445],[134.245621,33.962787],[134.245734,33.962987],[134.245946,33.963262],[134.246134,33.96367],[134.246046,33.96412],[134.246271,33.964545],[134.246459,33.96482],[134.246508,33.96502],[134.246421,33.965362],[134.246586,33.965957],[134.246883,33.967028],[134.247021,33.96732],[134.247308,33.967453],[134.247321,33.96737],[134.247921,33.967637],[134.248646,33.96782],[134.249096,33.96802],[134.250046,33.96877],[134.250545,33.96897],[134.250895,33.969195],[134.251195,33.96967],[134.25167,33.970186],[134.252183,33.970503],[134.25267,33.97087],[134.25302,33.971361],[134.253495,33.97182],[134.254495,33.97292],[134.25482,33.973145],[134.255407,33.97322],[134.25592,33.973395],[134.255926,33.973403],[134.256157,33.973711],[134.256482,33.974594],[134.256505,33.975133],[134.256507,33.975178],[134.256476,33.975415],[134.256437,33.975713],[134.256395,33.976036],[134.256145,33.976603],[134.255745,33.977144],[134.25402,33.978786],[134.252895,33.979302],[134.252245,33.979644],[134.251433,33.980544],[134.249658,33.980627],[134.248183,33.980652],[134.24734,33.980464],[134.246708,33.980377],[134.246283,33.980402],[134.245771,33.980286],[134.244933,33.979902],[134.244458,33.97981],[134.243183,33.979785],[134.242646,33.979835],[134.241984,33.980102],[134.241096,33.980619],[134.240796,33.980685],[134.240421,33.980644],[134.240009,33.980502],[134.239321,33.980169],[134.238671,33.979877],[134.238541,33.979851],[134.238084,33.97976],[134.237459,33.979735],[134.236809,33.979852],[134.236359,33.979985],[134.235872,33.980002],[134.235384,33.979985],[134.234772,33.979802],[134.234534,33.979802],[134.233747,33.980202],[134.233422,33.980277],[134.233047,33.980252],[134.232434,33.98016],[134.23181,33.980185],[134.231485,33.980268],[134.230547,33.980385],[134.229872,33.980385],[134.228956,33.980244],[134.228667,33.980153],[134.228455,33.980076],[134.22816,33.979951],[134.227397,33.979452],[134.226998,33.979293],[134.22651,33.979318],[134.226085,33.979277],[134.225548,33.979043],[134.225035,33.978885],[134.224847,33.978877],[134.224803,33.978875],[134.224635,33.978868],[134.22426,33.978977],[134.223885,33.979135],[134.223235,33.979226],[134.222835,33.97916],[134.222373,33.979243],[134.221836,33.979426],[134.221223,33.979426],[134.220486,33.979376],[134.219898,33.97931],[134.219036,33.979351],[134.218551,33.979665],[134.217848,33.980081],[134.217323,33.980235],[134.216998,33.980343],[134.216334,33.980443],[134.215598,33.98046],[134.215086,33.98061],[134.213224,33.980859],[134.211936,33.980901],[134.211561,33.98081],[134.211299,33.980793],[134.210536,33.98126],[134.209761,33.981484],[134.209111,33.981534],[134.208687,33.981484],[134.207849,33.981709],[134.207774,33.981909],[134.207474,33.982026],[134.206987,33.982068],[134.206287,33.982201],[134.206149,33.982184],[134.205887,33.982201],[134.205537,33.982343],[134.204512,33.982543],[134.204106,33.982776],[134.20379,33.983013],[134.203624,33.983468],[134.203553,33.983695],[134.203437,33.983801],[134.203203,33.983956],[134.202936,33.984246],[134.202874,33.984392],[134.202649,33.985084],[134.202337,33.985584],[134.201924,33.986034],[134.201549,33.98635],[134.201087,33.986617],[134.200587,33.986842],[134.20045,33.987001],[134.200387,33.987475],[134.200337,33.987517],[134.199987,33.987634],[134.199662,33.987792],[134.199375,33.988334],[134.199075,33.988492],[134.198287,33.988733],[134.197937,33.989008],[134.197562,33.989142],[134.19705,33.989142],[134.19635,33.989075],[134.195787,33.989075],[134.196112,33.989792],[134.19635,33.990067],[134.196725,33.990242],[134.19735,33.990675],[134.197887,33.991375],[134.198237,33.991692],[134.198612,33.992075],[134.198875,33.993],[134.199024,33.993423],[134.199111,33.99366],[134.199099,33.993903],[134.199019,33.994084],[134.198859,33.994396],[134.198609,33.99471],[134.198362,33.994983],[134.198331,33.995008],[134.1982,33.995116],[134.1981,33.995433],[134.197962,33.996383],[134.198012,33.997374],[134.197825,33.998682],[134.197825,33.999016],[134.197637,33.999557],[134.197524,33.999721],[134.197407,33.999814],[134.197315,33.999908],[134.197247,33.999988],[134.197081,34.000116],[134.196859,34.000272],[134.196657,34.000411],[134.196327,34.000604],[134.196219,34.000682],[134.196163,34.000747],[134.19613,34.000817],[134.196056,34.000902],[134.195994,34.000949],[134.195786,34.001065],[134.19527,34.001303],[134.195128,34.00136],[134.194676,34.001495],[134.194374,34.001572],[134.19395,34.001668],[134.193726,34.001714],[134.193617,34.001756],[134.193519,34.001816],[134.193436,34.001904],[134.193197,34.002149],[134.192979,34.002411],[134.192874,34.002489],[134.192723,34.002578],[134.192453,34.002702],[134.192029,34.002888],[134.191884,34.002935],[134.191745,34.002969],[134.191446,34.003021],[134.191226,34.003048],[134.191058,34.003073],[134.190891,34.003112],[134.190746,34.003178],[134.190636,34.003231],[134.190516,34.003327],[134.190378,34.00346],[134.190086,34.003685],[134.1898,34.003903],[134.189475,34.004169],[134.189268,34.004325],[134.189231,34.004382],[134.189229,34.004491],[134.189218,34.00462],[134.189192,34.004686],[134.189168,34.004753],[134.189088,34.004828],[134.189007,34.004883],[134.188935,34.004918],[134.188861,34.004988],[134.188809,34.005056],[134.18877,34.005224],[134.188708,34.005268],[134.188597,34.005356],[134.188536,34.005419],[134.188514,34.005468],[134.188506,34.005563],[134.188483,34.005642],[134.188431,34.005712],[134.188351,34.005767],[134.188144,34.005884],[134.187968,34.005968],[134.187835,34.006015],[134.187057,34.006289],[134.186902,34.006344],[134.186837,34.00638],[134.186762,34.006435],[134.186726,34.006461],[134.186699,34.006562],[134.186715,34.00665],[134.186822,34.006926],[134.186872,34.007029],[134.186971,34.007141],[134.187071,34.00721],[134.187279,34.00732],[134.187398,34.007381],[134.187454,34.007464],[134.187504,34.007651],[134.187606,34.008072],[134.187672,34.008243],[134.187762,34.00841],[134.187864,34.008632],[134.187949,34.008855],[134.188024,34.009065],[134.188153,34.009429],[134.188204,34.009561],[134.188254,34.00961],[134.18833,34.009655],[134.188406,34.009696],[134.18865,34.010173],[134.188757,34.01042],[134.188813,34.010639],[134.188823,34.010799],[134.188853,34.010952],[134.188879,34.011035],[134.188967,34.011073],[134.189135,34.011159],[134.189198,34.011232],[134.189231,34.011355],[134.18925,34.011644],[134.189277,34.012192],[134.189288,34.012477],[134.189281,34.012662],[134.189273,34.012721],[134.18924,34.012784],[134.189174,34.012847],[134.188447,34.013288],[134.187904,34.013616],[134.187646,34.013778],[134.187238,34.013996],[134.186996,34.014126],[134.186808,34.014204],[134.186717,34.014225],[134.186573,34.014263],[134.186439,34.014309],[134.186293,34.014372],[134.186164,34.014432],[134.185968,34.014562],[134.185571,34.014879],[134.185131,34.015228],[134.184835,34.01544],[134.184549,34.015503],[134.184349,34.015587],[134.184191,34.015651],[134.184011,34.015735],[134.18384,34.015785],[134.183515,34.015874],[134.183394,34.015902],[134.183189,34.015928],[134.18303,34.01595],[134.182815,34.016008],[134.182665,34.016061],[134.182671,34.016084],[134.182682,34.016124],[134.182775,34.016193],[134.182948,34.016376],[134.183133,34.016584],[134.183437,34.01692],[134.183728,34.017169],[134.184379,34.017801],[134.184531,34.017936],[134.184733,34.018095],[134.184925,34.018255],[134.185114,34.01839],[134.18538,34.018598],[134.185548,34.018757],[134.185683,34.018857],[134.186039,34.019153],[134.186325,34.019422],[134.186515,34.019595],[134.186663,34.019751],[134.187243,34.0203],[134.187816,34.020812],[134.188294,34.021239],[134.188624,34.021437],[134.189509,34.022208],[134.190224,34.022885],[134.19106,34.023623],[134.191897,34.024362],[134.192636,34.025021],[134.193012,34.025367],[134.193376,34.025704],[134.194057,34.026332],[134.194742,34.026953],[134.195697,34.027802],[134.195786,34.027885],[134.196163,34.028236],[134.197037,34.029016],[134.197647,34.029595],[134.197837,34.029779],[134.197921,34.029904],[134.197922,34.030019],[134.197871,34.030374],[134.197867,34.030468],[134.197878,34.030774],[134.197942,34.031099],[134.198067,34.031572],[134.198061,34.031678],[134.198038,34.031842],[134.197969,34.032176],[134.197889,34.032829],[134.197802,34.033242],[134.197803,34.03334],[134.197829,34.033427],[134.197921,34.033468],[134.198039,34.033502],[134.198181,34.033536],[134.198322,34.0336],[134.198557,34.033699],[134.198654,34.033779],[134.198701,34.033893],[134.198732,34.034078],[134.198716,34.034504],[134.198613,34.034941],[134.198459,34.035468],[134.198379,34.035686],[134.198283,34.035773],[134.198175,34.035868],[134.198024,34.035984],[134.197475,34.036406],[134.197312,34.036536],[134.197248,34.036639],[134.197258,34.03674],[134.197326,34.036882],[134.197528,34.037218],[134.197533,34.037229],[134.197709,34.037596],[134.197897,34.038052],[134.197887,34.038231],[134.197839,34.03837],[134.197803,34.038474],[134.197804,34.038671],[134.197903,34.038787],[134.198088,34.039019],[134.198199,34.039279],[134.198212,34.03953],[134.198257,34.039781],[134.198248,34.04005],[134.198206,34.040247],[134.198177,34.040391],[134.197894,34.041773],[134.19794,34.042131],[134.197962,34.042233],[134.198007,34.042436],[134.198019,34.042615],[134.198017,34.042626],[134.197999,34.042723],[134.197945,34.042813],[134.197795,34.042984],[134.197504,34.043218],[134.197471,34.043253],[134.196925,34.043826],[134.196837,34.043918],[134.196691,34.044071],[134.195978,34.044819],[134.194508,34.046207],[134.194178,34.046611],[134.194034,34.046744],[134.19365,34.047104],[134.193365,34.047266],[134.193216,34.047331],[134.193062,34.047387],[134.192897,34.047466],[134.192603,34.047585],[134.192394,34.047696],[134.192263,34.047793],[134.19217,34.047899],[134.192088,34.048014],[134.191959,34.048169],[134.191762,34.048331],[134.191565,34.048501],[134.191378,34.048636],[134.191285,34.04871],[134.191126,34.048779],[134.190982,34.048826],[134.190627,34.048895],[134.190478,34.048923],[134.190313,34.048951],[134.190076,34.04904],[134.189884,34.049105],[134.189658,34.049212],[134.189439,34.049351],[134.189401,34.049425],[134.18939,34.049503],[134.18943,34.049649],[134.189512,34.049835],[134.18949,34.049936],[134.189442,34.050124],[134.189294,34.050513],[134.189262,34.050669],[134.189236,34.050903],[134.189257,34.051094],[134.189341,34.051226],[134.189435,34.051308],[134.189519,34.051436],[134.189526,34.051546],[134.189505,34.051712],[134.189526,34.051831],[134.189537,34.051888],[134.189599,34.05214],[134.18965,34.052236],[134.189772,34.052387],[134.190064,34.052659],[134.190181,34.0528],[134.19026,34.052974],[134.190398,34.053269],[134.190476,34.053374],[134.190598,34.053456],[134.19077,34.053533],[134.190902,34.053574],[134.191055,34.053667],[134.191139,34.053772],[134.191167,34.053905],[134.191207,34.054052],[134.191263,34.054157],[134.191402,34.054262],[134.191541,34.05438],[134.191669,34.054504],[134.191865,34.05487],[134.191983,34.055153],[134.192023,34.055291],[134.192029,34.055392],[134.192014,34.055534],[134.192004,34.055686],[134.192027,34.055832],[134.192235,34.05642],[134.192299,34.056704],[134.19229,34.056807],[134.192286,34.056932],[134.192281,34.057052],[134.192272,34.05716],[134.192276,34.057279],[134.19223,34.057378],[134.192169,34.05749],[134.192002,34.057648],[134.191842,34.057787],[134.191647,34.057917],[134.191513,34.058043],[134.191385,34.058181],[134.191313,34.058289],[134.191234,34.058412],[134.191107,34.058749],[134.19084,34.059282],[134.190753,34.05942],[134.190702,34.059502],[134.190645,34.059558],[134.190599,34.059593],[134.190434,34.059633],[134.19008,34.059723],[134.189697,34.059816],[134.189558,34.059872],[134.189414,34.059938],[134.189295,34.060029],[134.189213,34.060115],[134.189127,34.060271],[134.189092,34.060443],[134.189034,34.06067],[134.188813,34.061207],[134.188691,34.061457],[134.188558,34.061639],[134.188453,34.061779],[134.188217,34.062077],[134.187915,34.062428],[134.187725,34.062625]]]},"properties":{"code":"36207","name":"美馬市"}}]}