{"type":"FeatureCollection","features":[{"type":"Feature","geometry":{"type":"Polygon","coordinates":[[[134.241049,34.070246],[134.241438,34.070338],[134.242566,34.07064],[134.243477,34.070922],[134.244212,34.070908],[134.245153,34.07084],[134.245705,34.0708],[134.246417,34.070686],[134.248644,34.0706],[134.248677,34.070599],[134.251586,34.070431],[134.252073,34.070378],[134.253652,34.07029],[134.255519,34.070182],[134.255753,34.070169],[134.256107,34.070148],[134.257587,34.070075],[134.258039,34.070053],[134.258561,34.070035],[134.260401,34.069892],[134.261186,34.069832],[134.261815,34.069783],[134.262131,34.069759],[134.262497,34.069741],[134.264149,34.069658],[134.264496,34.069641],[134.26477,34.069627],[134.266371,34.069494],[134.266811,34.069484],[134.267427,34.069471],[134.267982,34.069459],[134.268772,34.069397],[134.269138,34.069372],[134.269652,34.069336],[134.270059,34.069308],[134.270378,34.069314],[134.271735,34.069337],[134.273948,34.069321],[134.273995,34.069321],[134.275477,34.069365],[134.279425,34.069394],[134.279427,34.069978],[134.280549,34.069989],[134.281756,34.07],[134.282014,34.070002],[134.28488,34.0701],[134.284933,34.069804],[134.28516,34.069796],[134.285758,34.069821],[134.286043,34.069874],[134.286521,34.069903],[134.286901,34.069908],[134.287672,34.069918],[134.287753,34.068533],[134.288518,34.068543],[134.288708,34.068546],[134.291774,34.068694],[134.293513,34.068761],[134.294621,34.068796],[134.296217,34.069025],[134.296359,34.069045],[134.297579,34.06922],[134.30197,34.069947],[134.302513,34.070023],[134.303636,34.070209],[134.305674,34.07053],[134.306743,34.070698],[134.308596,34.070976],[134.309102,34.070038],[134.310581,34.070978],[134.312123,34.069212],[134.312819,34.068434],[134.313509,34.068493],[134.313676,34.068465],[134.313934,34.068415],[134.31427,34.068402],[134.322611,34.069434],[134.325274,34.070557],[134.325534,34.070878],[134.326911,34.071308],[134.327672,34.071574],[134.328486,34.071907],[134.329306,34.072243],[134.329917,34.072533],[134.332043,34.073371],[134.333043,34.073722],[134.334134,34.074113],[134.334145,34.074161],[134.334045,34.075188],[134.333963,34.075622],[134.33385,34.076056],[134.333706,34.076511],[134.333509,34.076931],[134.333222,34.07726],[134.332251,34.078724],[134.334338,34.079953],[134.334416,34.085009],[134.335004,34.085021],[134.335552,34.085049],[134.336944,34.085067],[134.342779,34.085553],[134.346277,34.085767],[134.34628,34.085767],[134.346327,34.085766],[134.346407,34.085763],[134.356759,34.085802],[134.357226,34.085804],[134.366619,34.086095],[134.37146,34.086244],[134.375394,34.086114],[134.376541,34.086028],[134.37683,34.086006],[134.375099,34.088742],[134.382764,34.088377],[134.383413,34.088467],[134.387318,34.089824],[134.395789,34.092767],[134.394776,34.096318],[134.394521,34.09721],[134.394363,34.097814],[134.394458,34.098491],[134.394479,34.099065],[134.394506,34.099429],[134.394517,34.099579],[134.394636,34.100633],[134.394484,34.101418],[134.394198,34.102639],[134.39417,34.103539],[134.394136,34.104226],[134.395569,34.104527],[134.396278,34.104615],[134.39692,34.104636],[134.396975,34.103701],[134.397226,34.103792],[134.39799,34.104288],[134.397988,34.104391],[134.398554,34.104633],[134.398629,34.104554],[134.398891,34.104664],[134.399092,34.104372],[134.399653,34.104619],[134.40002,34.104778],[134.400235,34.104927],[134.400603,34.105201],[134.40096,34.10566],[134.401044,34.10576],[134.40122,34.105971],[134.401321,34.106092],[134.401387,34.106169],[134.401479,34.106544],[134.401582,34.10694],[134.401604,34.107056],[134.401611,34.107098],[134.401639,34.107262],[134.401667,34.10746],[134.401692,34.107653],[134.401714,34.107834],[134.401736,34.107998],[134.40174,34.108034],[134.401756,34.108145],[134.40177,34.108274],[134.401779,34.108393],[134.40178,34.108516],[134.401773,34.108655],[134.401762,34.108804],[134.40175,34.108954],[134.40174,34.109091],[134.401731,34.109124],[134.401706,34.109166],[134.401654,34.109238],[134.401547,34.109377],[134.401418,34.109539],[134.401343,34.109637],[134.401321,34.109665],[134.401282,34.109727],[134.401241,34.1098],[134.401161,34.109972],[134.401068,34.110174],[134.40095,34.110417],[134.400825,34.110674],[134.400733,34.110884],[134.400692,34.11097],[134.400601,34.11112],[134.400558,34.111191],[134.40052,34.111268],[134.400455,34.111412],[134.400396,34.111521],[134.400372,34.11157],[134.400336,34.111686],[134.400312,34.111743],[134.400278,34.111797],[134.400191,34.111895],[134.400211,34.112013],[134.400219,34.112077],[134.400223,34.112147],[134.400224,34.11223],[134.40022,34.112334],[134.400194,34.112594],[134.400175,34.112802],[134.40016,34.112954],[134.400137,34.113078],[134.400123,34.113148],[134.400106,34.113228],[134.400093,34.113271],[134.400092,34.113289],[134.400107,34.113294],[134.400228,34.113314],[134.400199,34.113413],[134.400178,34.113478],[134.400108,34.113648],[134.400091,34.113686],[134.400016,34.113849],[134.399897,34.114087],[134.399799,34.114276],[134.399787,34.114301],[134.399746,34.114379],[134.399676,34.114508],[134.399605,34.114639],[134.399492,34.114847],[134.399475,34.114883],[134.399432,34.114974],[134.399349,34.115148],[134.399366,34.115312],[134.399419,34.115709],[134.399245,34.115745],[134.398893,34.115823],[134.398945,34.115958],[134.398985,34.116083],[134.399017,34.116196],[134.397832,34.116471],[134.396644,34.116768],[134.396073,34.116965],[134.396036,34.116912],[134.395174,34.115657],[134.395085,34.115608],[134.394991,34.11557],[134.394893,34.115558],[134.394807,34.115556],[134.39436,34.115619],[134.394176,34.115625],[134.394171,34.115625],[134.394048,34.115614],[134.393795,34.115562],[134.392083,34.115123],[134.391822,34.115057],[134.391741,34.115037],[134.390764,34.114791],[134.39012,34.114616],[134.388508,34.114133],[134.388214,34.114045],[134.387648,34.113907],[134.387403,34.113852],[134.386872,34.113781],[134.386298,34.113737],[134.386102,34.113731],[134.386033,34.113749],[134.386008,34.113779],[134.385991,34.113861],[134.385948,34.114422],[134.385909,34.114991],[134.385874,34.115238],[134.385824,34.115502],[134.385813,34.115679],[134.385803,34.115953],[134.385773,34.11613],[134.385748,34.116232],[134.385697,34.116319],[134.385634,34.116421],[134.385627,34.116434],[134.385583,34.116512],[134.385565,34.116598],[134.385546,34.116706],[134.38551,34.116862],[134.385447,34.117071],[134.385428,34.117135],[134.385409,34.117163],[134.385351,34.117141],[134.385254,34.117121],[134.385177,34.117111],[134.38512,34.117103],[134.384903,34.117971],[134.385069,34.118003],[134.385069,34.118034],[134.384971,34.118297],[134.384892,34.118304],[134.384178,34.118366],[134.384121,34.118519],[134.384103,34.118561],[134.384086,34.118598],[134.384067,34.118631],[134.384043,34.118664],[134.384014,34.11869],[134.383977,34.118704],[134.383938,34.118708],[134.383898,34.118704],[134.383862,34.118699],[134.383847,34.118702],[134.383835,34.118709],[134.383824,34.118722],[134.383817,34.118741],[134.383804,34.118792],[134.383792,34.11885],[134.383775,34.118912],[134.383757,34.118981],[134.383733,34.119058],[134.383704,34.119149],[134.383666,34.11926],[134.383619,34.119388],[134.383569,34.119507],[134.383316,34.119422],[134.383085,34.11937],[134.382734,34.119306],[134.382738,34.119321],[134.38269,34.119686],[134.382665,34.119846],[134.38264,34.119981],[134.382611,34.120089],[134.382596,34.120129],[134.382579,34.120165],[134.382545,34.120218],[134.382511,34.120261],[134.382477,34.120301],[134.38244,34.120343],[134.382407,34.120378],[134.382396,34.12039],[134.382351,34.120443],[134.38231,34.120499],[134.382276,34.120554],[134.382245,34.120597],[134.382229,34.120611],[134.382213,34.120621],[134.382175,34.120633],[134.382127,34.120644],[134.38207,34.120658],[134.382006,34.120673],[134.381938,34.120685],[134.381868,34.1207],[134.381794,34.120719],[134.381757,34.120732],[134.38169,34.120762],[134.381639,34.120793],[134.381621,34.120811],[134.381593,34.120851],[134.381569,34.120901],[134.381546,34.120961],[134.38154,34.120975],[134.381522,34.12102],[134.381495,34.12107],[134.381467,34.121119],[134.381432,34.121173],[134.381403,34.121223],[134.38138,34.121257],[134.381348,34.1213],[134.381308,34.121339],[134.381269,34.121375],[134.381231,34.121409],[134.381195,34.121442],[134.381154,34.121478],[134.381111,34.121511],[134.381074,34.12154],[134.381047,34.12156],[134.381029,34.121581],[134.381015,34.121615],[134.381003,34.121658],[134.380989,34.1217],[134.380973,34.121729],[134.380962,34.121752],[134.380963,34.121779],[134.380976,34.121811],[134.380994,34.121841],[134.381008,34.121863],[134.381019,34.121883],[134.381028,34.121908],[134.381033,34.12194],[134.381029,34.121978],[134.38101,34.122018],[134.380996,34.122038],[134.380961,34.122079],[134.380918,34.122117],[134.380871,34.122157],[134.380828,34.122203],[134.380809,34.122229],[134.380777,34.122285],[134.380767,34.122313],[134.380753,34.12237],[134.380752,34.122426],[134.380757,34.122478],[134.380762,34.122527],[134.380763,34.122584],[134.380752,34.122652],[134.38074,34.122691],[134.380708,34.122773],[134.380666,34.122843],[134.380658,34.122857],[134.380603,34.122941],[134.380554,34.12302],[134.380511,34.123092],[134.380466,34.12316],[134.380404,34.123221],[134.38033,34.123281],[134.38025,34.123342],[134.380163,34.123404],[134.380072,34.123465],[134.380022,34.123494],[134.379928,34.123555],[134.379887,34.123586],[134.379851,34.123621],[134.379823,34.123657],[134.379801,34.123696],[134.379783,34.123738],[134.379749,34.123828],[134.379728,34.123875],[134.379681,34.12397],[134.379637,34.124054],[134.379602,34.124118],[134.379572,34.124174],[134.37954,34.12424],[134.379511,34.1243],[134.379504,34.124317],[134.37947,34.124394],[134.379438,34.124461],[134.379406,34.124524],[134.379363,34.124619],[134.379335,34.124664],[134.379291,34.124716],[134.379224,34.12478],[134.379174,34.124821],[134.379127,34.12487],[134.379087,34.12493],[134.379072,34.124964],[134.379061,34.124998],[134.379055,34.125032],[134.379054,34.125068],[134.379059,34.125139],[134.379069,34.125203],[134.379075,34.125266],[134.379076,34.125335],[134.379067,34.125415],[134.379053,34.125499],[134.379038,34.125577],[134.379021,34.125644],[134.379007,34.125706],[134.378993,34.125767],[134.378982,34.12583],[134.378974,34.125893],[134.378966,34.125962],[134.378957,34.126025],[134.378955,34.126042],[134.378934,34.126138],[134.378907,34.126238],[134.378879,34.126331],[134.378849,34.126412],[134.378821,34.126493],[134.378792,34.126578],[134.378765,34.126666],[134.378739,34.126753],[134.378713,34.126838],[134.378689,34.126924],[134.378665,34.12701],[134.378642,34.127103],[134.378615,34.127206],[134.378585,34.127317],[134.378539,34.128357],[134.378499,34.128505],[134.378404,34.128751],[134.37835,34.128906],[134.377915,34.130017],[134.3779,34.130103],[134.377911,34.130173],[134.378358,34.130829],[134.378639,34.131189],[134.379162,34.132037],[134.379163,34.132038],[134.379253,34.132175],[134.379331,34.132305],[134.379397,34.132426],[134.379457,34.132542],[134.379521,34.132664],[134.37956,34.132729],[134.37964,34.13287],[134.379678,34.132943],[134.37971,34.13302],[134.379737,34.133096],[134.379758,34.133174],[134.379775,34.13325],[134.379805,34.133398],[134.379839,34.133533],[134.379871,34.13366],[134.379894,34.133786],[134.379909,34.133905],[134.37992,34.13396],[134.379935,34.134012],[134.379957,34.134056],[134.379983,34.134097],[134.380043,34.134173],[134.380103,34.134256],[134.380159,34.134347],[134.380182,34.134395],[134.380205,34.134444],[134.380325,34.13447],[134.380444,34.134535],[134.381154,34.135053],[134.38127,34.135177],[134.381382,34.135305],[134.381799,34.136096],[134.381826,34.136127],[134.381851,34.136161],[134.38189,34.136241],[134.381919,34.136333],[134.381925,34.136357],[134.38197,34.136584],[134.381999,34.136755],[134.382031,34.13689],[134.382051,34.136944],[134.382078,34.137],[134.382148,34.137128],[134.38222,34.137244],[134.38228,34.13734],[134.382332,34.137437],[134.382358,34.137479],[134.382384,34.13751],[134.382412,34.137536],[134.38248,34.137591],[134.382558,34.137648],[134.382595,34.137664],[134.382634,34.137676],[134.382678,34.137682],[134.38273,34.137684],[134.382831,34.137685],[134.382887,34.13768],[134.382912,34.13768],[134.383071,34.137718],[134.383168,34.137781],[134.383204,34.137827],[134.383216,34.137878],[134.383337,34.138421],[134.383321,34.138472],[134.383169,34.138856],[134.383124,34.138953],[134.383045,34.139109],[134.383006,34.139172],[134.382964,34.13923],[134.382919,34.139278],[134.382864,34.139316],[134.382797,34.139348],[134.382712,34.139377],[134.382493,34.139432],[134.382394,34.13946],[134.382321,34.139488],[134.382268,34.139519],[134.382223,34.139555],[134.382175,34.139598],[134.382132,34.139651],[134.382095,34.139719],[134.382069,34.139801],[134.382053,34.139893],[134.382024,34.14008],[134.382006,34.140171],[134.381982,34.140263],[134.381916,34.140441],[134.381872,34.140551],[134.381847,34.14059],[134.381799,34.140651],[134.38171,34.140752],[134.38161,34.140867],[134.381463,34.141032],[134.381205,34.141315],[134.380989,34.141561],[134.380797,34.141787],[134.380584,34.142031],[134.38048,34.142158],[134.380384,34.142284],[134.380185,34.142553],[134.380064,34.142701],[134.379826,34.142988],[134.379733,34.143106],[134.379657,34.14321],[134.379513,34.143412],[134.379435,34.143512],[134.379353,34.143606],[134.379267,34.143687],[134.379112,34.143821],[134.379051,34.143878],[134.378965,34.143964],[134.378928,34.143986],[134.37888,34.143999],[134.378703,34.144034],[134.378423,34.144088],[134.378125,34.144142],[134.377993,34.144174],[134.377878,34.144209],[134.377777,34.144249],[134.377588,34.144337],[134.377493,34.144388],[134.377401,34.144451],[134.377311,34.144528],[134.377228,34.144621],[134.377154,34.144726],[134.377089,34.14484],[134.377035,34.144959],[134.376991,34.145079],[134.376954,34.145193],[134.376924,34.145305],[134.3769,34.145408],[134.37569,34.147495],[134.375219,34.148278],[134.374576,34.148697],[134.373325,34.149054],[134.37284,34.149113],[134.372311,34.14957],[134.371961,34.149995],[134.371411,34.150609],[134.371011,34.150867],[134.370805,34.150952],[134.370444,34.150989],[134.369422,34.151129],[134.369147,34.151309],[134.369131,34.15132],[134.369118,34.151335],[134.369107,34.151353],[134.369095,34.1514],[134.369094,34.151423],[134.369093,34.151453],[134.369096,34.151506],[134.369097,34.151563],[134.369095,34.151593],[134.369089,34.151624],[134.369063,34.151693],[134.36902,34.151776],[134.368955,34.15187],[134.368886,34.151962],[134.368825,34.152034],[134.368779,34.152087],[134.368758,34.152112],[134.368719,34.152178],[134.368678,34.152262],[134.368638,34.152347],[134.368601,34.15242],[134.368572,34.152481],[134.368553,34.152535],[134.368546,34.15259],[134.36855,34.152648],[134.368561,34.152716],[134.36858,34.15279],[134.368602,34.15287],[134.368627,34.15295],[134.368645,34.153023],[134.36865,34.153054],[134.368648,34.153113],[134.368643,34.153142],[134.36862,34.153209],[134.368583,34.153287],[134.368559,34.153328],[134.368533,34.153368],[134.368472,34.153442],[134.368408,34.153515],[134.368352,34.153587],[134.368306,34.153666],[134.368285,34.153708],[134.368246,34.153805],[134.368213,34.153909],[134.36819,34.154003],[134.368177,34.154077],[134.368142,34.154487],[134.368129,34.154596],[134.368108,34.154672],[134.36808,34.154748],[134.368044,34.154825],[134.368021,34.154866],[134.367968,34.154949],[134.367915,34.155034],[134.367867,34.155111],[134.367825,34.155185],[134.367783,34.155253],[134.367739,34.155315],[134.367696,34.155373],[134.367688,34.155384],[134.367656,34.155426],[134.367639,34.155453],[134.367626,34.15548],[134.367618,34.15551],[134.367616,34.155541],[134.367619,34.155574],[134.367635,34.155639],[134.367656,34.155698],[134.36768,34.15575],[134.367692,34.155773],[134.36771,34.155806],[134.36775,34.15587],[134.367798,34.155944],[134.368032,34.156337],[134.368078,34.156418],[134.368092,34.156446],[134.368104,34.156476],[134.36812,34.156546],[134.36813,34.156618],[134.368134,34.156692],[134.368134,34.156765],[134.368131,34.156836],[134.368131,34.156909],[134.368132,34.156984],[134.368132,34.15704],[134.368132,34.15706],[134.368131,34.157132],[134.368131,34.1572],[134.368135,34.157234],[134.368146,34.157267],[134.368163,34.157299],[134.368186,34.157332],[134.368214,34.157365],[134.368278,34.157426],[134.368346,34.157482],[134.368414,34.157536],[134.368477,34.157592],[134.368506,34.157622],[134.368562,34.157685],[134.368613,34.157752],[134.368663,34.157822],[134.368708,34.157893],[134.368748,34.15796],[134.368786,34.158025],[134.368828,34.158088],[134.368878,34.158151],[134.368935,34.158222],[134.368999,34.158302],[134.369068,34.158383],[134.369136,34.158455],[134.369198,34.158514],[134.369244,34.158565],[134.369259,34.158589],[134.369269,34.158613],[134.369281,34.15867],[134.369293,34.158744],[134.36931,34.158837],[134.369328,34.158945],[134.369334,34.158986],[134.369345,34.15906],[134.36936,34.15918],[134.36937,34.159302],[134.369374,34.159418],[134.369367,34.15952],[134.369345,34.159599],[134.369317,34.15966],[134.369295,34.15971],[134.369279,34.159758],[134.369266,34.159813],[134.369249,34.159879],[134.369236,34.159948],[134.369229,34.160009],[134.36923,34.160034],[134.369239,34.160081],[134.369258,34.160129],[134.369287,34.160179],[134.36932,34.160227],[134.369355,34.160268],[134.369392,34.160304],[134.369434,34.160335],[134.369484,34.160363],[134.36955,34.160393],[134.369636,34.160428],[134.36973,34.16047],[134.369775,34.160495],[134.369814,34.160522],[134.369849,34.160552],[134.36988,34.160583],[134.369908,34.160617],[134.369934,34.160653],[134.369978,34.160728],[134.370016,34.160809],[134.370049,34.160893],[134.370078,34.160978],[134.370104,34.161068],[134.370123,34.161163],[134.370138,34.161258],[134.37015,34.161349],[134.37016,34.161435],[134.370165,34.161518],[134.370166,34.161598],[134.370168,34.161674],[134.370174,34.161738],[134.370188,34.16179],[134.370199,34.161813],[134.370228,34.161856],[134.370264,34.161897],[134.370306,34.161931],[134.370347,34.16196],[134.370389,34.161987],[134.370431,34.162013],[134.370474,34.162046],[134.370519,34.162086],[134.370563,34.162134],[134.370601,34.162188],[134.37063,34.162242],[134.370647,34.162293],[134.37066,34.162346],[134.370674,34.162401],[134.37069,34.162454],[134.370704,34.162502],[134.370719,34.162544],[134.370735,34.16259],[134.370752,34.162643],[134.370778,34.162696],[134.370796,34.162719],[134.370815,34.162736],[134.370837,34.162749],[134.370885,34.162769],[134.370932,34.16279],[134.370975,34.162813],[134.371022,34.162835],[134.371072,34.162853],[134.371124,34.162873],[134.371169,34.162902],[134.371189,34.16292],[134.371207,34.162942],[134.371235,34.162992],[134.371245,34.163019],[134.371261,34.163079],[134.37127,34.163144],[134.37127,34.163212],[134.371266,34.163284],[134.371254,34.163362],[134.37123,34.163426],[134.3712,34.16348],[134.371129,34.163583],[134.371025,34.163703],[134.370969,34.16377],[134.370919,34.163837],[134.37084,34.163958],[134.370773,34.16404],[134.370729,34.164083],[134.370606,34.164194],[134.370547,34.164254],[134.370501,34.164309],[134.37047,34.164363],[134.370451,34.164417],[134.370442,34.164471],[134.370443,34.164528],[134.37046,34.164583],[134.37049,34.164637],[134.370568,34.16474],[134.370602,34.164786],[134.370632,34.164833],[134.370658,34.164883],[134.370706,34.165001],[134.370771,34.165156],[134.37084,34.165314],[134.370863,34.165372],[134.370884,34.165417],[134.370913,34.165454],[134.370954,34.165487],[134.371078,34.165563],[134.371154,34.165612],[134.371318,34.165726],[134.371393,34.16578],[134.371459,34.165832],[134.371507,34.165881],[134.371534,34.165927],[134.371545,34.165971],[134.371549,34.166016],[134.37155,34.166113],[134.37156,34.166253],[134.37157,34.166335],[134.371585,34.166411],[134.371604,34.166469],[134.371634,34.166512],[134.37168,34.166545],[134.371742,34.16657],[134.371898,34.166619],[134.371973,34.166648],[134.372045,34.166682],[134.37211,34.166722],[134.372169,34.166766],[134.372224,34.166815],[134.372275,34.16687],[134.372306,34.166908],[134.372325,34.166931],[134.372426,34.167072],[134.372527,34.167226],[134.372565,34.167291],[134.372584,34.167339],[134.372586,34.167374],[134.372576,34.167403],[134.372553,34.167428],[134.372492,34.167476],[134.372461,34.167497],[134.372435,34.167521],[134.372417,34.167556],[134.372406,34.167604],[134.372402,34.167663],[134.372404,34.167787],[134.372412,34.167921],[134.372415,34.167979],[134.372418,34.168075],[134.372426,34.168196],[134.372436,34.168237],[134.372457,34.168273],[134.372492,34.168308],[134.37254,34.168343],[134.372597,34.168375],[134.37272,34.168434],[134.372786,34.168471],[134.372851,34.168521],[134.372913,34.168579],[134.372972,34.168641],[134.37302,34.168705],[134.373064,34.168774],[134.373158,34.168945],[134.373265,34.169143],[134.373366,34.169317],[134.373443,34.169452],[134.373468,34.169509],[134.373484,34.169563],[134.373499,34.169665],[134.373515,34.169711],[134.373547,34.169752],[134.373593,34.169789],[134.373652,34.169826],[134.373791,34.169902],[134.373904,34.169965],[134.374373,34.17023],[134.374534,34.170376],[134.375063,34.17112],[134.375321,34.171506],[134.375498,34.171734],[134.375611,34.171802],[134.375218,34.172464],[134.375131,34.172731],[134.375106,34.173047],[134.375043,34.173156],[134.373668,34.174289],[134.373181,34.174605],[134.372988,34.174783],[134.372416,34.175063],[134.372143,34.175205],[134.371906,34.175405],[134.371694,34.175471],[134.371255,34.175449],[134.370771,34.175502],[134.370343,34.175722],[134.369993,34.17593],[134.369768,34.176263],[134.369768,34.176605],[134.369681,34.177013],[134.369381,34.177372],[134.368944,34.177822],[134.368269,34.178363],[134.367681,34.178721],[134.366869,34.179396],[134.366156,34.17983],[134.365894,34.179913],[134.365019,34.180321],[134.364481,34.180679],[134.363894,34.181021],[134.363255,34.181567],[134.363231,34.181588],[134.362694,34.181854],[134.362282,34.181854],[134.361694,34.181629],[134.360644,34.181879],[134.360217,34.181999],[134.359615,34.182393],[134.358865,34.183027],[134.358868,34.183303],[134.359114,34.183653],[134.358981,34.184006],[134.358444,34.184312],[134.357944,34.184587],[134.357309,34.184797],[134.356676,34.18499],[134.355603,34.185161],[134.354863,34.185242],[134.354212,34.185246],[134.353689,34.185174],[134.35307,34.185129],[134.352373,34.185171],[134.35198,34.185212],[134.351423,34.185542],[134.35092,34.185537],[134.350357,34.185379],[134.349807,34.185421],[134.349507,34.185262],[134.349307,34.184996],[134.348482,34.184437],[134.348032,34.183896],[134.347945,34.183396],[134.347445,34.182229],[134.34712,34.181738],[134.347125,34.18168],[134.3472,34.180934],[134.347465,34.180153],[134.34717,34.179705],[134.34687,34.179055],[134.346557,34.178721],[134.346457,34.178246],[134.346495,34.17768],[134.346345,34.177255],[134.346307,34.176805],[134.34637,34.176263],[134.346332,34.175722],[134.34607,34.175047],[134.34522,34.173922],[134.344682,34.172847],[134.34427,34.172572],[134.344117,34.172534],[134.343745,34.172439],[134.34307,34.172489],[134.342245,34.172756],[134.340633,34.173389],[134.33987,34.173731],[134.33807,34.174114],[134.337065,34.174292],[134.33631,34.174473],[134.334909,34.175086],[134.334474,34.175441],[134.333871,34.175514],[134.333233,34.17513],[134.332846,34.174855],[134.332696,34.174789],[134.331084,34.174772],[134.330346,34.174639],[134.329734,34.174414],[134.329171,34.174122],[134.328913,34.17382],[134.328637,34.173407],[134.328309,34.173239],[134.327198,34.173616],[134.326909,34.173714],[134.326084,34.174097],[134.325348,34.174384],[134.324622,34.174339],[134.324018,34.174469],[134.323444,34.174561],[134.322191,34.174896],[134.32162,34.175264],[134.321408,34.175303],[134.320711,34.175182],[134.320107,34.175287],[134.31936,34.175322],[134.31836,34.175522],[134.318035,34.175655],[134.316485,34.17658],[134.314846,34.177295],[134.314361,34.177185],[134.313685,34.17663],[134.311835,34.175305],[134.310473,34.174722],[134.309861,34.173663],[134.309323,34.172564],[134.309061,34.171797],[134.308823,34.17128],[134.308498,34.170939],[134.308388,34.170907],[134.308123,34.17083],[134.306973,34.170939],[134.306411,34.170939],[134.306261,34.170922],[134.305848,34.170672],[134.305411,34.170314],[134.305173,34.170222],[134.304849,34.170181],[134.304061,34.17043],[134.303386,34.170514],[134.303124,34.170589],[134.302499,34.170606],[134.301999,34.170447],[134.301499,34.170381],[134.300824,34.170431],[134.300099,34.170297],[134.299687,34.170072],[134.299687,34.169964],[134.299712,34.169931],[134.299449,34.169772],[134.299162,34.169664],[134.298749,34.169389],[134.298687,34.169306],[134.298574,34.168897],[134.298362,34.168672],[134.297862,34.168606],[134.297718,34.16868],[134.297588,34.168764],[134.297505,34.168868],[134.297235,34.169102],[134.29691,34.169252],[134.296803,34.169336],[134.296754,34.169445],[134.296738,34.169563],[134.296746,34.169691],[134.296795,34.169967],[134.296799,34.169985],[134.296811,34.17004],[134.296819,34.170094],[134.296821,34.170149],[134.296814,34.170207],[134.296796,34.170266],[134.296782,34.170298],[134.296743,34.17036],[134.296697,34.170423],[134.29665,34.170484],[134.29661,34.170542],[134.29658,34.170595],[134.296558,34.170643],[134.296541,34.170686],[134.296526,34.170723],[134.296516,34.17076],[134.296513,34.170801],[134.296521,34.170851],[134.296537,34.170912],[134.296556,34.170979],[134.29657,34.17105],[134.296575,34.171121],[134.296575,34.171192],[134.296573,34.171262],[134.296572,34.171331],[134.296571,34.171397],[134.296566,34.171461],[134.296559,34.171492],[134.296549,34.171523],[134.296515,34.171579],[134.296472,34.171632],[134.296428,34.171682],[134.296392,34.171729],[134.296376,34.171763],[134.296358,34.171816],[134.296331,34.171863],[134.296294,34.171915],[134.296247,34.171965],[134.296243,34.171986],[134.296245,34.172033],[134.296257,34.172085],[134.296275,34.17214],[134.29629,34.172194],[134.296301,34.172247],[134.296304,34.172299],[134.296298,34.172351],[134.296282,34.172402],[134.296259,34.172452],[134.296234,34.1725],[134.29621,34.172544],[134.296187,34.172586],[134.296159,34.172631],[134.296121,34.172685],[134.296068,34.172749],[134.296008,34.172821],[134.295952,34.17289],[134.295909,34.17295],[134.295884,34.172999],[134.29588,34.173008],[134.295858,34.173072],[134.295828,34.173126],[134.295793,34.173174],[134.295753,34.17322],[134.295711,34.173268],[134.295664,34.17332],[134.295615,34.173376],[134.295559,34.173433],[134.295496,34.173488],[134.295459,34.173512],[134.29538,34.17356],[134.295293,34.173608],[134.295201,34.173662],[134.295105,34.173724],[134.295009,34.173792],[134.294917,34.173861],[134.294831,34.173926],[134.294752,34.173986],[134.294708,34.174023],[134.294687,34.174044],[134.294662,34.174074],[134.294611,34.174134],[134.294574,34.174181],[134.294561,34.174203],[134.294549,34.174232],[134.294546,34.174245],[134.294548,34.174256],[134.294584,34.174264],[134.294642,34.174278],[134.294664,34.174286],[134.294696,34.174297],[134.294734,34.174313],[134.294768,34.17433],[134.29483,34.174372],[134.294883,34.174413],[134.294921,34.174453],[134.294934,34.174474],[134.294943,34.174495],[134.294947,34.174515],[134.294945,34.174538],[134.294936,34.17456],[134.294908,34.174608],[134.294887,34.174632],[134.294841,34.174683],[134.29479,34.174736],[134.294742,34.174792],[134.294693,34.174848],[134.294669,34.174875],[134.294603,34.174949],[134.29453,34.175028],[134.294464,34.175097],[134.294405,34.175162],[134.294354,34.175222],[134.294317,34.175277],[134.29429,34.175336],[134.294258,34.175409],[134.294221,34.175471],[134.294173,34.175543],[134.29411,34.175624],[134.293962,34.175816],[134.293898,34.17591],[134.293855,34.175989],[134.293835,34.176052],[134.293836,34.176096],[134.293848,34.176132],[134.293869,34.176165],[134.293894,34.176198],[134.293915,34.176231],[134.293929,34.176264],[134.293941,34.176306],[134.293945,34.17634],[134.293947,34.176387],[134.293943,34.176437],[134.293929,34.176522],[134.293907,34.176606],[134.293893,34.176637],[134.293875,34.176664],[134.29385,34.176689],[134.293794,34.176736],[134.29374,34.176794],[134.293723,34.17682],[134.293707,34.176856],[134.293702,34.17688],[134.293702,34.17691],[134.293708,34.176944],[134.293722,34.176998],[134.293738,34.17707],[134.293743,34.177113],[134.293747,34.177186],[134.29375,34.177269],[134.293748,34.177362],[134.293742,34.177409],[134.293728,34.177487],[134.293715,34.17753],[134.293711,34.177539],[134.293703,34.177566],[134.293682,34.177608],[134.293637,34.177688],[134.293592,34.177751],[134.293536,34.177811],[134.293464,34.177872],[134.293371,34.177941],[134.293263,34.178015],[134.293149,34.178091],[134.293047,34.178158],[134.292967,34.178217],[134.292903,34.178274],[134.292858,34.178324],[134.292819,34.17838],[134.29278,34.178439],[134.29274,34.178503],[134.292705,34.17856],[134.292653,34.178638],[134.292605,34.178702],[134.292539,34.178768],[134.292485,34.178812],[134.2924,34.178875],[134.292333,34.178918],[134.292241,34.178973],[134.29217,34.179008],[134.292081,34.179045],[134.292019,34.17907],[134.291942,34.179095],[134.291855,34.179112],[134.291769,34.179114],[134.291687,34.179109],[134.291603,34.179103],[134.29152,34.179099],[134.291438,34.179097],[134.291355,34.179094],[134.291265,34.17909],[134.291161,34.179084],[134.291043,34.179073],[134.290924,34.179062],[134.290811,34.179047],[134.290708,34.179034],[134.290617,34.179026],[134.290543,34.179025],[134.290505,34.179028],[134.290441,34.179041],[134.29037,34.179064],[134.29031,34.179087],[134.290227,34.179115],[134.290176,34.179128],[134.290097,34.179137],[134.290003,34.179132],[134.289948,34.179125],[134.289854,34.17911],[134.289767,34.179094],[134.289684,34.17908],[134.289612,34.179066],[134.289506,34.179039],[134.289434,34.179018],[134.289342,34.178985],[134.289248,34.178957],[134.289211,34.17895],[134.289119,34.178943],[134.289022,34.178939],[134.288978,34.178933],[134.288871,34.178903],[134.288783,34.178872],[134.288748,34.178862],[134.28872,34.178858],[134.288691,34.178857],[134.288673,34.17886],[134.288646,34.178868],[134.28859,34.178896],[134.288531,34.178931],[134.288444,34.178977],[134.288408,34.17899],[134.28832,34.179017],[134.288229,34.179058],[134.288138,34.179074],[134.288041,34.179105],[134.287998,34.179115],[134.287933,34.179126],[134.287828,34.179146],[134.287777,34.179162],[134.287735,34.179184],[134.287701,34.179209],[134.287667,34.179248],[134.287637,34.17929],[134.287587,34.179372],[134.287548,34.179426],[134.287509,34.179478],[134.287476,34.179529],[134.287464,34.179554],[134.287443,34.179612],[134.287425,34.179674],[134.287411,34.179731],[134.287397,34.179792],[134.287374,34.179848],[134.287357,34.179876],[134.287332,34.179901],[134.287301,34.179923],[134.287268,34.179934],[134.287221,34.179942],[134.287146,34.179943],[134.28708,34.179939],[134.287021,34.179937],[134.286961,34.179937],[134.286883,34.17994],[134.286794,34.179944],[134.286709,34.179949],[134.28662,34.17995],[134.286581,34.179947],[134.286577,34.179947],[134.28653,34.179943],[134.286476,34.179931],[134.286368,34.1799],[134.286327,34.179884],[134.286273,34.179861],[134.286194,34.179815],[134.286141,34.17978],[134.28608,34.179751],[134.286048,34.179739],[134.28598,34.179722],[134.285911,34.17971],[134.285841,34.179704],[134.285778,34.179699],[134.285717,34.179695],[134.285659,34.179695],[134.285575,34.179705],[134.285478,34.179716],[134.285423,34.179714],[134.285368,34.1797],[134.285321,34.179674],[134.285282,34.179639],[134.28526,34.179611],[134.285231,34.17957],[134.285195,34.179519],[134.28516,34.17948],[134.285122,34.179443],[134.285069,34.179392],[134.285011,34.179348],[134.284984,34.179337],[134.284956,34.179331],[134.284927,34.17933],[134.284865,34.17934],[134.284811,34.179354],[134.284745,34.179366],[134.284687,34.179383],[134.284622,34.179404],[134.284547,34.179424],[134.284504,34.179426],[134.284463,34.179417],[134.284431,34.179404],[134.284402,34.179386],[134.284372,34.179362],[134.284341,34.17933],[134.284309,34.179293],[134.284268,34.179256],[134.284197,34.179199],[134.284112,34.179134],[134.284019,34.179061],[134.283943,34.178996],[134.283851,34.17891],[134.283777,34.178835],[134.283709,34.178768],[134.283654,34.178722],[134.283624,34.178704],[134.283605,34.178694],[134.283583,34.178689],[134.283557,34.178686],[134.283529,34.178687],[134.283503,34.178692],[134.283429,34.178709],[134.283347,34.178724],[134.283274,34.178732],[134.283205,34.178733],[134.283147,34.178724],[134.283105,34.178709],[134.28306,34.178688],[134.283018,34.178673],[134.282996,34.17867],[134.28297,34.178671],[134.282928,34.178677],[134.282892,34.178687],[134.282855,34.1787],[134.282818,34.178717],[134.282796,34.178732],[134.282748,34.178771],[134.282724,34.178787],[134.282688,34.178798],[134.282646,34.178796],[134.282598,34.178779],[134.282541,34.178753],[134.282517,34.17874],[134.282413,34.178675],[134.282363,34.178635],[134.282328,34.178601],[134.28228,34.178562],[134.282209,34.178513],[134.282139,34.17847],[134.28209,34.178447],[134.282071,34.178441],[134.282024,34.178426],[134.281957,34.178402],[134.281895,34.178373],[134.281865,34.178348],[134.281848,34.178325],[134.281839,34.178299],[134.281837,34.178274],[134.28184,34.178225],[134.281838,34.178201],[134.281829,34.178141],[134.281821,34.178115],[134.281811,34.178092],[134.281798,34.178071],[134.281762,34.178031],[134.281724,34.177996],[134.281677,34.177945],[134.281634,34.177892],[134.281601,34.177831],[134.281579,34.17777],[134.281554,34.177676],[134.281541,34.177614],[134.28154,34.177608],[134.281538,34.177597],[134.281521,34.177501],[134.281505,34.177406],[134.281489,34.177313],[134.281481,34.177267],[134.281466,34.177272],[134.281373,34.1773],[134.281285,34.17733],[134.281188,34.177363],[134.28114,34.177373],[134.281084,34.177374],[134.281039,34.177363],[134.280991,34.177346],[134.280872,34.177279],[134.280837,34.177262],[134.280801,34.17725],[134.280768,34.177242],[134.28073,34.177236],[134.280688,34.177231],[134.280601,34.177227],[134.280511,34.177232],[134.280434,34.177245],[134.280351,34.17727],[134.280272,34.177295],[134.280188,34.177318],[134.280102,34.177347],[134.280026,34.177383],[134.279943,34.177426],[134.279898,34.177443],[134.279847,34.177451],[134.279794,34.177444],[134.279753,34.177428],[134.27971,34.177404],[134.279644,34.177355],[134.279441,34.177174],[134.279427,34.177166],[134.279395,34.177157],[134.279359,34.177152],[134.279298,34.177148],[134.279235,34.177148],[134.2791,34.17715],[134.278981,34.177149],[134.278875,34.177147],[134.278769,34.177151],[134.278659,34.177154],[134.278601,34.177153],[134.278556,34.177148],[134.278496,34.177133],[134.278458,34.177116],[134.278419,34.177092],[134.278111,34.176921],[134.277992,34.176849],[134.277885,34.176779],[134.277785,34.17671],[134.27769,34.176643],[134.277607,34.176579],[134.277536,34.17652],[134.277471,34.176465],[134.2774,34.176411],[134.277322,34.176364],[134.277281,34.176346],[134.277244,34.176336],[134.277207,34.176331],[134.277172,34.176334],[134.277135,34.176345],[134.277095,34.176363],[134.276997,34.176419],[134.276878,34.176494],[134.276755,34.176576],[134.276639,34.176652],[134.276529,34.17673],[134.276418,34.17682],[134.276309,34.176918],[134.276212,34.177014],[134.276134,34.177095],[134.276071,34.177163],[134.276019,34.177222],[134.27597,34.177279],[134.275912,34.177343],[134.275834,34.17742],[134.275743,34.177507],[134.275644,34.177597],[134.275589,34.177646],[134.275545,34.177685],[134.275452,34.177771],[134.27537,34.177852],[134.275293,34.177932],[134.275219,34.178013],[134.275141,34.178095],[134.275055,34.17818],[134.274957,34.178267],[134.27486,34.178348],[134.274777,34.17842],[134.274706,34.178477],[134.274632,34.178523],[134.274588,34.178541],[134.274498,34.178579],[134.274452,34.178603],[134.274412,34.178632],[134.274376,34.178667],[134.274345,34.178708],[134.274318,34.178749],[134.27427,34.178828],[134.274225,34.178884],[134.274191,34.178932],[134.274179,34.178959],[134.274172,34.178988],[134.274169,34.179023],[134.274171,34.179095],[134.274181,34.179166],[134.274185,34.179231],[134.27418,34.179263],[134.274167,34.179296],[134.274144,34.179328],[134.274116,34.179361],[134.274051,34.179423],[134.273994,34.179473],[134.27394,34.179512],[134.273869,34.179564],[134.273764,34.179637],[134.273676,34.179698],[134.273568,34.179766],[134.273469,34.179823],[134.273366,34.179869],[134.27325,34.179902],[134.273129,34.17993],[134.273011,34.179958],[134.272903,34.179983],[134.272853,34.179989],[134.272808,34.17999],[134.272767,34.179981],[134.272729,34.179966],[134.272693,34.179944],[134.272658,34.179917],[134.272586,34.179855],[134.27251,34.179786],[134.272433,34.179727],[134.272394,34.179704],[134.272353,34.179684],[134.272312,34.179669],[134.272267,34.179657],[134.272136,34.179631],[134.272057,34.179622],[134.271995,34.17962],[134.271947,34.179624],[134.271899,34.179633],[134.271842,34.179651],[134.271761,34.179685],[134.271665,34.179729],[134.271554,34.17978],[134.271433,34.179835],[134.27131,34.179891],[134.271196,34.179943],[134.271094,34.179985],[134.271002,34.180017],[134.270958,34.180028],[134.270865,34.18004],[134.270775,34.180043],[134.270694,34.180044],[134.270611,34.180046],[134.270508,34.180047],[134.270368,34.180048],[134.27031,34.180049],[134.270215,34.18005],[134.270081,34.180052],[134.269971,34.180054],[134.269868,34.18006],[134.269754,34.180069],[134.26964,34.180083],[134.269538,34.180104],[134.269491,34.180118],[134.269449,34.180135],[134.269408,34.180157],[134.269369,34.180184],[134.26933,34.180217],[134.269256,34.180294],[134.269189,34.180374],[134.269126,34.180443],[134.269069,34.180509],[134.269043,34.180544],[134.268985,34.180619],[134.268924,34.180696],[134.26889,34.18073],[134.268817,34.180788],[134.26875,34.180845],[134.268725,34.180877],[134.268704,34.180912],[134.268678,34.180995],[134.268653,34.181081],[134.268634,34.181123],[134.268588,34.181203],[134.268538,34.181275],[134.268492,34.181337],[134.268442,34.181401],[134.268373,34.181476],[134.268286,34.181561],[134.268193,34.181642],[134.268148,34.181678],[134.268062,34.181739],[134.267975,34.181794],[134.267927,34.18182],[134.267833,34.181871],[134.267744,34.181924],[134.267665,34.181976],[134.267596,34.182018],[134.267564,34.182033],[134.26753,34.182041],[134.267495,34.182045],[134.267423,34.182049],[134.267384,34.182055],[134.26734,34.182064],[134.267294,34.182077],[134.267199,34.182112],[134.267164,34.182127],[134.267104,34.182151],[134.267018,34.18218],[134.266599,34.182483],[134.266367,34.182837],[134.266077,34.183092],[134.265787,34.183166],[134.265601,34.183113],[134.265397,34.182856],[134.265272,34.182844],[134.265109,34.182902],[134.264769,34.18309],[134.2645,34.183196],[134.264375,34.183187],[134.264057,34.182896],[134.263792,34.182828],[134.263245,34.18281],[134.262722,34.182939],[134.262081,34.182946],[134.261873,34.183093],[134.261551,34.183218],[134.261361,34.18338],[134.261138,34.183463],[134.260723,34.183409],[134.260166,34.183516],[134.25993,34.183499],[134.259861,34.183446],[134.259731,34.183297],[134.25964,34.183113],[134.25946,34.182918],[134.25847,34.182593],[134.257877,34.182341],[134.257322,34.182048],[134.257078,34.181984],[134.256695,34.182002],[134.256561,34.181864],[134.256539,34.181695],[134.256627,34.181045],[134.256661,34.180942],[134.25658,34.180848],[134.255991,34.180845],[134.255673,34.180507],[134.255204,34.180339],[134.25482,34.180077],[134.254602,34.180299],[134.254303,34.180427],[134.25391,34.180552],[134.253398,34.180669],[134.251215,34.18062],[134.250827,34.180554],[134.249668,34.180458],[134.24915,34.180375],[134.247843,34.180052],[134.247637,34.179959],[134.247396,34.179827],[134.24727,34.179721],[134.247119,34.179605],[134.247046,34.179481],[134.246991,34.179233],[134.246946,34.17909],[134.246788,34.179102],[134.246695,34.179141],[134.246596,34.179181],[134.246494,34.179216],[134.246388,34.179248],[134.246274,34.179282],[134.246153,34.179319],[134.246037,34.179363],[134.245982,34.179385],[134.245896,34.179422],[134.245871,34.179436],[134.245537,34.179636],[134.245479,34.179669],[134.245431,34.179694],[134.245382,34.179716],[134.245332,34.179734],[134.245281,34.179745],[134.245232,34.179752],[134.245182,34.179754],[134.245129,34.17975],[134.245067,34.179743],[134.244991,34.179729],[134.244916,34.179714],[134.244855,34.179704],[134.244814,34.179703],[134.244782,34.179708],[134.244754,34.179717],[134.244728,34.179729],[134.244707,34.179741],[134.244684,34.179757],[134.244657,34.179779],[134.244618,34.17981],[134.24457,34.179852],[134.244518,34.179902],[134.244461,34.179959],[134.2444,34.180025],[134.24433,34.1801],[134.244254,34.18018],[134.244174,34.180263],[134.244096,34.180344],[134.24403,34.180414],[134.243922,34.180525],[134.243793,34.180918],[134.243748,34.180927],[134.243725,34.180952],[134.243687,34.180946],[134.243645,34.180931],[134.243596,34.180905],[134.243534,34.180863],[134.24347,34.180814],[134.243411,34.180767],[134.24336,34.180724],[134.243314,34.180685],[134.243268,34.180644],[134.243226,34.180608],[134.24319,34.180579],[134.243155,34.180549],[134.243106,34.180498],[134.243029,34.180413],[134.242937,34.180312],[134.242846,34.180217],[134.242765,34.180137],[134.242695,34.180069],[134.242636,34.180006],[134.242585,34.179953],[134.242542,34.179915],[134.242501,34.17989],[134.242463,34.179875],[134.242425,34.179865],[134.242384,34.179862],[134.242333,34.179863],[134.242272,34.179869],[134.242207,34.179879],[134.242142,34.179892],[134.242079,34.179908],[134.242019,34.179923],[134.241963,34.179939],[134.241906,34.17996],[134.241847,34.179989],[134.24178,34.180028],[134.2417,34.180075],[134.241611,34.180129],[134.241524,34.180181],[134.241447,34.180225],[134.241372,34.180265],[134.24129,34.180307],[134.241197,34.180349],[134.241103,34.180389],[134.241058,34.180404],[134.240973,34.18043],[134.240896,34.180449],[134.240825,34.180459],[134.24076,34.180463],[134.240701,34.180463],[134.240648,34.180461],[134.240596,34.180458],[134.240541,34.180454],[134.240489,34.180451],[134.240445,34.180444],[134.24041,34.180434],[134.24038,34.180422],[134.240346,34.180408],[134.240309,34.180391],[134.24027,34.180367],[134.240232,34.180337],[134.240198,34.180303],[134.24017,34.180266],[134.24015,34.180229],[134.240132,34.180193],[134.240115,34.180157],[134.240102,34.180118],[134.240089,34.180073],[134.24008,34.180026],[134.24007,34.179983],[134.24006,34.179944],[134.240048,34.179911],[134.240032,34.179881],[134.240015,34.179857],[134.239993,34.179837],[134.239966,34.179821],[134.239935,34.17981],[134.239902,34.1798],[134.239865,34.179794],[134.239823,34.179791],[134.239779,34.179791],[134.239737,34.179796],[134.239697,34.179803],[134.239652,34.179817],[134.239592,34.179841],[134.239516,34.179872],[134.239437,34.179908],[134.239363,34.179941],[134.239292,34.179975],[134.239219,34.180009],[134.239142,34.180042],[134.239061,34.180075],[134.238977,34.180105],[134.238892,34.180134],[134.238809,34.180157],[134.23873,34.18018],[134.238658,34.180202],[134.23859,34.180224],[134.238528,34.180249],[134.238461,34.180279],[134.238392,34.180309],[134.238328,34.180334],[134.238273,34.18035],[134.238226,34.180358],[134.238185,34.180363],[134.238144,34.180364],[134.238089,34.18036],[134.238015,34.180348],[134.237934,34.180334],[134.237867,34.180325],[134.237819,34.180324],[134.237785,34.180329],[134.237768,34.180333],[134.237755,34.180337],[134.237721,34.180352],[134.237671,34.180381],[134.237604,34.180419],[134.237527,34.180463],[134.237449,34.180504],[134.237376,34.180541],[134.237319,34.180571],[134.237275,34.180592],[134.237235,34.18061],[134.237189,34.180622],[134.237144,34.180633],[134.237104,34.180638],[134.237069,34.180639],[134.237031,34.180636],[134.23698,34.180626],[134.236922,34.180611],[134.236865,34.180594],[134.236808,34.180576],[134.236747,34.180559],[134.236679,34.180544],[134.236606,34.18053],[134.236535,34.180515],[134.236466,34.180497],[134.23639,34.180478],[134.236303,34.180455],[134.236212,34.180431],[134.236129,34.180408],[134.236052,34.180387],[134.23598,34.180366],[134.235904,34.180342],[134.235834,34.180321],[134.235782,34.180304],[134.235744,34.18029],[134.235708,34.180271],[134.235662,34.180239],[134.235612,34.1802],[134.235561,34.180163],[134.235514,34.180128],[134.235471,34.180096],[134.235426,34.180065],[134.235382,34.180037],[134.23534,34.180012],[134.235298,34.179993],[134.235256,34.179979],[134.23521,34.179968],[134.235163,34.179962],[134.235116,34.17996],[134.235067,34.179962],[134.235012,34.17997],[134.234945,34.179985],[134.234872,34.180006],[134.234799,34.18003],[134.234719,34.18006],[134.23462,34.180106],[134.234492,34.180173],[134.234353,34.18025],[134.234226,34.180322],[134.234124,34.18038],[134.234045,34.180422],[134.233983,34.180447],[134.233933,34.18046],[134.233887,34.180468],[134.233844,34.180473],[134.233808,34.180474],[134.233781,34.180468],[134.233758,34.180457],[134.233728,34.180444],[134.23369,34.180429],[134.233653,34.180413],[134.233621,34.180397],[134.233588,34.180385],[134.233549,34.18038],[134.2335,34.180384],[134.233445,34.180393],[134.233386,34.180403],[134.233329,34.180415],[134.233275,34.18043],[134.233224,34.180448],[134.233178,34.180472],[134.233133,34.180502],[134.23309,34.180538],[134.233045,34.180578],[134.232997,34.180621],[134.232947,34.180661],[134.232895,34.180693],[134.232847,34.18072],[134.232801,34.18074],[134.232761,34.180754],[134.23272,34.180766],[134.232675,34.180774],[134.23263,34.18078],[134.232591,34.18078],[134.232559,34.180775],[134.232529,34.180766],[134.2325,34.180753],[134.232471,34.180736],[134.23244,34.180715],[134.232406,34.18069],[134.23237,34.18066],[134.232331,34.180627],[134.232285,34.180591],[134.232225,34.180549],[134.232139,34.180497],[134.232009,34.180417],[134.231827,34.180303],[134.231635,34.180181],[134.231481,34.180086],[134.231378,34.180026],[134.231299,34.179986],[134.231216,34.17995],[134.231134,34.179918],[134.231062,34.179892],[134.231,34.179874],[134.230945,34.179863],[134.230893,34.179856],[134.230843,34.179855],[134.230792,34.179858],[134.230741,34.179865],[134.230696,34.179874],[134.230658,34.179885],[134.230623,34.179903],[134.230587,34.179928],[134.230545,34.179962],[134.230501,34.179999],[134.230451,34.180039],[134.230379,34.180101],[134.230264,34.180201],[134.230114,34.18033],[134.229976,34.180451],[134.22988,34.180531],[134.229812,34.180585],[134.229746,34.180636],[134.229668,34.180694],[134.229636,34.180722],[134.229569,34.18077],[134.229493,34.180816],[134.22943,34.180848],[134.229374,34.180873],[134.229324,34.180891],[134.229274,34.180906],[134.229222,34.180919],[134.229167,34.18093],[134.229105,34.18094],[134.229037,34.180948],[134.228965,34.180955],[134.228895,34.18096],[134.228826,34.180961],[134.228759,34.180961],[134.228691,34.180957],[134.228617,34.180952],[134.228539,34.180944],[134.228458,34.180932],[134.228378,34.180917],[134.228298,34.180897],[134.228221,34.180875],[134.228149,34.180853],[134.228083,34.180833],[134.228025,34.180814],[134.227973,34.180795],[134.227929,34.180772],[134.227889,34.180743],[134.227857,34.180711],[134.227829,34.180678],[134.227807,34.180648],[134.22779,34.180619],[134.227777,34.180592],[134.227769,34.180566],[134.227763,34.180539],[134.22776,34.180508],[134.227759,34.180469],[134.22776,34.180416],[134.22776,34.18035],[134.227761,34.180275],[134.22776,34.180197],[134.227757,34.180116],[134.227753,34.180038],[134.227748,34.17996],[134.227744,34.179887],[134.227739,34.179815],[134.227736,34.17975],[134.227734,34.179692],[134.227732,34.17964],[134.227733,34.179596],[134.227736,34.179558],[134.227742,34.179526],[134.22775,34.179495],[134.227761,34.179465],[134.227776,34.179432],[134.227792,34.179393],[134.22781,34.179352],[134.227826,34.179311],[134.227837,34.179273],[134.227842,34.17924],[134.227843,34.179208],[134.227838,34.179176],[134.227828,34.17914],[134.227815,34.179101],[134.227796,34.179058],[134.227773,34.179011],[134.227745,34.178959],[134.227711,34.178904],[134.22767,34.178848],[134.227622,34.178787],[134.227572,34.178726],[134.22752,34.17866],[134.227474,34.17859],[134.227431,34.178517],[134.227392,34.178444],[134.227354,34.178377],[134.227313,34.178316],[134.227271,34.178262],[134.227225,34.178213],[134.227175,34.178168],[134.227121,34.178126],[134.227066,34.178089],[134.227014,34.17806],[134.226964,34.178038],[134.226916,34.178023],[134.226865,34.178016],[134.226807,34.178015],[134.226742,34.178021],[134.226673,34.178033],[134.226603,34.178053],[134.226532,34.178079],[134.226465,34.178112],[134.226399,34.178151],[134.226337,34.178196],[134.226276,34.178243],[134.226218,34.178291],[134.226166,34.178337],[134.226116,34.178377],[134.226072,34.178413],[134.226036,34.178447],[134.22601,34.178479],[134.225993,34.178512],[134.225981,34.178548],[134.225973,34.178592],[134.225964,34.178641],[134.225957,34.178695],[134.225949,34.17875],[134.225941,34.178801],[134.225931,34.178846],[134.225919,34.178886],[134.225903,34.178921],[134.22588,34.178952],[134.225853,34.178981],[134.22582,34.179009],[134.225782,34.179037],[134.22574,34.179066],[134.225693,34.179095],[134.225643,34.179125],[134.225589,34.179152],[134.225535,34.179177],[134.22548,34.179202],[134.225426,34.179224],[134.225373,34.179245],[134.225321,34.179264],[134.225271,34.17928],[134.22522,34.179295],[134.225171,34.179311],[134.225119,34.179333],[134.225064,34.179362],[134.225006,34.179399],[134.22495,34.179439],[134.224898,34.17948],[134.224849,34.179516],[134.224802,34.179551],[134.22475,34.179583],[134.224688,34.179616],[134.224614,34.179649],[134.224525,34.179684],[134.224421,34.17972],[134.224302,34.179755],[134.224179,34.179792],[134.224061,34.17983],[134.22396,34.179867],[134.223918,34.179887],[134.223845,34.179923],[134.223783,34.179958],[134.223727,34.179989],[134.223672,34.180017],[134.223614,34.18004],[134.22355,34.180057],[134.223476,34.180067],[134.223401,34.180069],[134.223332,34.180062],[134.223301,34.180055],[134.223251,34.180033],[134.223231,34.180019],[134.223195,34.179985],[134.223158,34.179947],[134.223116,34.179906],[134.223067,34.179864],[134.223012,34.179822],[134.222953,34.179778],[134.22289,34.179735],[134.222828,34.179692],[134.222771,34.179648],[134.22272,34.179603],[134.222678,34.179561],[134.22264,34.179523],[134.222606,34.179491],[134.222574,34.179467],[134.222543,34.179448],[134.222514,34.179432],[134.222484,34.179418],[134.222454,34.179408],[134.222428,34.1794],[134.222406,34.179396],[134.222389,34.179397],[134.222371,34.179402],[134.22235,34.179411],[134.222321,34.179423],[134.222281,34.17944],[134.222225,34.179467],[134.222149,34.179503],[134.222057,34.17955],[134.22196,34.1796],[134.22187,34.179648],[134.221795,34.179689],[134.221731,34.179726],[134.221669,34.179764],[134.221598,34.179807],[134.221522,34.179853],[134.221493,34.179869],[134.221444,34.179898],[134.221373,34.179934],[134.221312,34.179958],[134.221257,34.179973],[134.221199,34.179984],[134.221129,34.179997],[134.221046,34.180011],[134.220956,34.180024],[134.220864,34.180031],[134.220818,34.18003],[134.220729,34.180023],[134.220687,34.180016],[134.220603,34.180001],[134.220523,34.179981],[134.220447,34.179961],[134.220378,34.179938],[134.22032,34.179913],[134.220275,34.179885],[134.220238,34.179851],[134.220224,34.179832],[134.220197,34.179784],[134.220169,34.179724],[134.220142,34.179655],[134.220115,34.179585],[134.220085,34.179517],[134.220054,34.179454],[134.220024,34.179396],[134.219995,34.17934],[134.219969,34.179286],[134.219943,34.179236],[134.219912,34.17919],[134.219876,34.179149],[134.219829,34.179111],[134.21977,34.179074],[134.219697,34.179035],[134.219608,34.17899],[134.21951,34.178941],[134.21941,34.17889],[134.219313,34.178837],[134.219224,34.178785],[134.219143,34.178735],[134.21907,34.178686],[134.219003,34.178639],[134.21894,34.178593],[134.218878,34.178546],[134.218812,34.178496],[134.218744,34.178444],[134.218677,34.178396],[134.218617,34.178357],[134.218566,34.178329],[134.218522,34.178313],[134.218482,34.178305],[134.218441,34.178301],[134.218396,34.1783],[134.218351,34.178299],[134.218306,34.1783],[134.218262,34.1783],[134.218217,34.178297],[134.218174,34.178289],[134.218129,34.178274],[134.218084,34.178253],[134.218042,34.178228],[134.218007,34.178204],[134.217979,34.178181],[134.217955,34.178163],[134.217926,34.178148],[134.21789,34.17814],[134.217842,34.178135],[134.21779,34.178135],[134.217739,34.178134],[134.217691,34.178132],[134.217647,34.178128],[134.217608,34.17812],[134.217572,34.178108],[134.217539,34.178089],[134.217506,34.178063],[134.217474,34.17803],[134.217451,34.178001],[134.217441,34.177987],[134.217408,34.177941],[134.217374,34.177898],[134.217337,34.177862],[134.2173,34.177837],[134.217265,34.177816],[134.217239,34.177799],[134.217221,34.17778],[134.217217,34.17777],[134.217211,34.177749],[134.217212,34.177724],[134.217214,34.177695],[134.217217,34.177667],[134.217222,34.177638],[134.21723,34.177612],[134.217235,34.177588],[134.217236,34.177568],[134.217226,34.177551],[134.217202,34.177534],[134.217165,34.177521],[134.217118,34.177512],[134.217063,34.177508],[134.217003,34.177509],[134.216945,34.177513],[134.216894,34.177517],[134.216853,34.177517],[134.216823,34.177514],[134.2168,34.177505],[134.216785,34.17749],[134.216773,34.177467],[134.216766,34.177439],[134.216764,34.17741],[134.216765,34.177377],[134.216769,34.177346],[134.216773,34.177318],[134.216777,34.177295],[134.216781,34.177276],[134.216783,34.177258],[134.216786,34.177236],[134.216787,34.177208],[134.216784,34.177176],[134.216769,34.177145],[134.216757,34.17713],[134.216739,34.177116],[134.216693,34.177094],[134.216637,34.177077],[134.216581,34.177069],[134.216527,34.177067],[134.216476,34.177067],[134.216425,34.17706],[134.216399,34.177052],[134.216371,34.17704],[134.216344,34.177023],[134.216291,34.176985],[134.216241,34.176943],[134.216199,34.176904],[134.216165,34.17687],[134.216134,34.17684],[134.216103,34.176809],[134.216066,34.176776],[134.216027,34.176743],[134.215986,34.176712],[134.215943,34.176686],[134.215898,34.176665],[134.215872,34.176658],[134.215811,34.176649],[134.215776,34.176647],[134.215688,34.176648],[134.215587,34.176654],[134.21548,34.176662],[134.215371,34.17667],[134.215267,34.176676],[134.215169,34.176679],[134.215074,34.176676],[134.214984,34.176665],[134.214897,34.17665],[134.214808,34.176634],[134.214715,34.176618],[134.214614,34.176604],[134.214506,34.176587],[134.214391,34.176564],[134.214329,34.176548],[134.214204,34.176513],[134.214081,34.176476],[134.213968,34.17644],[134.213867,34.17641],[134.213775,34.176386],[134.213684,34.176363],[134.213585,34.176339],[134.213475,34.176313],[134.21336,34.176285],[134.213327,34.176277],[134.213292,34.176269],[134.213197,34.176244],[134.213103,34.176215],[134.213006,34.176178],[134.212909,34.176139],[134.212811,34.1761],[134.212714,34.176066],[134.212616,34.176037],[134.21252,34.17601],[134.212428,34.175981],[134.212339,34.175949],[134.212254,34.175915],[134.212174,34.175885],[134.2121,34.175862],[134.212031,34.175846],[134.211964,34.175829],[134.211896,34.175807],[134.211825,34.175774],[134.211756,34.175734],[134.21169,34.175694],[134.21163,34.175659],[134.211577,34.175629],[134.211522,34.175605],[134.21146,34.175585],[134.211385,34.175565],[134.211304,34.175548],[134.21122,34.175533],[134.211141,34.175523],[134.211068,34.175513],[134.211004,34.175504],[134.210947,34.17549],[134.210894,34.17547],[134.210843,34.175446],[134.210786,34.175421],[134.210717,34.175398],[134.210636,34.175378],[134.210554,34.175362],[134.210479,34.17535],[134.210414,34.17534],[134.210344,34.175331],[134.210251,34.175315],[134.210113,34.175291],[134.209928,34.175255],[134.209711,34.175213],[134.209479,34.175167],[134.20891,34.175029],[134.208861,34.175018],[134.208844,34.174939],[134.208829,34.174859],[134.208814,34.174779],[134.208801,34.174698],[134.20879,34.174616],[134.208786,34.17453],[134.208791,34.174443],[134.208806,34.174351],[134.208819,34.174306],[134.208853,34.174222],[134.208876,34.174185],[134.208902,34.174153],[134.208932,34.174125],[134.208963,34.174103],[134.209032,34.174067],[134.209102,34.174039],[134.209137,34.174026],[134.209198,34.173996],[134.209256,34.173963],[134.209314,34.173926],[134.209377,34.173884],[134.209444,34.173838],[134.209511,34.173783],[134.209541,34.173753],[134.209569,34.173721],[134.209614,34.173647],[134.209695,34.173538],[134.209717,34.173502],[134.209722,34.173483],[134.209712,34.173456],[134.209683,34.173402],[134.209661,34.173377],[134.209602,34.173327],[134.209541,34.173278],[134.209517,34.173252],[134.209499,34.173225],[134.209491,34.173195],[134.209494,34.173163],[134.209508,34.173128],[134.209529,34.173092],[134.209585,34.173022],[134.209644,34.172958],[134.209689,34.172905],[134.209729,34.17286],[134.209771,34.172818],[134.209828,34.172773],[134.209903,34.172727],[134.209947,34.172703],[134.209997,34.172681],[134.21005,34.172662],[134.210107,34.172645],[134.210168,34.17263],[134.210297,34.172607],[134.210431,34.172588],[134.210557,34.172567],[134.210672,34.172538],[134.21079,34.172498],[134.210927,34.172446],[134.211099,34.172378],[134.211304,34.172295],[134.211517,34.172204],[134.211716,34.17211],[134.211883,34.172016],[134.212026,34.171922],[134.212161,34.171825],[134.212301,34.171722],[134.212448,34.171615],[134.212586,34.171517],[134.212704,34.171438],[134.212791,34.171382],[134.212854,34.171341],[134.212908,34.171301],[134.212936,34.171276],[134.212995,34.171212],[134.213059,34.171136],[134.213281,34.170856],[134.213354,34.170764],[134.213394,34.170697],[134.213427,34.170646],[134.213455,34.170599],[134.213483,34.170544],[134.213511,34.170482],[134.21354,34.170411],[134.213567,34.170338],[134.213598,34.170273],[134.213631,34.170225],[134.213669,34.170184],[134.21371,34.17014],[134.213755,34.170089],[134.213809,34.170032],[134.213868,34.169973],[134.213933,34.169915],[134.213982,34.169873],[134.214017,34.16984],[134.214061,34.169802],[134.214121,34.169747],[134.214191,34.169685],[134.214256,34.169626],[134.214315,34.169573],[134.214369,34.169525],[134.214424,34.169476],[134.214483,34.169429],[134.214542,34.169383],[134.214604,34.169337],[134.214674,34.16929],[134.214751,34.169239],[134.214828,34.169189],[134.214889,34.169144],[134.21494,34.169103],[134.214996,34.169056],[134.215064,34.168999],[134.215068,34.168996],[134.215145,34.168936],[134.215208,34.168891],[134.215252,34.168865],[134.215273,34.168856],[134.215319,34.168845],[134.215377,34.168836],[134.215445,34.168825],[134.21552,34.168808],[134.215597,34.168789],[134.215664,34.168769],[134.215721,34.168749],[134.215772,34.168726],[134.215818,34.168696],[134.215864,34.16866],[134.215914,34.168618],[134.215966,34.168572],[134.216017,34.168523],[134.216067,34.168471],[134.216115,34.168421],[134.216165,34.168372],[134.216214,34.168325],[134.216261,34.168281],[134.216304,34.168237],[134.216347,34.168194],[134.216397,34.168147],[134.216451,34.168097],[134.216499,34.16805],[134.216536,34.168007],[134.216573,34.167967],[134.216625,34.167926],[134.216691,34.16788],[134.216761,34.167835],[134.216822,34.167792],[134.216877,34.167749],[134.216932,34.167706],[134.216986,34.16766],[134.217039,34.167613],[134.217088,34.167562],[134.217136,34.167511],[134.217181,34.167463],[134.217224,34.167415],[134.217265,34.167368],[134.217303,34.16732],[134.21734,34.16727],[134.217377,34.167212],[134.217411,34.167149],[134.217441,34.167087],[134.217462,34.167029],[134.217479,34.166975],[134.217493,34.166917],[134.217503,34.166857],[134.217514,34.166797],[134.217522,34.166739],[134.217537,34.166688],[134.217549,34.166664],[134.217565,34.166642],[134.217585,34.166621],[134.21763,34.166585],[134.217675,34.166554],[134.217719,34.166527],[134.217767,34.166504],[134.217822,34.166481],[134.217883,34.166463],[134.217944,34.166454],[134.218,34.166452],[134.218052,34.166451],[134.218096,34.166445],[134.218135,34.166433],[134.218155,34.166425],[134.21819,34.166401],[134.218225,34.166373],[134.21826,34.166341],[134.218298,34.166307],[134.218337,34.166268],[134.218375,34.166223],[134.218416,34.166179],[134.218456,34.166143],[134.218495,34.166114],[134.218533,34.166094],[134.218569,34.166077],[134.218609,34.166059],[134.218656,34.166035],[134.218711,34.166007],[134.218768,34.16598],[134.218822,34.16596],[134.218874,34.165946],[134.218924,34.165935],[134.218973,34.165926],[134.219021,34.165918],[134.219071,34.165909],[134.219119,34.165901],[134.219161,34.165891],[134.219199,34.165878],[134.219237,34.165861],[134.219276,34.165837],[134.219319,34.165808],[134.219361,34.165775],[134.219405,34.16574],[134.21945,34.165702],[134.219497,34.165663],[134.219543,34.165626],[134.219585,34.165593],[134.219624,34.165563],[134.219662,34.165533],[134.219704,34.165496],[134.219756,34.165453],[134.219821,34.165401],[134.219893,34.165345],[134.219959,34.165295],[134.220007,34.165258],[134.220046,34.165226],[134.220089,34.165186],[134.220136,34.165135],[134.220177,34.165082],[134.220203,34.165029],[134.220221,34.164981],[134.22024,34.164936],[134.220263,34.164893],[134.220291,34.164846],[134.22032,34.164792],[134.220348,34.164738],[134.220371,34.16469],[134.22039,34.16465],[134.22041,34.164616],[134.220432,34.164582],[134.220486,34.164514],[134.220517,34.16446],[134.220567,34.164349],[134.22063,34.164204],[134.220688,34.16406],[134.220741,34.163924],[134.220791,34.163812],[134.220836,34.163734],[134.220884,34.163658],[134.220758,34.16345],[134.220702,34.163357],[134.220599,34.1627],[134.220582,34.162482],[134.220799,34.161424],[134.220917,34.161005],[134.221419,34.159174],[134.221601,34.158505],[134.221694,34.157849],[134.22173,34.157063],[134.221537,34.155741],[134.221469,34.155191],[134.221205,34.154637],[134.219134,34.152874],[134.21818,34.152125],[134.217624,34.151919],[134.217139,34.151754],[134.217036,34.151521],[134.217207,34.150841],[134.217407,34.150111],[134.217694,34.149175],[134.217953,34.147981],[134.218045,34.147325],[134.218172,34.146463],[134.218246,34.145575],[134.218157,34.145167],[134.218157,34.144875],[134.21777,34.142959],[134.217622,34.142153],[134.217375,34.141585],[134.217211,34.141217],[134.217269,34.140949],[134.217432,34.140617],[134.21714,34.139944],[134.216832,34.139334],[134.216145,34.138451],[134.215708,34.137776],[134.21532,34.137376],[134.214958,34.137151],[134.214795,34.136901],[134.213548,34.135869],[134.213184,34.135704],[134.21249,34.134636],[134.211472,34.133762],[134.211358,34.133685],[134.211133,34.133301],[134.211221,34.132601],[134.211487,34.131799],[134.211588,34.131462],[134.211744,34.130701],[134.21174,34.130152],[134.211643,34.129144],[134.211565,34.128909],[134.211497,34.128797],[134.210814,34.127856],[134.210688,34.127506],[134.210674,34.127468],[134.210791,34.126383],[134.210809,34.125348],[134.210796,34.124802],[134.210674,34.124066],[134.21053,34.123334],[134.210467,34.122846],[134.210385,34.122326],[134.210322,34.12187],[134.210202,34.120848],[134.210092,34.12043],[134.209877,34.120013],[134.209498,34.119068],[134.2092,34.118299],[134.208746,34.117528],[134.208534,34.117211],[134.209246,34.116512],[134.209334,34.116287],[134.20936,34.115924],[134.20908,34.115507],[134.208507,34.11497],[134.207556,34.113952],[134.206191,34.112825],[134.205789,34.112495],[134.205664,34.112341],[134.20553,34.112216],[134.205168,34.111581],[134.205034,34.11122],[134.204851,34.110597],[134.204713,34.110353],[134.204568,34.110209],[134.204355,34.110022],[134.204076,34.109865],[134.203647,34.109617],[134.203621,34.10957],[134.20365,34.109482],[134.203653,34.109369],[134.203622,34.109309],[134.203519,34.109187],[134.203371,34.109022],[134.203256,34.108831],[134.203161,34.10875],[134.20302,34.108688],[134.202808,34.108611],[134.202624,34.10846],[134.202485,34.108404],[134.202127,34.108247],[134.201823,34.108167],[134.20168,34.108116],[134.201541,34.10805],[134.201447,34.107936],[134.201325,34.107766],[134.20121,34.107598],[134.200869,34.107329],[134.200582,34.107179],[134.200359,34.107147],[134.200096,34.107148],[134.199576,34.107266],[134.199295,34.107283],[134.199139,34.107235],[134.199112,34.10722],[134.199013,34.107166],[134.198851,34.107003],[134.198537,34.106701],[134.198117,34.106033],[134.197954,34.1057],[134.197869,34.105175],[134.197828,34.104448],[134.197547,34.10399],[134.197186,34.103407],[134.196959,34.102867],[134.196699,34.102131],[134.196561,34.101665],[134.196406,34.101162],[134.196227,34.100581],[134.19617,34.100181],[134.196255,34.099603],[134.196448,34.099275],[134.196226,34.099144],[134.195956,34.099029],[134.195675,34.098915],[134.195276,34.098711],[134.194822,34.098468],[134.194377,34.098224],[134.194132,34.098091],[134.193481,34.097577],[134.19269,34.096839],[134.191961,34.095761],[134.19174,34.09534],[134.191546,34.094831],[134.191219,34.094172],[134.191104,34.093823],[134.190976,34.093566],[134.190958,34.093529],[134.190642,34.093443],[134.190307,34.093439],[134.190304,34.093438],[134.189873,34.09339],[134.189439,34.093378],[134.18893,34.09334],[134.188604,34.093281],[134.188291,34.09323],[134.187973,34.093104],[134.187618,34.092901],[134.187335,34.09257],[134.187227,34.092466],[134.187004,34.092252],[134.186644,34.092131],[134.18643,34.092115],[134.186247,34.092038],[134.185892,34.091854],[134.185668,34.091689],[134.185465,34.091299],[134.185204,34.091017],[134.184929,34.090559],[134.184834,34.090452],[134.184716,34.090394],[134.184481,34.090395],[134.184263,34.090362],[134.183975,34.090349],[134.183704,34.090338],[134.183684,34.090337],[134.18354,34.090332],[134.183422,34.090313],[134.182949,34.090231],[134.182673,34.090048],[134.182409,34.089718],[134.182102,34.089298],[134.18184,34.088855],[134.181625,34.0884],[134.181231,34.088154],[134.18079,34.087911],[134.180325,34.087567],[134.180084,34.087376],[134.179983,34.087234],[134.179857,34.086988],[134.179781,34.08679],[134.179715,34.086481],[134.179651,34.086251],[134.179509,34.085859],[134.179501,34.085838],[134.179418,34.085674],[134.1793,34.085366],[134.179293,34.085197],[134.179342,34.085159],[134.179357,34.085125],[134.179384,34.084223],[134.179308,34.084214],[134.179327,34.083955],[134.179315,34.083864],[134.179246,34.083754],[134.179044,34.08308],[134.178886,34.082438],[134.17887,34.082363],[134.178883,34.082261],[134.178981,34.081792],[134.17906,34.081542],[134.179257,34.08107],[134.179378,34.080714],[134.179446,34.080607],[134.179612,34.080344],[134.179663,34.080202],[134.179696,34.080061],[134.179899,34.079662],[134.179928,34.079524],[134.179908,34.079381],[134.1799,34.079323],[134.179868,34.079154],[134.179883,34.079056],[134.179946,34.078911],[134.179991,34.078683],[134.180087,34.078153],[134.180246,34.077672],[134.180379,34.077329],[134.180472,34.077203],[134.180787,34.076877],[134.180908,34.076712],[134.180954,34.076644],[134.180977,34.076578],[134.180978,34.076575],[134.181014,34.076461],[134.181068,34.076109],[134.181267,34.07558],[134.181459,34.075151],[134.181467,34.075074],[134.181392,34.0749],[134.181285,34.074709],[134.181072,34.074477],[134.181005,34.074429],[134.18101,34.074055],[134.181018,34.073878],[134.181089,34.07378],[134.181313,34.073496],[134.181603,34.073147],[134.181713,34.073001],[134.181773,34.072912],[134.181978,34.072625],[134.182045,34.072474],[134.182048,34.072358],[134.182009,34.072207],[134.182034,34.071981],[134.182149,34.071761],[134.182286,34.071613],[134.182295,34.071603],[134.182396,34.071536],[134.182462,34.071489],[134.182714,34.07137],[134.183127,34.071174],[134.183549,34.070952],[134.183934,34.070692],[134.184151,34.070506],[134.184342,34.070448],[134.184491,34.070284],[134.184837,34.069877],[134.184926,34.069753],[134.184972,34.069629],[134.184997,34.069561],[134.185013,34.069472],[134.184999,34.069379],[134.184956,34.069287],[134.184835,34.06916],[134.184813,34.069113],[134.184808,34.06901],[134.184858,34.06885],[134.184995,34.068333],[134.185049,34.068102],[134.185099,34.067976],[134.185193,34.067743],[134.185287,34.067559],[134.185206,34.067519],[134.185248,34.067402],[134.185356,34.067056],[134.185447,34.066781],[134.185473,34.066709],[134.185558,34.066436],[134.185605,34.066153],[134.185903,34.065156],[134.186068,34.064632],[134.186161,34.064378],[134.186232,34.064051],[134.186299,34.063745],[134.186957,34.063842],[134.187688,34.06399],[134.188534,34.064173],[134.189561,34.064326],[134.190882,34.064528],[134.191424,34.064611],[134.192846,34.064844],[134.193441,34.064936],[134.194021,34.065038],[134.194124,34.065044],[134.194484,34.065065],[134.194939,34.065103],[134.196202,34.065219],[134.197126,34.065239],[134.19739,34.06525],[134.19742,34.065252],[134.197535,34.065261],[134.198144,34.065311],[134.198198,34.065316],[134.199041,34.065385],[134.199206,34.065399],[134.199843,34.065428],[134.200186,34.065451],[134.200398,34.065459],[134.201515,34.065504],[134.203843,34.065618],[134.204375,34.065658],[134.204637,34.065677],[134.204788,34.065689],[134.20588,34.065771],[134.206638,34.065798],[134.206846,34.065804],[134.208216,34.065847],[134.208706,34.065887],[134.209456,34.065906],[134.210384,34.065928],[134.211147,34.065963],[134.211189,34.065965],[134.213006,34.066068],[134.21525,34.066142],[134.216518,34.066206],[134.216947,34.066218],[134.217234,34.066227],[134.218875,34.0663],[134.221034,34.066399],[134.223839,34.066504],[134.224251,34.066511],[134.224438,34.066516],[134.225902,34.066542],[134.226042,34.066548],[134.226187,34.066562],[134.226306,34.06659],[134.226414,34.066614],[134.2265,34.066634],[134.22727,34.066806],[134.22771,34.066924],[134.229079,34.067289],[134.230769,34.067682],[134.231583,34.067875],[134.231676,34.067897],[134.231949,34.067962],[134.231978,34.067968],[134.23443,34.068494],[134.235779,34.068794],[134.235953,34.068836],[134.237195,34.069135],[134.237331,34.06918],[134.2382,34.069433],[134.238644,34.069562],[134.240752,34.070162],[134.241049,34.070246]]]},"properties":{"code":"36206","name":"阿波市"}}]}