{"type":"FeatureCollection","features":[{"type":"Feature","geometry":{"type":"Polygon","coordinates":[[[134.444078,33.889908],[134.444127,33.889913],[134.444207,33.889925],[134.444265,33.889939],[134.444331,33.889963],[134.444402,33.889996],[134.444474,33.890035],[134.444542,33.890076],[134.44465,33.890151],[134.444688,33.890184],[134.444719,33.890215],[134.444742,33.890245],[134.444763,33.890278],[134.444797,33.890351],[134.444831,33.890435],[134.444872,33.890523],[134.44492,33.890613],[134.444976,33.8907],[134.445036,33.890781],[134.445107,33.890865],[134.445194,33.890962],[134.445294,33.891065],[134.445388,33.891153],[134.445426,33.891185],[134.445461,33.89121],[134.445532,33.891254],[134.445618,33.891311],[134.445719,33.891384],[134.44581,33.891459],[134.445871,33.891521],[134.445917,33.891577],[134.445968,33.891636],[134.446034,33.891703],[134.446088,33.891771],[134.446173,33.891879],[134.446211,33.891912],[134.446263,33.891944],[134.44632,33.891985],[134.446348,33.892011],[134.446372,33.892041],[134.446394,33.892077],[134.446436,33.892162],[134.44648,33.892262],[134.446593,33.892455],[134.446599,33.892467],[134.446615,33.892496],[134.446622,33.892507],[134.446641,33.892519],[134.446667,33.892527],[134.446692,33.892534],[134.4468,33.892559],[134.446878,33.892571],[134.446934,33.892573],[134.446993,33.89258],[134.447056,33.892595],[134.447121,33.892619],[134.447196,33.892665],[134.447229,33.892693],[134.447289,33.892761],[134.447329,33.892797],[134.447382,33.892836],[134.447495,33.892915],[134.447535,33.892953],[134.447589,33.893018],[134.447633,33.893071],[134.447677,33.893122],[134.447703,33.893151],[134.44778,33.89322],[134.447867,33.893291],[134.447914,33.893342],[134.447938,33.893379],[134.447956,33.893423],[134.447965,33.893496],[134.447967,33.893543],[134.447962,33.893653],[134.447962,33.893749],[134.44797,33.893822],[134.447976,33.893897],[134.447989,33.893961],[134.448,33.893988],[134.448034,33.894047],[134.448085,33.894124],[134.448139,33.894224],[134.448186,33.894318],[134.448225,33.894403],[134.448256,33.8945],[134.44828,33.894591],[134.448288,33.894628],[134.4483,33.894685],[134.448318,33.894803],[134.448333,33.894898],[134.44834,33.894931],[134.448364,33.894991],[134.448384,33.895028],[134.448458,33.895125],[134.448553,33.895236],[134.448632,33.895324],[134.448719,33.895405],[134.448813,33.89548],[134.448881,33.895531],[134.448927,33.895564],[134.448956,33.895592],[134.448967,33.895627],[134.44898,33.895677],[134.448997,33.895752],[134.449009,33.895853],[134.449019,33.895941],[134.449037,33.896008],[134.44905,33.896044],[134.449068,33.89608],[134.449094,33.896114],[134.449125,33.896147],[134.449213,33.896212],[134.449316,33.896293],[134.449366,33.896333],[134.449446,33.896407],[134.449476,33.896439],[134.449515,33.896497],[134.449542,33.896548],[134.449553,33.89658],[134.449561,33.896626],[134.449568,33.896764],[134.449573,33.896875],[134.44958,33.896913],[134.44959,33.89694],[134.449615,33.897004],[134.449671,33.897113],[134.449696,33.897151],[134.449753,33.897212],[134.449833,33.897295],[134.449926,33.897393],[134.449976,33.897445],[134.450098,33.897557],[134.45022,33.897666],[134.450308,33.897751],[134.45036,33.897796],[134.450425,33.897848],[134.450556,33.897942],[134.450594,33.897965],[134.450671,33.897998],[134.450818,33.89806],[134.450903,33.8981],[134.450939,33.898118],[134.450973,33.898144],[134.450985,33.898164],[134.451034,33.898254],[134.45109,33.898352],[134.451135,33.898426],[134.451147,33.898448],[134.451162,33.898465],[134.451185,33.898485],[134.451223,33.898511],[134.451274,33.89854],[134.451332,33.898569],[134.451451,33.898614],[134.451539,33.898651],[134.451636,33.898691],[134.451707,33.898718],[134.451807,33.898753],[134.451916,33.898787],[134.452023,33.898828],[134.452128,33.898869],[134.452235,33.898904],[134.452306,33.898925],[134.452391,33.898952],[134.452426,33.898963],[134.452459,33.898976],[134.452523,33.89901],[134.452542,33.899022],[134.452562,33.899042],[134.452569,33.899053],[134.452574,33.899069],[134.452573,33.899091],[134.452561,33.899119],[134.452521,33.899191],[134.452468,33.899273],[134.452445,33.899321],[134.452424,33.899373],[134.452391,33.899476],[134.452377,33.899521],[134.452366,33.899562],[134.45236,33.899607],[134.452359,33.899657],[134.452362,33.89971],[134.45238,33.899808],[134.452403,33.899909],[134.452417,33.900035],[134.452427,33.900138],[134.45243,33.900175],[134.45243,33.900215],[134.452424,33.900261],[134.452412,33.900315],[134.452397,33.900369],[134.452353,33.900467],[134.452333,33.900517],[134.452317,33.900572],[134.452309,33.900627],[134.452308,33.900682],[134.452314,33.900728],[134.452341,33.900826],[134.452373,33.900947],[134.452406,33.901062],[134.452437,33.901151],[134.452466,33.901228],[134.45247,33.90129],[134.452464,33.901357],[134.452453,33.901425],[134.452403,33.90164],[134.452388,33.901723],[134.452336,33.901908],[134.452277,33.902104],[134.452252,33.902199],[134.452232,33.90229],[134.452207,33.90246],[134.452186,33.902627],[134.452156,33.902798],[134.452126,33.902967],[134.452116,33.903049],[134.452111,33.903126],[134.452109,33.9032],[134.452115,33.903346],[134.452124,33.903492],[134.452132,33.903635],[134.452137,33.90376],[134.452135,33.903853],[134.452128,33.903893],[134.452114,33.903934],[134.452094,33.903977],[134.452028,33.904076],[134.451945,33.90418],[134.451866,33.904271],[134.451797,33.90435],[134.451729,33.904431],[134.451659,33.904525],[134.451599,33.904627],[134.451577,33.904676],[134.451563,33.904723],[134.451556,33.904769],[134.451556,33.904815],[134.451562,33.904863],[134.451588,33.904972],[134.45163,33.905098],[134.451677,33.905235],[134.451722,33.905374],[134.451771,33.90551],[134.451825,33.905634],[134.451888,33.905743],[134.451924,33.905794],[134.451963,33.905842],[134.452005,33.905888],[134.452054,33.905936],[134.452095,33.905975],[134.452227,33.906102],[134.452278,33.906153],[134.452322,33.906203],[134.452365,33.906257],[134.452407,33.906316],[134.452446,33.906381],[134.452484,33.906449],[134.452517,33.906517],[134.452565,33.906642],[134.452576,33.906693],[134.452582,33.906737],[134.452587,33.906821],[134.452602,33.906919],[134.452632,33.907035],[134.452665,33.907151],[134.452687,33.907252],[134.452693,33.907299],[134.452694,33.907344],[134.45269,33.90739],[134.452664,33.907487],[134.452637,33.907591],[134.452631,33.907645],[134.452632,33.9077],[134.452639,33.907757],[134.452657,33.907873],[134.452663,33.907932],[134.452662,33.907991],[134.452656,33.908051],[134.452644,33.908109],[134.452606,33.908225],[134.452581,33.90828],[134.452527,33.908381],[134.45247,33.90846],[134.452444,33.908489],[134.452406,33.908529],[134.4524,33.908545],[134.452404,33.90856],[134.452421,33.908574],[134.452448,33.90859],[134.452482,33.908604],[134.452519,33.908616],[134.452557,33.908626],[134.452626,33.908636],[134.452702,33.908644],[134.452799,33.908663],[134.452921,33.908693],[134.453048,33.908735],[134.453166,33.908785],[134.453221,33.908813],[134.453276,33.908843],[134.45338,33.90891],[134.453478,33.90898],[134.453563,33.909045],[134.453625,33.909097],[134.453647,33.909121],[134.45366,33.909144],[134.453664,33.909171],[134.453658,33.909199],[134.453646,33.909228],[134.453604,33.909291],[134.453558,33.909351],[134.45351,33.909409],[134.453452,33.909476],[134.453372,33.909556],[134.453285,33.90964],[134.453201,33.909713],[134.453125,33.909772],[134.45305,33.90982],[134.452973,33.909859],[134.452888,33.909896],[134.452783,33.909995],[134.452744,33.910051],[134.452712,33.91014],[134.452516,33.910141],[134.452309,33.910176],[134.451945,33.910258],[134.451786,33.910317],[134.451547,33.910482],[134.451491,33.910501],[134.451429,33.910502],[134.450985,33.910403],[134.450901,33.910413],[134.450818,33.910437],[134.450502,33.910539],[134.450267,33.910597],[134.450043,33.910622],[134.449455,33.910678],[134.449109,33.910756],[134.449042,33.910789],[134.449015,33.910845],[134.44905,33.911045],[134.449097,33.911166],[134.449215,33.911245],[134.449316,33.911286],[134.449623,33.911337],[134.449752,33.911369],[134.449865,33.911433],[134.450035,33.9116],[134.450201,33.911666],[134.450842,33.911876],[134.450916,33.911936],[134.45094,33.912151],[134.45093,33.912216],[134.450785,33.912537],[134.45078,33.912616],[134.45082,33.9127],[134.450914,33.9128],[134.451038,33.912897],[134.451112,33.912989],[134.45125,33.913273],[134.451268,33.913357],[134.45126,33.913415],[134.451194,33.913546],[134.451184,33.913672],[134.451226,33.913882],[134.451336,33.914189],[134.451349,33.914334],[134.451314,33.914523],[134.451429,33.914718],[134.451429,33.91476],[134.45136,33.914894],[134.451367,33.914968],[134.451407,33.915033],[134.451549,33.915182],[134.451646,33.915381],[134.451726,33.915479],[134.451826,33.915554],[134.451943,33.915673],[134.452021,33.915724],[134.452051,33.915745],[134.452115,33.915766],[134.45219,33.915762],[134.452351,33.915696],[134.452788,33.915379],[134.452988,33.915329],[134.453038,33.915354],[134.453097,33.915433],[134.453401,33.915846],[134.453538,33.916454],[134.453513,33.917112],[134.453238,33.917737],[134.452551,33.918645],[134.452138,33.919545],[134.452001,33.919812],[134.451862,33.920343],[134.451886,33.920819],[134.452047,33.921307],[134.452064,33.921418],[134.452049,33.921533],[134.452029,33.921592],[134.452003,33.921656],[134.451952,33.921693],[134.451892,33.921702],[134.451669,33.92162],[134.451357,33.921522],[134.451145,33.921499],[134.450924,33.921501],[134.450693,33.921536],[134.450573,33.921604],[134.450398,33.921743],[134.450219,33.92192],[134.450152,33.922189],[134.450181,33.923001],[134.450243,33.923126],[134.450385,33.923225],[134.450577,33.923341],[134.450657,33.923446],[134.45063,33.923543],[134.450509,33.923645],[134.45037,33.923715],[134.450179,33.923786],[134.449868,33.923815],[134.44782,33.923727],[134.44763,33.92377],[134.447511,33.923913],[134.447459,33.924252],[134.447412,33.924327],[134.447347,33.924357],[134.447317,33.924357],[134.447209,33.924348],[134.446425,33.924121],[134.446306,33.924132],[134.446241,33.924187],[134.446224,33.924266],[134.446349,33.924822],[134.446532,33.925168],[134.446944,33.925721],[134.447228,33.926466],[134.44725,33.926541],[134.447235,33.926612],[134.447166,33.926702],[134.446915,33.926885],[134.445729,33.927644],[134.44516,33.927899],[134.443994,33.928256],[134.443567,33.928325],[134.443276,33.928314],[134.443041,33.928291],[134.442738,33.928234],[134.440506,33.92775],[134.440381,33.927746],[134.439705,33.927883],[134.439604,33.927929],[134.439242,33.928129],[134.438377,33.928169],[134.437002,33.928302],[134.436177,33.928527],[134.436067,33.928597],[134.435602,33.928894],[134.435514,33.929002],[134.435439,33.929094],[134.435302,33.929635],[134.43514,33.929902],[134.435052,33.929952],[134.434777,33.929952],[134.43434,33.929744],[134.434177,33.929635],[134.432915,33.929452],[134.432527,33.929369],[134.432252,33.929544],[134.431815,33.93036],[134.43154,33.93101],[134.431479,33.931243],[134.431427,33.931444],[134.431452,33.931553],[134.431559,33.931701],[134.431815,33.931868],[134.432965,33.932452],[134.433602,33.932993],[134.433766,33.933252],[134.433842,33.933529],[134.433877,33.933826],[134.43379,33.933985],[134.433327,33.934301],[134.433258,33.934307],[134.433186,33.934392],[134.43316,33.93442],[134.433133,33.934445],[134.433112,33.93446],[134.432717,33.934776],[134.432641,33.934803],[134.432255,33.934896],[134.431419,33.935061],[134.431274,33.935112],[134.431112,33.935196],[134.430992,33.935257],[134.430956,33.935288],[134.430929,33.93533],[134.430848,33.935477],[134.43079,33.935606],[134.43075,33.935716],[134.430711,33.935876],[134.430646,33.93618],[134.430648,33.936342],[134.430667,33.936433],[134.430721,33.93656],[134.430768,33.936703],[134.430853,33.937014],[134.431015,33.937684],[134.431152,33.937909],[134.43119,33.938426],[134.431515,33.938942],[134.431702,33.939442],[134.432015,33.939959],[134.432152,33.940609],[134.43209,33.941192],[134.43199,33.94135],[134.432015,33.941692],[134.431652,33.942184],[134.431002,33.9437],[134.431052,33.94505],[134.430802,33.945591],[134.430065,33.946675],[134.430015,33.946808],[134.43004,33.947733],[134.430252,33.948066],[134.43029,33.948499],[134.430427,33.949016],[134.430315,33.949716],[134.430152,33.950191],[134.430265,33.950774],[134.430315,33.951382],[134.430265,33.952057],[134.430264,33.952757],[134.430427,33.953524],[134.430427,33.954082],[134.430677,33.95469],[134.430839,33.955257],[134.430977,33.95544],[134.431202,33.95584],[134.431227,33.956882],[134.431639,33.957307],[134.431639,33.957348],[134.431414,33.957648],[134.430789,33.957915],[134.430377,33.95789],[134.429852,33.957582],[134.429602,33.957132],[134.429602,33.956673],[134.429802,33.956157],[134.42969,33.956023],[134.429115,33.955915],[134.427152,33.95634],[134.42694,33.95634],[134.426527,33.956165],[134.42619,33.95589],[134.425015,33.956049],[134.424852,33.956032],[134.424843,33.956025],[134.424538,33.955816],[134.424415,33.955732],[134.42414,33.955265],[134.423665,33.954832],[134.42309,33.954565],[134.422378,33.954565],[134.421165,33.954724],[134.419491,33.955107],[134.418641,33.95509],[134.417266,33.95484],[134.415591,33.954324],[134.413604,33.954257],[134.411654,33.953832],[134.411266,33.953557],[134.410804,33.953382],[134.409954,33.953407],[134.409067,33.953182],[134.408604,33.953224],[134.407704,33.952907],[134.406842,33.952507],[134.406517,33.95239],[134.404542,33.951965],[134.40358,33.951807],[134.401955,33.951274],[134.40108,33.951224],[134.400905,33.950574],[134.40063,33.949966],[134.40058,33.949741],[134.400692,33.948841],[134.40088,33.948141],[134.400942,33.948049],[134.400975,33.947573],[134.40104,33.947016],[134.401248,33.946494],[134.401345,33.946233],[134.401525,33.945853],[134.401538,33.945687],[134.401408,33.945499],[134.40102,33.945099],[134.400238,33.944757],[134.399935,33.944061],[134.39988,33.943693],[134.399891,33.943457],[134.399959,33.943137],[134.400141,33.942851],[134.400465,33.942589],[134.400774,33.942326],[134.401085,33.942146],[134.401623,33.941675],[134.402102,33.941281],[134.402355,33.941019],[134.402963,33.94037],[134.403257,33.940012],[134.403691,33.939441],[134.40423,33.938994],[134.404919,33.93829],[134.405312,33.937885],[134.405931,33.937277],[134.406257,33.936914],[134.406523,33.936521],[134.406802,33.936117],[134.407125,33.93576],[134.407377,33.935426],[134.40855,33.934501],[134.409013,33.934177],[134.409419,33.933759],[134.409612,33.933655],[134.410243,33.93298],[134.410731,33.932661],[134.41117,33.932346],[134.411302,33.932158],[134.411442,33.931909],[134.411643,33.931489],[134.412156,33.930615],[134.41235,33.930336],[134.412693,33.92989],[134.412995,33.929359],[134.412992,33.929069],[134.412906,33.92866],[134.412677,33.928388],[134.412429,33.928134],[134.412098,33.927829],[134.412011,33.927561],[134.412038,33.927357],[134.41209,33.92727],[134.412119,33.927222],[134.41239,33.927041],[134.412607,33.926929],[134.41285,33.926726],[134.413174,33.925845],[134.413687,33.924716],[134.414092,33.923587],[134.414254,33.923203],[134.414416,33.922842],[134.414551,33.922458],[134.414713,33.922006],[134.414847,33.921328],[134.415063,33.920899],[134.415171,33.920614],[134.415225,33.92047],[134.415469,33.920132],[134.415631,33.919793],[134.415793,33.919522],[134.416064,33.919296],[134.416443,33.919003],[134.416876,33.918733],[134.417228,33.918552],[134.417635,33.918372],[134.418042,33.918282],[134.418367,33.91817],[134.418665,33.918147],[134.419126,33.91808],[134.419506,33.918081],[134.420095,33.918115],[134.421052,33.918376],[134.421296,33.918196],[134.422134,33.916638],[134.422917,33.91508],[134.423025,33.914718],[134.423349,33.913973],[134.423527,33.912615],[134.423768,33.911977],[134.424009,33.911321],[134.424089,33.910657],[134.423939,33.910142],[134.423563,33.909715],[134.423249,33.90939],[134.422579,33.908844],[134.422307,33.908595],[134.422089,33.908278],[134.422007,33.907962],[134.421925,33.907623],[134.422196,33.907375],[134.422521,33.90733],[134.42282,33.907307],[134.423328,33.907311],[134.423537,33.907365],[134.423928,33.907099],[134.424219,33.906889],[134.42459,33.906654],[134.425227,33.906278],[134.425946,33.905923],[134.426663,33.905522],[134.427836,33.904976],[134.428204,33.904651],[134.428433,33.904216],[134.428715,33.903758],[134.428919,33.903414],[134.428992,33.903222],[134.429093,33.902958],[134.429106,33.902573],[134.429099,33.90237],[134.429141,33.902007],[134.429239,33.901733],[134.429416,33.901367],[134.4298,33.900726],[134.430109,33.900266],[134.43049,33.899534],[134.430769,33.899008],[134.430971,33.898574],[134.431356,33.897977],[134.431619,33.897745],[134.431831,33.897627],[134.432097,33.897486],[134.43236,33.897254],[134.432462,33.89707],[134.432618,33.896886],[134.432742,33.896566],[134.432826,33.896271],[134.432839,33.896225],[134.433019,33.89595],[134.433335,33.895694],[134.433572,33.895508],[134.433642,33.895189],[134.433799,33.895028],[134.434091,33.894863],[134.434463,33.894651],[134.434808,33.89444],[134.435067,33.894117],[134.435189,33.89373],[134.435308,33.893275],[134.435401,33.892843],[134.435449,33.89254],[134.43549,33.892276],[134.435717,33.891796],[134.436001,33.891405],[134.436233,33.891083],[134.436522,33.890828],[134.436893,33.890571],[134.437174,33.890405],[134.437192,33.890396],[134.437311,33.890332],[134.437721,33.890259],[134.438072,33.890228],[134.438373,33.890289],[134.438809,33.89037],[134.439298,33.890427],[134.440088,33.890545],[134.440522,33.890558],[134.441036,33.890523],[134.4416,33.890398],[134.442058,33.890319],[134.442489,33.890265],[134.442976,33.890231],[134.443485,33.890084],[134.444078,33.889908]]]},"properties":{"S_NAME":"大字正木","HCODE":8101}},{"type":"Feature","geometry":{"type":"Polygon","coordinates":[[[134.423537,33.907365],[134.423328,33.907311],[134.42282,33.907307],[134.422521,33.90733],[134.422196,33.907375],[134.421925,33.907623],[134.422007,33.907962],[134.422089,33.908278],[134.422307,33.908595],[134.422579,33.908844],[134.423249,33.90939],[134.423563,33.909715],[134.423939,33.910142],[134.424089,33.910657],[134.424009,33.911321],[134.423768,33.911977],[134.423527,33.912615],[134.423349,33.913973],[134.423025,33.914718],[134.422917,33.91508],[134.422134,33.916638],[134.421296,33.918196],[134.421052,33.918376],[134.420095,33.918115],[134.419506,33.918081],[134.419126,33.91808],[134.418665,33.918147],[134.418367,33.91817],[134.418042,33.918282],[134.417635,33.918372],[134.417228,33.918552],[134.416876,33.918733],[134.416443,33.919003],[134.416064,33.919296],[134.415793,33.919522],[134.415631,33.919793],[134.415469,33.920132],[134.415225,33.92047],[134.415171,33.920614],[134.415063,33.920899],[134.414847,33.921328],[134.414713,33.922006],[134.414551,33.922458],[134.414416,33.922842],[134.414254,33.923203],[134.414092,33.923587],[134.413687,33.924716],[134.413174,33.925845],[134.41285,33.926726],[134.412607,33.926929],[134.41239,33.927041],[134.412119,33.927222],[134.41209,33.92727],[134.412038,33.927357],[134.412011,33.927561],[134.412098,33.927829],[134.412429,33.928134],[134.412677,33.928388],[134.412906,33.92866],[134.412992,33.929069],[134.412995,33.929359],[134.412693,33.92989],[134.41235,33.930336],[134.412156,33.930615],[134.411643,33.931489],[134.411442,33.931909],[134.411302,33.932158],[134.41117,33.932346],[134.410731,33.932661],[134.410243,33.93298],[134.409612,33.933655],[134.409419,33.933759],[134.409013,33.934177],[134.40855,33.934501],[134.407377,33.935426],[134.407125,33.93576],[134.406802,33.936117],[134.406523,33.936521],[134.406257,33.936914],[134.405931,33.937277],[134.405312,33.937885],[134.404919,33.93829],[134.40423,33.938994],[134.403691,33.939441],[134.403257,33.940012],[134.402963,33.94037],[134.402355,33.941019],[134.402102,33.941281],[134.401623,33.941675],[134.401085,33.942146],[134.400774,33.942326],[134.400465,33.942589],[134.400141,33.942851],[134.399959,33.943137],[134.399891,33.943457],[134.39988,33.943693],[134.399935,33.944061],[134.400238,33.944757],[134.399943,33.944692],[134.399093,33.944375],[134.397918,33.943883],[134.397031,33.943725],[134.396181,33.943683],[134.395243,33.943392],[134.394731,33.943458],[134.394118,33.943683],[134.392881,33.943617],[134.391069,33.943733],[134.390794,33.943442],[134.390381,33.94285],[134.389855,33.942293],[134.389531,33.94195],[134.389394,33.941275],[134.389119,33.940784],[134.388799,33.940547],[134.386482,33.94105],[134.385942,33.941535],[134.385357,33.941659],[134.384807,33.941709],[134.384332,33.941975],[134.383559,33.942234],[134.383182,33.942275],[134.382932,33.942225],[134.382332,33.942208],[134.381945,33.942067],[134.381282,33.94205],[134.380595,33.941825],[134.378233,33.940809],[134.377995,33.94065],[134.377658,33.9402],[134.377608,33.939659],[134.377445,33.939142],[134.376995,33.938742],[134.375546,33.937976],[134.375246,33.937751],[134.374308,33.936934],[134.373708,33.936559],[134.373433,33.936467],[134.372746,33.936376],[134.372359,33.936351],[134.372309,33.936334],[134.370084,33.937126],[134.369421,33.937309],[134.368884,33.937284],[134.368371,33.937101],[134.367996,33.936717],[134.367809,33.936201],[134.367697,33.935659],[134.367559,33.935368],[134.367184,33.934801],[134.366734,33.934259],[134.366222,33.933851],[134.365882,33.933637],[134.366029,33.933071],[134.366228,33.932569],[134.366511,33.932133],[134.366873,33.931628],[134.367187,33.931304],[134.367585,33.931047],[134.367984,33.930812],[134.368491,33.930597],[134.368879,33.930474],[134.369027,33.930427],[134.369351,33.930398],[134.369364,33.930395],[134.369648,33.930346],[134.370122,33.929976],[134.370666,33.929735],[134.371299,33.929694],[134.371823,33.929691],[134.372501,33.929722],[134.373004,33.929737],[134.373797,33.929645],[134.374035,33.929459],[134.374431,33.929156],[134.37453,33.929051],[134.374823,33.92874],[134.375407,33.9281],[134.375684,33.927794],[134.376025,33.927448],[134.376261,33.927239],[134.376649,33.926869],[134.376917,33.926614],[134.377068,33.926271],[134.377032,33.926001],[134.377071,33.92557],[134.377023,33.924983],[134.376994,33.924648],[134.377137,33.9237],[134.377283,33.923078],[134.377462,33.92278],[134.378455,33.922347],[134.379187,33.922092],[134.380471,33.921244],[134.380919,33.920873],[134.381285,33.92048],[134.381698,33.919906],[134.381679,33.919887],[134.381558,33.919773],[134.381331,33.919484],[134.381047,33.919084],[134.380762,33.918683],[134.380479,33.91835],[134.380222,33.917971],[134.379904,33.91739],[134.379669,33.916875],[134.379316,33.916069],[134.379308,33.91582],[134.379381,33.915592],[134.379507,33.915318],[134.37985,33.915062],[134.380249,33.91485],[134.380511,33.914556],[134.380685,33.9145],[134.380829,33.914617],[134.381157,33.914706],[134.381463,33.914722],[134.38166,33.914775],[134.381944,33.914764],[134.382238,33.914607],[134.382553,33.914496],[134.382902,33.91443],[134.383186,33.914409],[134.383505,33.91438],[134.383745,33.914369],[134.383876,33.914304],[134.38393,33.91424],[134.383972,33.914076],[134.38409,33.913866],[134.384198,33.913747],[134.38435,33.913682],[134.384535,33.913644],[134.384851,33.913569],[134.385036,33.913495],[134.385372,33.913313],[134.386013,33.912678],[134.386384,33.912575],[134.386668,33.912591],[134.387187,33.912087],[134.387373,33.91214],[134.387835,33.912182],[134.388463,33.91182],[134.38864,33.911675],[134.388769,33.91142],[134.389009,33.911327],[134.389184,33.911354],[134.389392,33.911443],[134.389535,33.911592],[134.389539,33.911593],[134.390057,33.911694],[134.390589,33.911789],[134.391038,33.911877],[134.391705,33.911991],[134.39213,33.912078],[134.392424,33.911959],[134.392824,33.911769],[134.392972,33.91165],[134.39322,33.911489],[134.393807,33.911227],[134.39415,33.910948],[134.394337,33.910876],[134.39474,33.910777],[134.395196,33.910654],[134.395628,33.910599],[134.396195,33.910541],[134.396543,33.91042],[134.396648,33.910328],[134.396917,33.910276],[134.397378,33.910266],[134.397477,33.910264],[134.397811,33.910257],[134.398132,33.910137],[134.398365,33.909838],[134.398652,33.909515],[134.399131,33.909255],[134.399534,33.909156],[134.399962,33.909011],[134.400526,33.908863],[134.401002,33.908535],[134.401241,33.908394],[134.401646,33.90834],[134.401994,33.908219],[134.403099,33.908059],[134.403338,33.907918],[134.403622,33.907528],[134.404148,33.907064],[134.404569,33.906726],[134.404728,33.906599],[134.405046,33.906318],[134.405217,33.906247],[134.405461,33.906066],[134.405627,33.905968],[134.405752,33.90594],[134.406084,33.905868],[134.406566,33.905698],[134.407071,33.905416],[134.407704,33.904927],[134.408091,33.904353],[134.408264,33.903897],[134.408755,33.903208],[134.40923,33.902858],[134.409575,33.902647],[134.409658,33.902655],[134.409929,33.902684],[134.410287,33.902857],[134.410395,33.902908],[134.410838,33.903116],[134.411197,33.903312],[134.411587,33.90362],[134.41184,33.903885],[134.412069,33.904219],[134.412637,33.904976],[134.412834,33.905198],[134.413249,33.905437],[134.4134,33.905509],[134.413515,33.905579],[134.413601,33.905606],[134.413745,33.905675],[134.414156,33.905801],[134.414956,33.906213],[134.415171,33.906401],[134.415171,33.906417],[134.415208,33.906434],[134.415259,33.906508],[134.415407,33.906723],[134.415847,33.907135],[134.415856,33.907143],[134.415959,33.907254],[134.416067,33.907345],[134.416087,33.907341],[134.416191,33.907429],[134.416396,33.907425],[134.416543,33.907422],[134.416889,33.907256],[134.41734,33.906974],[134.417901,33.906758],[134.418279,33.906727],[134.419193,33.906503],[134.420506,33.90609],[134.421796,33.905789],[134.422335,33.905709],[134.422637,33.905816],[134.422778,33.905994],[134.422893,33.906172],[134.422994,33.906735],[134.423537,33.907365]]]},"properties":{"S_NAME":"大字傍示","HCODE":8101}},{"type":"Feature","geometry":{"type":"Polygon","coordinates":[[[134.423537,33.907365],[134.422994,33.906735],[134.422893,33.906172],[134.422778,33.905994],[134.422637,33.905816],[134.422335,33.905709],[134.421796,33.905789],[134.420506,33.90609],[134.419193,33.906503],[134.418279,33.906727],[134.417901,33.906758],[134.41734,33.906974],[134.416889,33.907256],[134.416543,33.907422],[134.416396,33.907425],[134.416191,33.907429],[134.416087,33.907341],[134.416067,33.907345],[134.415959,33.907254],[134.415856,33.907143],[134.415847,33.907135],[134.415407,33.906723],[134.415259,33.906508],[134.415208,33.906434],[134.415171,33.906417],[134.415171,33.906401],[134.414956,33.906213],[134.414156,33.905801],[134.413745,33.905675],[134.413601,33.905606],[134.413515,33.905579],[134.4134,33.905509],[134.413249,33.905437],[134.412834,33.905198],[134.412637,33.904976],[134.412069,33.904219],[134.41184,33.903885],[134.411587,33.90362],[134.411197,33.903312],[134.410838,33.903116],[134.410395,33.902908],[134.410287,33.902857],[134.409929,33.902684],[134.409746,33.902198],[134.409873,33.902002],[134.410093,33.901746],[134.410079,33.901491],[134.40997,33.901199],[134.409835,33.900786],[134.40988,33.900514],[134.410034,33.900262],[134.410239,33.899941],[134.410418,33.899643],[134.410491,33.899392],[134.41075,33.899047],[134.410986,33.898839],[134.411248,33.898584],[134.411426,33.898241],[134.411444,33.897992],[134.411297,33.897656],[134.410932,33.897302],[134.41062,33.896879],[134.410414,33.896432],[134.410403,33.896098],[134.410395,33.895889],[134.410489,33.89548],[134.410609,33.895025],[134.41076,33.894705],[134.410941,33.894452],[134.411044,33.894314],[134.410924,33.894179],[134.410847,33.894093],[134.410521,33.894055],[134.409978,33.894044],[134.409576,33.894143],[134.409281,33.89424],[134.408764,33.894184],[134.408385,33.89417],[134.408113,33.894153],[134.407709,33.894207],[134.406557,33.894595],[134.406129,33.89474],[134.405777,33.894748],[134.405424,33.894733],[134.404354,33.894985],[134.403077,33.895296],[134.402819,33.895138],[134.402517,33.894785],[134.402897,33.894444],[134.403001,33.89423],[134.40296,33.893996],[134.402622,33.893619],[134.402235,33.893401],[134.40193,33.893182],[134.401569,33.892941],[134.401462,33.892795],[134.401488,33.892597],[134.401543,33.892432],[134.401598,33.892188],[134.401616,33.892158],[134.401713,33.891993],[134.401945,33.891802],[134.402216,33.891692],[134.402416,33.891561],[134.402503,33.891438],[134.402702,33.890703],[134.402564,33.890646],[134.402509,33.890624],[134.402432,33.890584],[134.402342,33.890487],[134.402286,33.89035],[134.402201,33.890178],[134.402132,33.890033],[134.402082,33.889844],[134.401985,33.889712],[134.401831,33.889524],[134.401754,33.889341],[134.401719,33.889126],[134.40171,33.888937],[134.401721,33.888696],[134.401718,33.888415],[134.401749,33.888268],[134.40176,33.888202],[134.401828,33.88807],[134.401839,33.888004],[134.401804,33.887924],[134.401389,33.887743],[134.40051,33.887543],[134.400265,33.887407],[134.399968,33.88724],[134.399649,33.88703],[134.399503,33.886894],[134.399412,33.886785],[134.399319,33.8866],[134.399286,33.886534],[134.399108,33.886076],[134.39901,33.88558],[134.398881,33.884995],[134.398733,33.88438],[134.398659,33.884073],[134.398552,33.883329],[134.398477,33.88272],[134.398394,33.881907],[134.398976,33.88151],[134.399424,33.881138],[134.399977,33.880696],[134.400502,33.88021],[134.400816,33.879886],[134.401078,33.879632],[134.401447,33.879131],[134.40155,33.878991],[134.401727,33.878417],[134.401721,33.877845],[134.401623,33.877215],[134.40157,33.877047],[134.401362,33.876377],[134.401172,33.875711],[134.401236,33.875271],[134.401529,33.874792],[134.402027,33.874311],[134.402227,33.873173],[134.402286,33.872237],[134.402155,33.871693],[134.402146,33.871444],[134.402031,33.871243],[134.401981,33.871149],[134.401866,33.870933],[134.401749,33.870705],[134.401632,33.870476],[134.401535,33.870236],[134.401305,33.869834],[134.400858,33.86946],[134.400332,33.869132],[134.399944,33.868869],[134.399558,33.868674],[134.399093,33.868526],[134.39865,33.868265],[134.398317,33.868023],[134.39774,33.867787],[134.39744,33.867726],[134.397061,33.867735],[134.396794,33.867831],[134.396443,33.867884],[134.39603,33.867667],[134.395913,33.867443],[134.395927,33.867059],[134.396024,33.86674],[134.396036,33.866287],[134.395712,33.865548],[134.395238,33.865152],[134.394363,33.8649],[134.393846,33.864843],[134.39341,33.864763],[134.393131,33.86452],[134.392631,33.864169],[134.392139,33.864044],[134.391537,33.863854],[134.390877,33.863552],[134.390447,33.863376],[134.3903,33.863316],[134.389943,33.863188],[134.38959,33.863151],[134.389288,33.863022],[134.389029,33.862789],[134.388896,33.862669],[134.388529,33.862224],[134.388028,33.861828],[134.387616,33.861679],[134.387173,33.861395],[134.386998,33.861037],[134.386748,33.860839],[134.386419,33.860733],[134.385902,33.860654],[134.385413,33.86062],[134.384844,33.86061],[134.38427,33.860441],[134.383855,33.860202],[134.382947,33.859769],[134.382585,33.859483],[134.382136,33.859018],[134.381853,33.858663],[134.381414,33.858514],[134.381054,33.858273],[134.380671,33.858169],[134.380464,33.858114],[134.379912,33.857806],[134.379534,33.857465],[134.379259,33.857353],[134.378895,33.857168],[134.378568,33.8569],[134.378315,33.85658],[134.378151,33.856331],[134.378099,33.85614],[134.378324,33.855623],[134.378374,33.854923],[134.378549,33.854448],[134.378736,33.85434],[134.379473,33.854157],[134.379911,33.853723],[134.380273,33.85314],[134.380848,33.852732],[134.381761,33.852482],[134.382448,33.85224],[134.38316,33.852149],[134.383873,33.851924],[134.384198,33.851515],[134.384535,33.85149],[134.384835,33.85174],[134.385197,33.851849],[134.385298,33.851849],[134.38596,33.851607],[134.386897,33.851307],[134.387197,33.851265],[134.387285,33.85129],[134.38761,33.851649],[134.387722,33.851715],[134.388247,33.85174],[134.388914,33.851671],[134.389784,33.851582],[134.390197,33.851915],[134.390497,33.852298],[134.390772,33.85234],[134.391122,33.852723],[134.391734,33.853248],[134.392196,33.853448],[134.392445,33.853448],[134.392609,33.853448],[134.392721,33.85349],[134.392825,33.85379],[134.392971,33.854215],[134.393321,33.854256],[134.394508,33.854098],[134.395196,33.853715],[134.395771,33.85349],[134.396158,33.853598],[134.396233,33.854048],[134.396258,33.854639],[134.397083,33.855106],[134.397583,33.855106],[134.398183,33.854639],[134.398683,33.854864],[134.399458,33.855356],[134.400133,33.855539],[134.401895,33.856031],[134.401979,33.856006],[134.402732,33.855298],[134.40301,33.855119],[134.403308,33.855013],[134.403846,33.854848],[134.404023,33.855144],[134.404282,33.855331],[134.404441,33.855406],[134.404807,33.855581],[134.405932,33.855714],[134.406637,33.855346],[134.406871,33.85538],[134.407152,33.855768],[134.407644,33.855914],[134.408131,33.856314],[134.408876,33.856678],[134.408881,33.85668],[134.409431,33.856905],[134.409569,33.857214],[134.409981,33.857555],[134.410631,33.85778],[134.411343,33.857822],[134.411618,33.858097],[134.411681,33.858255],[134.412006,33.85843],[134.412781,33.858972],[134.41473,33.859922],[134.415968,33.860055],[134.41673,33.86003],[134.41728,33.859805],[134.417867,33.859147],[134.41833,33.858788],[134.41888,33.85863],[134.419505,33.858289],[134.419817,33.857997],[134.420392,33.857797],[134.421154,33.857639],[134.421629,33.857864],[134.421904,33.857955],[134.422892,33.857997],[134.423554,33.857772],[134.424954,33.858314],[134.425479,33.85838],[134.426291,33.858372],[134.427229,33.858489],[134.428054,33.858689],[134.428741,33.858939],[134.429152,33.858843],[134.429208,33.858868],[134.429224,33.85888],[134.429239,33.858893],[134.429253,33.858908],[134.429267,33.858926],[134.429277,33.858943],[134.429286,33.858966],[134.429295,33.858997],[134.429305,33.859042],[134.429314,33.859097],[134.429323,33.859154],[134.429333,33.859206],[134.429342,33.859246],[134.429356,33.859282],[134.429375,33.859323],[134.429405,33.859381],[134.429443,33.859456],[134.429498,33.859549],[134.42952,33.859577],[134.429566,33.859621],[134.429592,33.859657],[134.429646,33.859762],[134.429698,33.859874],[134.429746,33.859967],[134.429789,33.860036],[134.429833,33.860105],[134.429881,33.860188],[134.429929,33.860268],[134.429966,33.86032],[134.42998,33.860334],[134.429992,33.860341],[134.430012,33.860345],[134.43003,33.860351],[134.430066,33.860354],[134.430133,33.860353],[134.430228,33.860347],[134.430328,33.860339],[134.430412,33.860333],[134.430484,33.860329],[134.430517,33.860329],[134.430581,33.860335],[134.430643,33.860344],[134.430703,33.860357],[134.430761,33.860374],[134.430815,33.860397],[134.430862,33.860429],[134.430883,33.86045],[134.430919,33.860499],[134.430944,33.860562],[134.430964,33.860627],[134.430978,33.860685],[134.43099,33.860741],[134.431001,33.860811],[134.431011,33.860912],[134.431021,33.86102],[134.431022,33.861034],[134.431033,33.861167],[134.431043,33.861298],[134.431052,33.861408],[134.431054,33.861428],[134.431058,33.861484],[134.431066,33.861535],[134.431079,33.861573],[134.431101,33.861605],[134.431134,33.86163],[134.431182,33.861652],[134.431249,33.86167],[134.431338,33.86169],[134.431444,33.861711],[134.431555,33.861732],[134.431656,33.861749],[134.431752,33.861766],[134.431848,33.861778],[134.431947,33.861789],[134.432045,33.861803],[134.432138,33.861819],[134.432221,33.861839],[134.432286,33.861861],[134.432337,33.861885],[134.432389,33.861913],[134.432451,33.861948],[134.432511,33.861986],[134.432535,33.862006],[134.432551,33.862025],[134.432562,33.862043],[134.432575,33.862085],[134.432583,33.862133],[134.432593,33.862189],[134.432604,33.862251],[134.43261,33.862317],[134.432617,33.862386],[134.432626,33.86246],[134.432638,33.862535],[134.432651,33.862604],[134.43266,33.862661],[134.432671,33.862707],[134.43268,33.862727],[134.432691,33.862744],[134.432719,33.862772],[134.432754,33.862791],[134.432792,33.862802],[134.432843,33.862808],[134.432918,33.862812],[134.433012,33.862817],[134.43311,33.862824],[134.433198,33.862832],[134.433276,33.862844],[134.433344,33.862861],[134.433405,33.862884],[134.433459,33.862908],[134.433507,33.862933],[134.433546,33.862965],[134.433562,33.862985],[134.433573,33.863008],[134.433586,33.863061],[134.433591,33.863117],[134.433592,33.863169],[134.433591,33.863219],[134.433592,33.863267],[134.433598,33.863315],[134.43361,33.863367],[134.43363,33.863423],[134.433653,33.863482],[134.433674,33.86354],[134.43369,33.863598],[134.433711,33.863659],[134.433737,33.863725],[134.433766,33.863788],[134.433791,33.863837],[134.433812,33.863873],[134.433836,33.863905],[134.433866,33.86394],[134.433902,33.863976],[134.43394,33.864006],[134.433979,33.864031],[134.434027,33.864057],[134.434084,33.864086],[134.434147,33.864117],[134.43421,33.86414],[134.43427,33.864157],[134.434338,33.864171],[134.434412,33.864183],[134.434489,33.864196],[134.434557,33.864209],[134.434616,33.864221],[134.43467,33.864235],[134.434725,33.86425],[134.434785,33.86427],[134.434803,33.864279],[134.434848,33.864301],[134.43491,33.864339],[134.434968,33.864382],[134.435014,33.864424],[134.435032,33.864445],[134.435061,33.86449],[134.435077,33.864537],[134.435085,33.864589],[134.435091,33.864649],[134.435096,33.864713],[134.435099,33.86478],[134.435097,33.864842],[134.435096,33.864905],[134.4351,33.864977],[134.435108,33.865051],[134.435122,33.865118],[134.435135,33.865168],[134.435149,33.865226],[134.435164,33.865319],[134.435203,33.865496],[134.435237,33.865648],[134.435245,33.865713],[134.435259,33.86579],[134.435282,33.865882],[134.435308,33.865972],[134.435326,33.866044],[134.435338,33.866095],[134.435354,33.866142],[134.43538,33.866196],[134.435418,33.866252],[134.435459,33.866302],[134.435504,33.866344],[134.435557,33.86638],[134.435618,33.866414],[134.435688,33.866443],[134.435761,33.866466],[134.435838,33.866486],[134.435913,33.866508],[134.435981,33.866539],[134.43601,33.866556],[134.436058,33.866594],[134.436074,33.866614],[134.436096,33.866659],[134.436103,33.866685],[134.436113,33.866742],[134.436118,33.866811],[134.436118,33.866885],[134.436114,33.866964],[134.436111,33.86705],[134.436117,33.867148],[134.436133,33.867255],[134.43615,33.867361],[134.436159,33.86746],[134.436166,33.867552],[134.436173,33.86764],[134.436182,33.867726],[134.436191,33.867814],[134.436197,33.867906],[134.436199,33.868002],[134.436196,33.8681],[134.436189,33.868199],[134.436187,33.868296],[134.436189,33.868391],[134.43619,33.868482],[134.436186,33.868525],[134.436178,33.868567],[134.436167,33.868609],[134.436139,33.868697],[134.436111,33.868796],[134.43609,33.868909],[134.436072,33.869029],[134.436054,33.869151],[134.436043,33.869266],[134.436045,33.869319],[134.436051,33.86937],[134.436061,33.869416],[134.436077,33.869459],[134.436095,33.8695],[134.436141,33.869577],[134.436189,33.869653],[134.43623,33.869728],[134.436252,33.869808],[134.436259,33.86985],[134.436272,33.869937],[134.436283,33.869995],[134.436288,33.870029],[134.436307,33.87012],[134.436322,33.870203],[134.436331,33.870277],[134.43634,33.870347],[134.43635,33.870414],[134.43636,33.870484],[134.436371,33.870563],[134.436378,33.870646],[134.436378,33.870729],[134.436367,33.870806],[134.436351,33.87088],[134.436335,33.870952],[134.436322,33.871022],[134.436305,33.871087],[134.436294,33.871115],[134.436268,33.871168],[134.436243,33.871219],[134.436218,33.871271],[134.436189,33.871322],[134.436171,33.871348],[134.436148,33.871371],[134.436096,33.871418],[134.436038,33.871463],[134.435991,33.871506],[134.435947,33.871553],[134.435912,33.871611],[134.435897,33.871644],[134.435869,33.871714],[134.435837,33.87179],[134.4358,33.871866],[134.435759,33.87194],[134.435714,33.872008],[134.43567,33.872075],[134.435632,33.872148],[134.435616,33.872187],[134.435591,33.872271],[134.435577,33.872359],[134.435576,33.872403],[134.435579,33.872442],[134.435587,33.872476],[134.435601,33.872502],[134.435621,33.872518],[134.435646,33.872526],[134.435676,33.872529],[134.435746,33.872532],[134.435762,33.872534],[134.435825,33.872543],[134.43587,33.872554],[134.435916,33.872568],[134.43602,33.872603],[134.436133,33.872645],[134.436239,33.87269],[134.436327,33.872729],[134.436405,33.872771],[134.436489,33.872821],[134.43658,33.872878],[134.436679,33.872933],[134.43673,33.872957],[134.436782,33.872978],[134.436836,33.872997],[134.43695,33.873028],[134.43707,33.87305],[134.437196,33.873069],[134.437322,33.87309],[134.437382,33.873103],[134.437494,33.873133],[134.437544,33.873152],[134.437586,33.873172],[134.437624,33.873195],[134.437686,33.873239],[134.437777,33.873314],[134.437899,33.873396],[134.437943,33.873436],[134.437982,33.873486],[134.438023,33.873536],[134.438072,33.873586],[134.438128,33.873636],[134.43825,33.87375],[134.438431,33.873923],[134.438535,33.874035],[134.438656,33.874165],[134.438727,33.874239],[134.438784,33.874276],[134.438877,33.87431],[134.438967,33.874331],[134.439096,33.874353],[134.439234,33.874358],[134.440147,33.874375],[134.440219,33.874373],[134.440297,33.874379],[134.440376,33.874391],[134.440452,33.874406],[134.440527,33.874422],[134.440604,33.874435],[134.440678,33.874444],[134.440743,33.874449],[134.440794,33.874452],[134.440845,33.874455],[134.440912,33.87446],[134.440998,33.874466],[134.441006,33.874467],[134.441269,33.874519],[134.441499,33.874574],[134.441712,33.874621],[134.441899,33.874658],[134.442048,33.874685],[134.442151,33.874704],[134.442224,33.874719],[134.442286,33.874734],[134.442345,33.874751],[134.442396,33.874775],[134.442416,33.874791],[134.442433,33.874811],[134.442449,33.874833],[134.442473,33.874889],[134.442492,33.87496],[134.442511,33.875033],[134.442534,33.875095],[134.44256,33.875146],[134.442594,33.8752],[134.442637,33.875269],[134.442686,33.875345],[134.442737,33.875419],[134.442788,33.875486],[134.442834,33.875545],[134.442871,33.875601],[134.442887,33.875628],[134.442898,33.875657],[134.442906,33.875688],[134.442906,33.875758],[134.442896,33.875837],[134.442886,33.875925],[134.442879,33.876018],[134.442879,33.876063],[134.442889,33.876149],[134.44291,33.876227],[134.442939,33.876294],[134.442954,33.876325],[134.442989,33.876379],[134.443011,33.876404],[134.443066,33.876451],[134.443138,33.8765],[134.443218,33.876553],[134.443296,33.876617],[134.443332,33.876651],[134.443363,33.876686],[134.443387,33.876722],[134.443403,33.876759],[134.443412,33.876795],[134.443417,33.876833],[134.443417,33.87691],[134.443415,33.876991],[134.443413,33.877077],[134.44341,33.877171],[134.443407,33.877272],[134.443408,33.877323],[134.44342,33.877421],[134.443442,33.87751],[134.443458,33.87755],[134.443497,33.877618],[134.443517,33.877647],[134.443568,33.877703],[134.443628,33.877763],[134.443698,33.87783],[134.443781,33.877897],[134.443872,33.87796],[134.443966,33.878021],[134.444008,33.87805],[134.444081,33.878112],[134.444148,33.878174],[134.444219,33.878233],[134.444296,33.878288],[134.444368,33.878337],[134.444374,33.878341],[134.444442,33.878395],[134.444508,33.878453],[134.444541,33.878484],[134.444608,33.878558],[134.444678,33.878638],[134.44475,33.87872],[134.444821,33.8788],[134.444896,33.878868],[134.444934,33.878899],[134.445008,33.878944],[134.445016,33.878949],[134.445099,33.878994],[134.445178,33.879039],[134.445256,33.879087],[134.445331,33.87914],[134.445405,33.879196],[134.44548,33.879254],[134.445558,33.879311],[134.445644,33.879368],[134.445744,33.879422],[134.445952,33.879515],[134.446152,33.879609],[134.446307,33.879691],[134.446459,33.879778],[134.446592,33.879861],[134.446695,33.87993],[134.446775,33.879993],[134.44685,33.880056],[134.446923,33.880123],[134.446995,33.880196],[134.447063,33.880271],[134.447127,33.880348],[134.447186,33.880425],[134.447241,33.880497],[134.447295,33.880563],[134.447349,33.880617],[134.44741,33.880663],[134.447481,33.880706],[134.447564,33.880745],[134.447652,33.880781],[134.447738,33.880814],[134.447819,33.880849],[134.447894,33.880893],[134.447964,33.880944],[134.44804,33.880993],[134.448082,33.881014],[134.448126,33.881033],[134.448213,33.881074],[134.448253,33.881098],[134.448288,33.881124],[134.448319,33.881154],[134.448345,33.881186],[134.448366,33.881221],[134.448384,33.881258],[134.448396,33.881295],[134.448405,33.881335],[134.44841,33.881375],[134.448412,33.881456],[134.448408,33.881495],[134.448407,33.881503],[134.448398,33.881571],[134.448388,33.881644],[134.448383,33.881711],[134.448385,33.881777],[134.448395,33.881844],[134.448409,33.881914],[134.448424,33.881988],[134.448435,33.882063],[134.448437,33.882134],[134.448433,33.882164],[134.448424,33.88219],[134.448413,33.882214],[134.448381,33.882261],[134.448342,33.882319],[134.448296,33.882393],[134.448236,33.882477],[134.448158,33.882561],[134.448115,33.882601],[134.448027,33.882672],[134.447983,33.882701],[134.447938,33.882725],[134.447856,33.882769],[134.447774,33.882815],[134.447735,33.88284],[134.447663,33.882896],[134.447601,33.882958],[134.447549,33.883024],[134.447504,33.883095],[134.447456,33.883168],[134.447408,33.883246],[134.447358,33.883332],[134.447302,33.883434],[134.447235,33.883526],[134.447205,33.883574],[134.447178,33.883629],[134.447167,33.883662],[134.447151,33.883749],[134.447143,33.88385],[134.44714,33.883951],[134.447133,33.884048],[134.447121,33.884097],[134.447104,33.884147],[134.447075,33.8842],[134.447041,33.884253],[134.447,33.884305],[134.446918,33.884397],[134.446842,33.884473],[134.446778,33.884544],[134.44675,33.884584],[134.446695,33.884685],[134.446636,33.884797],[134.4466,33.884852],[134.446557,33.884906],[134.44651,33.884957],[134.446412,33.885059],[134.446366,33.885115],[134.446323,33.885175],[134.446282,33.885238],[134.446208,33.885368],[134.446134,33.885497],[134.44602,33.885701],[134.445978,33.885781],[134.445906,33.885903],[134.445819,33.886031],[134.445785,33.886078],[134.445728,33.886158],[134.445722,33.886167],[134.445647,33.886276],[134.445578,33.886387],[134.445547,33.886443],[134.445486,33.886562],[134.445426,33.886689],[134.445369,33.88681],[134.445314,33.886919],[134.445254,33.887018],[134.445219,33.887067],[134.445134,33.887168],[134.445038,33.887272],[134.444942,33.887383],[134.444852,33.887495],[134.44478,33.887595],[134.444725,33.88768],[134.444671,33.887764],[134.4446,33.887866],[134.444527,33.887963],[134.444511,33.887985],[134.444425,33.888101],[134.444358,33.888194],[134.444296,33.888268],[134.444261,33.8883],[134.444219,33.888329],[134.444173,33.888356],[134.444076,33.888412],[134.443985,33.888471],[134.443946,33.888504],[134.443914,33.888537],[134.44389,33.888571],[134.443877,33.888606],[134.443875,33.888641],[134.44388,33.888675],[134.443893,33.888709],[134.443928,33.888775],[134.44396,33.888834],[134.444013,33.888942],[134.444035,33.888996],[134.444061,33.88906],[134.444091,33.88914],[134.444121,33.88923],[134.444143,33.88932],[134.444152,33.889409],[134.444152,33.889498],[134.444142,33.88959],[134.444124,33.889683],[134.444107,33.889773],[134.444078,33.889908],[134.443485,33.890084],[134.442976,33.890231],[134.442489,33.890265],[134.442058,33.890319],[134.4416,33.890398],[134.441036,33.890523],[134.440522,33.890558],[134.440088,33.890545],[134.439298,33.890427],[134.438809,33.89037],[134.438373,33.890289],[134.438072,33.890228],[134.437721,33.890259],[134.437311,33.890332],[134.437192,33.890396],[134.437174,33.890405],[134.436893,33.890571],[134.436522,33.890828],[134.436233,33.891083],[134.436001,33.891405],[134.435717,33.891796],[134.43549,33.892276],[134.435449,33.89254],[134.435401,33.892843],[134.435308,33.893275],[134.435189,33.89373],[134.435067,33.894117],[134.434808,33.89444],[134.434463,33.894651],[134.434091,33.894863],[134.433799,33.895028],[134.433642,33.895189],[134.433572,33.895508],[134.433335,33.895694],[134.433019,33.89595],[134.432839,33.896225],[134.432826,33.896271],[134.432742,33.896566],[134.432618,33.896886],[134.432462,33.89707],[134.43236,33.897254],[134.432097,33.897486],[134.431831,33.897627],[134.431619,33.897745],[134.431356,33.897977],[134.430971,33.898574],[134.430769,33.899008],[134.43049,33.899534],[134.430109,33.900266],[134.4298,33.900726],[134.429416,33.901367],[134.429239,33.901733],[134.429141,33.902007],[134.429099,33.90237],[134.429106,33.902573],[134.429093,33.902958],[134.428992,33.903222],[134.428919,33.903414],[134.428715,33.903758],[134.428433,33.904216],[134.428204,33.904651],[134.427836,33.904976],[134.426663,33.905522],[134.425946,33.905923],[134.425227,33.906278],[134.42459,33.906654],[134.424219,33.906889],[134.423928,33.907099],[134.423537,33.907365]]]},"properties":{"S_NAME":"大字福原","HCODE":8101}},{"type":"Feature","geometry":{"type":"Polygon","coordinates":[[[134.365882,33.933637],[134.365759,33.933559],[134.365147,33.933468],[134.364397,33.933468],[134.363989,33.933396],[134.363463,33.933199],[134.362959,33.933039],[134.362597,33.93295],[134.362038,33.932772],[134.361513,33.932676],[134.361294,33.932659],[134.360855,33.932829],[134.360035,33.932943],[134.35846,33.932876],[134.35701,33.932493],[134.35641,33.932534],[134.355559,33.932699],[134.355068,33.932757],[134.354322,33.93248],[134.353642,33.932239],[134.352879,33.932099],[134.352595,33.932155],[134.352333,33.932157],[134.351764,33.932079],[134.351198,33.931809],[134.350416,33.931396],[134.349987,33.931117],[134.349877,33.930754],[134.349425,33.930284],[134.348396,33.929781],[134.347746,33.929294],[134.347591,33.929086],[134.347062,33.928376],[134.34657,33.927764],[134.345983,33.927231],[134.345237,33.92691],[134.344166,33.926542],[134.343052,33.926313],[134.34213,33.92591],[134.34158,33.925532],[134.341133,33.925278],[134.34059,33.925165],[134.34024,33.925138],[134.339862,33.925235],[134.33925,33.925385],[134.338687,33.925818],[134.3382,33.926376],[134.337962,33.926792],[134.337425,33.927351],[134.336975,33.927746],[134.336775,33.927976],[134.3365,33.928409],[134.335937,33.928926],[134.335325,33.929176],[134.33504,33.929324],[134.334862,33.929417],[134.334537,33.929959],[134.334162,33.930434],[134.333837,33.930592],[134.333319,33.930691],[134.3328,33.930909],[134.33185,33.931742],[134.3311,33.932209],[134.330328,33.932685],[134.329551,33.933553],[134.329184,33.933728],[134.328942,33.933812],[134.328608,33.933897],[134.328259,33.934039],[134.3275,33.934241],[134.326738,33.934483],[134.326388,33.93455],[134.325613,33.934458],[134.325528,33.93443],[134.324888,33.934217],[134.324873,33.9342],[134.324488,33.933808],[134.324164,33.933425],[134.324076,33.933344],[134.323676,33.932975],[134.322501,33.932267],[134.321914,33.931817],[134.321655,33.931192],[134.321239,33.931025],[134.320589,33.930709],[134.319789,33.930125],[134.318664,33.929692],[134.318289,33.929609],[134.318041,33.929439],[134.317827,33.929292],[134.317539,33.928792],[134.317214,33.928384],[134.31673,33.928199],[134.316385,33.927815],[134.316164,33.927547],[134.315995,33.927305],[134.315742,33.92708],[134.315207,33.926702],[134.314745,33.926444],[134.314085,33.926066],[134.31377,33.925929],[134.313425,33.925844],[134.313186,33.925837],[134.312815,33.925859],[134.311653,33.926309],[134.310315,33.926376],[134.309365,33.926326],[134.309103,33.926367],[134.308515,33.926576],[134.308253,33.926773],[134.308065,33.927225],[134.307165,33.927834],[134.306653,33.92815],[134.306578,33.928175],[134.306515,33.92813],[134.306416,33.928059],[134.306397,33.928011],[134.306253,33.927634],[134.305928,33.927042],[134.305523,33.92647],[134.305212,33.926374],[134.305155,33.926356],[134.304787,33.926242],[134.304209,33.926115],[134.303566,33.925959],[134.303266,33.925601],[134.303251,33.925557],[134.303053,33.924968],[134.302654,33.924043],[134.302491,33.923451],[134.302279,33.922143],[134.302016,33.921376],[134.302154,33.920451],[134.302066,33.920185],[134.301854,33.919993],[134.301816,33.919977],[134.300992,33.917968],[134.300579,33.917252],[134.299624,33.915723],[134.29955,33.915287],[134.299504,33.914844],[134.299479,33.914569],[134.299117,33.914252],[134.298817,33.913669],[134.298542,33.912994],[134.29843,33.912361],[134.298405,33.911711],[134.298542,33.911036],[134.29873,33.910361],[134.298767,33.910361],[134.298842,33.910403],[134.299617,33.910378],[134.300355,33.910286],[134.301405,33.909836],[134.302067,33.909295],[134.302917,33.908503],[134.303567,33.908029],[134.304205,33.907629],[134.304917,33.907287],[134.305692,33.907012],[134.306317,33.907012],[134.307092,33.906879],[134.307454,33.906787],[134.308079,33.906404],[134.308467,33.905862],[134.308717,33.905346],[134.309292,33.905029],[134.310015,33.904586],[134.310588,33.904233],[134.311107,33.903632],[134.311267,33.903271],[134.311592,33.902796],[134.311729,33.90223],[134.311629,33.901622],[134.311629,33.901197],[134.312167,33.900005],[134.312667,33.899414],[134.313237,33.899242],[134.313817,33.898964],[134.314404,33.898847],[134.314979,33.898806],[134.315167,33.898739],[134.315604,33.898306],[134.316129,33.897922],[134.316429,33.897381],[134.316567,33.896014],[134.316342,33.895248],[134.316592,33.89464],[134.316986,33.894243],[134.317642,33.894073],[134.318224,33.893958],[134.318571,33.893679],[134.318873,33.893372],[134.318979,33.893215],[134.319592,33.892632],[134.320049,33.891951],[134.320392,33.89139],[134.320654,33.891049],[134.321379,33.890332],[134.322142,33.889741],[134.322554,33.889224],[134.322742,33.888724],[134.322692,33.888233],[134.32283,33.887783],[134.323293,33.887232],[134.323692,33.886902],[134.323798,33.886886],[134.324058,33.886849],[134.324419,33.886875],[134.325079,33.886991],[134.325206,33.88693],[134.325746,33.887358],[134.326498,33.887952],[134.327386,33.888566],[134.328158,33.888979],[134.328849,33.889394],[134.329511,33.889742],[134.330009,33.890025],[134.330454,33.890377],[134.330852,33.890934],[134.331243,33.891287],[134.331416,33.891399],[134.331714,33.891594],[134.332246,33.89208],[134.332538,33.89229],[134.333223,33.892718],[134.333519,33.893121],[134.333815,33.893511],[134.334195,33.894292],[134.334456,33.894852],[134.334692,33.89551],[134.335075,33.895614],[134.335367,33.895528],[134.335883,33.895268],[134.336563,33.895168],[134.337033,33.895084],[134.337412,33.895044],[134.338276,33.894935],[134.338815,33.894878],[134.339252,33.894959],[134.33959,33.894965],[134.339914,33.89499],[134.340368,33.894946],[134.341049,33.894874],[134.341681,33.89487],[134.342429,33.89504],[134.343082,33.895283],[134.343657,33.895451],[134.344122,33.895577],[134.344456,33.895841],[134.344823,33.896263],[134.345205,33.896623],[134.345452,33.896453],[134.345637,33.896313],[134.345954,33.89608],[134.346329,33.895852],[134.34712,33.895535],[134.347864,33.8953],[134.34863,33.895118],[134.349379,33.89483],[134.350182,33.894564],[134.351303,33.894065],[134.352072,33.893573],[134.352576,33.893268],[134.352706,33.893166],[134.352736,33.893142],[134.353077,33.892873],[134.354081,33.892128],[134.354636,33.891731],[134.355083,33.891337],[134.355691,33.890894],[134.356356,33.89054],[134.357077,33.890231],[134.357879,33.889942],[134.358688,33.889811],[134.359442,33.889704],[134.359983,33.88967],[134.360607,33.889702],[134.361145,33.889599],[134.361409,33.88939],[134.361591,33.889183],[134.361773,33.888953],[134.362004,33.888563],[134.362278,33.887879],[134.362357,33.887165],[134.362726,33.886575],[134.36324,33.886337],[134.364006,33.886145],[134.364488,33.885999],[134.36484,33.885991],[134.365135,33.885894],[134.365452,33.885661],[134.3659,33.885416],[134.36601,33.885355],[134.366463,33.885119],[134.366921,33.885064],[134.367513,33.884938],[134.368025,33.884859],[134.368482,33.884758],[134.369181,33.88463],[134.369825,33.884435],[134.370494,33.884194],[134.370839,33.884006],[134.37118,33.883738],[134.371468,33.883381],[134.371679,33.883218],[134.372014,33.882735],[134.372296,33.882255],[134.372505,33.882047],[134.372878,33.88188],[134.373146,33.881784],[134.373363,33.881779],[134.373687,33.881772],[134.373986,33.881788],[134.374157,33.881771],[134.374776,33.881929],[134.375164,33.882192],[134.375795,33.882405],[134.376314,33.882529],[134.37705,33.882671],[134.377865,33.882744],[134.378628,33.882863],[134.379337,33.883005],[134.379856,33.883152],[134.380834,33.883196],[134.380618,33.883472],[134.380256,33.883754],[134.380022,33.884031],[134.380058,33.884279],[134.380172,33.884457],[134.380482,33.88479],[134.38073,33.88492],[134.381123,33.885318],[134.381435,33.885718],[134.381721,33.886142],[134.383098,33.886021],[134.384146,33.885795],[134.385226,33.88568],[134.386059,33.885504],[134.386681,33.885467],[134.386924,33.88544],[134.387304,33.885454],[134.387625,33.885362],[134.388351,33.88503],[134.388818,33.884854],[134.38929,33.884733],[134.389637,33.88459],[134.390199,33.884379],[134.390673,33.884244],[134.391378,33.884058],[134.392105,33.883806],[134.392516,33.883654],[134.393105,33.883486],[134.393648,33.883408],[134.394216,33.883343],[134.394903,33.883189],[134.395614,33.882964],[134.396256,33.882724],[134.3969,33.882551],[134.397276,33.882452],[134.397944,33.882189],[134.398027,33.882137],[134.398394,33.881907],[134.398477,33.88272],[134.398552,33.883329],[134.398659,33.884073],[134.398733,33.88438],[134.398881,33.884995],[134.39901,33.88558],[134.399108,33.886076],[134.399286,33.886534],[134.399319,33.8866],[134.399412,33.886785],[134.399503,33.886894],[134.399649,33.88703],[134.399968,33.88724],[134.400265,33.887407],[134.40051,33.887543],[134.401389,33.887743],[134.401804,33.887924],[134.401839,33.888004],[134.401828,33.88807],[134.40176,33.888202],[134.401749,33.888268],[134.401718,33.888415],[134.401721,33.888696],[134.40171,33.888937],[134.401719,33.889126],[134.401754,33.889341],[134.401831,33.889524],[134.401985,33.889712],[134.402082,33.889844],[134.402132,33.890033],[134.402201,33.890178],[134.402286,33.89035],[134.402342,33.890487],[134.402432,33.890584],[134.402509,33.890624],[134.402564,33.890646],[134.402702,33.890703],[134.402503,33.891438],[134.402416,33.891561],[134.402216,33.891692],[134.401945,33.891802],[134.401713,33.891993],[134.401616,33.892158],[134.401598,33.892188],[134.401543,33.892432],[134.401488,33.892597],[134.401462,33.892795],[134.401569,33.892941],[134.40193,33.893182],[134.402235,33.893401],[134.402622,33.893619],[134.40296,33.893996],[134.403001,33.89423],[134.402897,33.894444],[134.402517,33.894785],[134.402819,33.895138],[134.403077,33.895296],[134.404354,33.894985],[134.405424,33.894733],[134.405777,33.894748],[134.406129,33.89474],[134.406557,33.894595],[134.407709,33.894207],[134.408113,33.894153],[134.408385,33.89417],[134.408764,33.894184],[134.409281,33.89424],[134.409576,33.894143],[134.409978,33.894044],[134.410521,33.894055],[134.410847,33.894093],[134.410924,33.894179],[134.411044,33.894314],[134.410941,33.894452],[134.41076,33.894705],[134.410609,33.895025],[134.410489,33.89548],[134.410395,33.895889],[134.410403,33.896098],[134.410414,33.896432],[134.41062,33.896879],[134.410932,33.897302],[134.411297,33.897656],[134.411444,33.897992],[134.411426,33.898241],[134.411248,33.898584],[134.410986,33.898839],[134.41075,33.899047],[134.410491,33.899392],[134.410418,33.899643],[134.410239,33.899941],[134.410034,33.900262],[134.40988,33.900514],[134.409835,33.900786],[134.40997,33.901199],[134.410079,33.901491],[134.410093,33.901746],[134.409873,33.902002],[134.409746,33.902198],[134.409929,33.902684],[134.409658,33.902655],[134.409575,33.902647],[134.40923,33.902858],[134.408755,33.903208],[134.408264,33.903897],[134.408091,33.904353],[134.407704,33.904927],[134.407071,33.905416],[134.406566,33.905698],[134.406084,33.905868],[134.405752,33.90594],[134.405627,33.905968],[134.405461,33.906066],[134.405217,33.906247],[134.405046,33.906318],[134.404728,33.906599],[134.404569,33.906726],[134.404148,33.907064],[134.403622,33.907528],[134.403338,33.907918],[134.403099,33.908059],[134.401994,33.908219],[134.401646,33.90834],[134.401241,33.908394],[134.401002,33.908535],[134.400526,33.908863],[134.399962,33.909011],[134.399534,33.909156],[134.399131,33.909255],[134.398652,33.909515],[134.398365,33.909838],[134.398132,33.910137],[134.397811,33.910257],[134.397477,33.910264],[134.397378,33.910266],[134.396917,33.910276],[134.396648,33.910328],[134.396543,33.91042],[134.396195,33.910541],[134.395628,33.910599],[134.395196,33.910654],[134.39474,33.910777],[134.394337,33.910876],[134.39415,33.910948],[134.393807,33.911227],[134.39322,33.911489],[134.392972,33.91165],[134.392824,33.911769],[134.392424,33.911959],[134.39213,33.912078],[134.391705,33.911991],[134.391038,33.911877],[134.390589,33.911789],[134.390057,33.911694],[134.389539,33.911593],[134.389535,33.911592],[134.389392,33.911443],[134.389184,33.911354],[134.389009,33.911327],[134.388769,33.91142],[134.38864,33.911675],[134.388463,33.91182],[134.387835,33.912182],[134.387373,33.91214],[134.387187,33.912087],[134.386668,33.912591],[134.386384,33.912575],[134.386013,33.912678],[134.385372,33.913313],[134.385036,33.913495],[134.384851,33.913569],[134.384535,33.913644],[134.38435,33.913682],[134.384198,33.913747],[134.38409,33.913866],[134.383972,33.914076],[134.38393,33.91424],[134.383876,33.914304],[134.383745,33.914369],[134.383505,33.91438],[134.383186,33.914409],[134.382902,33.91443],[134.382553,33.914496],[134.382238,33.914607],[134.381944,33.914764],[134.38166,33.914775],[134.381463,33.914722],[134.381157,33.914706],[134.380829,33.914617],[134.380685,33.9145],[134.380511,33.914556],[134.380249,33.91485],[134.37985,33.915062],[134.379507,33.915318],[134.379381,33.915592],[134.379308,33.91582],[134.379316,33.916069],[134.379669,33.916875],[134.379904,33.91739],[134.380222,33.917971],[134.380479,33.91835],[134.380762,33.918683],[134.381047,33.919084],[134.381331,33.919484],[134.381558,33.919773],[134.381679,33.919887],[134.381698,33.919906],[134.381285,33.92048],[134.380919,33.920873],[134.380471,33.921244],[134.379187,33.922092],[134.378455,33.922347],[134.377462,33.92278],[134.377283,33.923078],[134.377137,33.9237],[134.376994,33.924648],[134.377023,33.924983],[134.377071,33.92557],[134.377032,33.926001],[134.377068,33.926271],[134.376917,33.926614],[134.376649,33.926869],[134.376261,33.927239],[134.376025,33.927448],[134.375684,33.927794],[134.375407,33.9281],[134.374823,33.92874],[134.37453,33.929051],[134.374431,33.929156],[134.374035,33.929459],[134.373797,33.929645],[134.373004,33.929737],[134.372501,33.929722],[134.371823,33.929691],[134.371299,33.929694],[134.370666,33.929735],[134.370122,33.929976],[134.369648,33.930346],[134.369364,33.930395],[134.369351,33.930398],[134.369027,33.930427],[134.368879,33.930474],[134.368491,33.930597],[134.367984,33.930812],[134.367585,33.931047],[134.367187,33.931304],[134.366873,33.931628],[134.366511,33.932133],[134.366228,33.932569],[134.366029,33.933071],[134.365882,33.933637]]]},"properties":{"S_NAME":"大字生実","HCODE":8101}},{"type":"Feature","geometry":{"type":"Polygon","coordinates":[[[134.398394,33.881907],[134.398027,33.882137],[134.397944,33.882189],[134.397276,33.882452],[134.3969,33.882551],[134.396256,33.882724],[134.395614,33.882964],[134.394903,33.883189],[134.394216,33.883343],[134.393648,33.883408],[134.393105,33.883486],[134.392516,33.883654],[134.392105,33.883806],[134.391378,33.884058],[134.390673,33.884244],[134.390199,33.884379],[134.389637,33.88459],[134.38929,33.884733],[134.388818,33.884854],[134.388351,33.88503],[134.387625,33.885362],[134.387304,33.885454],[134.386924,33.88544],[134.386681,33.885467],[134.386059,33.885504],[134.385226,33.88568],[134.384146,33.885795],[134.383098,33.886021],[134.381721,33.886142],[134.381435,33.885718],[134.381123,33.885318],[134.38073,33.88492],[134.380482,33.88479],[134.380172,33.884457],[134.380058,33.884279],[134.380022,33.884031],[134.380256,33.883754],[134.380618,33.883472],[134.380834,33.883196],[134.379856,33.883152],[134.379337,33.883005],[134.378628,33.882863],[134.377865,33.882744],[134.37705,33.882671],[134.376314,33.882529],[134.375795,33.882405],[134.375164,33.882192],[134.374776,33.881929],[134.374157,33.881771],[134.373986,33.881788],[134.373687,33.881772],[134.373363,33.881779],[134.373146,33.881784],[134.372878,33.88188],[134.372505,33.882047],[134.372296,33.882255],[134.372014,33.882735],[134.371679,33.883218],[134.371468,33.883381],[134.37118,33.883738],[134.370839,33.884006],[134.370494,33.884194],[134.369825,33.884435],[134.369181,33.88463],[134.368482,33.884758],[134.368025,33.884859],[134.367513,33.884938],[134.366921,33.885064],[134.366463,33.885119],[134.36601,33.885355],[134.3659,33.885416],[134.365452,33.885661],[134.365135,33.885894],[134.36484,33.885991],[134.364488,33.885999],[134.364006,33.886145],[134.36324,33.886337],[134.362726,33.886575],[134.362357,33.887165],[134.362278,33.887879],[134.362004,33.888563],[134.361773,33.888953],[134.361591,33.889183],[134.361409,33.88939],[134.361145,33.889599],[134.360607,33.889702],[134.359983,33.88967],[134.359442,33.889704],[134.358688,33.889811],[134.357879,33.889942],[134.357077,33.890231],[134.356356,33.89054],[134.355691,33.890894],[134.355083,33.891337],[134.354636,33.891731],[134.354081,33.892128],[134.353077,33.892873],[134.352736,33.893142],[134.352706,33.893166],[134.352576,33.893268],[134.352072,33.893573],[134.351303,33.894065],[134.350182,33.894564],[134.349379,33.89483],[134.34863,33.895118],[134.347864,33.8953],[134.34712,33.895535],[134.346329,33.895852],[134.345954,33.89608],[134.345637,33.896313],[134.345452,33.896453],[134.345205,33.896623],[134.344823,33.896263],[134.344456,33.895841],[134.344122,33.895577],[134.343657,33.895451],[134.343082,33.895283],[134.342429,33.89504],[134.341681,33.89487],[134.341049,33.894874],[134.340368,33.894946],[134.339914,33.89499],[134.33959,33.894965],[134.339252,33.894959],[134.338815,33.894878],[134.338276,33.894935],[134.337412,33.895044],[134.337033,33.895084],[134.336563,33.895168],[134.335883,33.895268],[134.335367,33.895528],[134.335075,33.895614],[134.334692,33.89551],[134.334456,33.894852],[134.334195,33.894292],[134.333815,33.893511],[134.333519,33.893121],[134.333223,33.892718],[134.332538,33.89229],[134.332246,33.89208],[134.331714,33.891594],[134.331416,33.891399],[134.331243,33.891287],[134.330852,33.890934],[134.330454,33.890377],[134.330009,33.890025],[134.329511,33.889742],[134.328849,33.889394],[134.328158,33.888979],[134.327386,33.888566],[134.326498,33.887952],[134.325746,33.887358],[134.325206,33.88693],[134.325217,33.886925],[134.325329,33.886425],[134.325354,33.88505],[134.325442,33.884175],[134.325604,33.883542],[134.325817,33.883092],[134.326042,33.882775],[134.326042,33.882734],[134.325842,33.882484],[134.325404,33.882234],[134.324917,33.881876],[134.324365,33.881243],[134.32368,33.880459],[134.32368,33.880417],[134.323592,33.880326],[134.323587,33.880192],[134.323518,33.880088],[134.323265,33.879676],[134.322796,33.879349],[134.322671,33.879284],[134.322443,33.87906],[134.322351,33.878872],[134.322178,33.878562],[134.32207,33.878158],[134.321977,33.877895],[134.322043,33.877725],[134.32211,33.87763],[134.322222,33.877545],[134.322542,33.877326],[134.322767,33.87706],[134.323067,33.87681],[134.323692,33.876627],[134.324318,33.876384],[134.32438,33.87636],[134.325317,33.875685],[134.32578,33.875252],[134.325955,33.875052],[134.326167,33.874577],[134.326142,33.874219],[134.326029,33.873927],[134.326254,33.873136],[134.326279,33.872727],[134.326079,33.872277],[134.326192,33.871286],[134.326192,33.871019],[134.326105,33.870453],[134.32608,33.86987],[134.326305,33.86942],[134.326879,33.868811],[134.327155,33.868403],[134.327205,33.86802],[134.327155,33.867545],[134.32748,33.866262],[134.327505,33.865612],[134.327317,33.865229],[134.327205,33.865162],[134.326492,33.865112],[134.32638,33.86482],[134.326422,33.864382],[134.32643,33.864304],[134.32668,33.863962],[134.326792,33.863896],[134.327205,33.863871],[134.32803,33.863937],[134.329729,33.863829],[134.330642,33.863962],[134.330917,33.864029],[134.332204,33.864096],[134.332942,33.864204],[134.333167,33.864321],[134.333829,33.864479],[134.334679,33.864562],[134.335416,33.864704],[134.335854,33.864704],[134.335916,33.864679],[134.336329,33.864246],[134.336904,33.863888],[134.337091,33.863346],[134.337091,33.862738],[134.337229,33.862263],[134.338354,33.86143],[134.338791,33.860888],[134.339241,33.860621],[134.340528,33.860438],[134.341216,33.860147],[134.341541,33.859713],[134.341703,33.85963],[134.342803,33.859472],[134.343716,33.859622],[134.344866,33.859538],[134.345915,33.859513],[134.346265,33.85953],[134.34684,33.859397],[134.347203,33.858855],[134.34769,33.858605],[134.348105,33.858583],[134.348465,33.858564],[134.34934,33.858272],[134.350154,33.858061],[134.350915,33.857974],[134.351799,33.85757],[134.352177,33.856556],[134.351702,33.855906],[134.351565,33.855431],[134.351478,33.854956],[134.351728,33.854348],[134.351703,33.853315],[134.35164,33.85309],[134.351203,33.85259],[134.350878,33.851732],[134.351015,33.850882],[134.350565,33.850023],[134.350873,33.850037],[134.351422,33.850067],[134.351734,33.850152],[134.352045,33.850236],[134.352347,33.850355],[134.352656,33.850529],[134.352813,33.850649],[134.353146,33.850837],[134.353291,33.850845],[134.353601,33.850791],[134.353807,33.850686],[134.353952,33.850676],[134.354056,33.850684],[134.354305,33.850751],[134.354513,33.850836],[134.354742,33.850964],[134.354902,33.851026],[134.355237,33.851051],[134.355485,33.851032],[134.355899,33.851012],[134.356147,33.850984],[134.356478,33.850905],[134.356725,33.850816],[134.356829,33.850773],[134.356962,33.850677],[134.357116,33.850512],[134.357384,33.850406],[134.357673,33.850283],[134.35792,33.850221],[134.358291,33.850046],[134.358508,33.849949],[134.358817,33.849809],[134.359002,33.849695],[134.359269,33.849387],[134.359389,33.849024],[134.359664,33.848799],[134.360627,33.848616],[134.360764,33.848641],[134.361089,33.848799],[134.361202,33.848957],[134.361364,33.849091],[134.362601,33.849516],[134.363072,33.849713],[134.363926,33.849857],[134.364526,33.849949],[134.365213,33.85019],[134.365763,33.850624],[134.366201,33.851207],[134.366726,33.85159],[134.367851,33.851899],[134.368538,33.852215],[134.369225,33.852807],[134.369863,33.853115],[134.371287,33.853973],[134.372312,33.854473],[134.373157,33.854903],[134.373674,33.855356],[134.374287,33.855581],[134.374808,33.855771],[134.376211,33.856006],[134.376761,33.856115],[134.377274,33.856273],[134.377479,33.856267],[134.377528,33.856266],[134.377861,33.856256],[134.378099,33.85614],[134.378151,33.856331],[134.378315,33.85658],[134.378568,33.8569],[134.378895,33.857168],[134.379259,33.857353],[134.379534,33.857465],[134.379912,33.857806],[134.380464,33.858114],[134.380671,33.858169],[134.381054,33.858273],[134.381414,33.858514],[134.381853,33.858663],[134.382136,33.859018],[134.382585,33.859483],[134.382947,33.859769],[134.383855,33.860202],[134.38427,33.860441],[134.384844,33.86061],[134.385413,33.86062],[134.385902,33.860654],[134.386419,33.860733],[134.386748,33.860839],[134.386998,33.861037],[134.387173,33.861395],[134.387616,33.861679],[134.388028,33.861828],[134.388529,33.862224],[134.388896,33.862669],[134.389029,33.862789],[134.389288,33.863022],[134.38959,33.863151],[134.389943,33.863188],[134.3903,33.863316],[134.390447,33.863376],[134.390877,33.863552],[134.391537,33.863854],[134.392139,33.864044],[134.392631,33.864169],[134.393131,33.86452],[134.39341,33.864763],[134.393846,33.864843],[134.394363,33.8649],[134.395238,33.865152],[134.395712,33.865548],[134.396036,33.866287],[134.396024,33.86674],[134.395927,33.867059],[134.395913,33.867443],[134.39603,33.867667],[134.396443,33.867884],[134.396794,33.867831],[134.397061,33.867735],[134.39744,33.867726],[134.39774,33.867787],[134.398317,33.868023],[134.39865,33.868265],[134.399093,33.868526],[134.399558,33.868674],[134.399944,33.868869],[134.400332,33.869132],[134.400858,33.86946],[134.401305,33.869834],[134.401535,33.870236],[134.401632,33.870476],[134.401749,33.870705],[134.401866,33.870933],[134.401981,33.871149],[134.402031,33.871243],[134.402146,33.871444],[134.402155,33.871693],[134.402286,33.872237],[134.402227,33.873173],[134.402027,33.874311],[134.401529,33.874792],[134.401236,33.875271],[134.401172,33.875711],[134.401362,33.876377],[134.40157,33.877047],[134.401623,33.877215],[134.401721,33.877845],[134.401727,33.878417],[134.40155,33.878991],[134.401447,33.879131],[134.401078,33.879632],[134.400816,33.879886],[134.400502,33.88021],[134.399977,33.880696],[134.399424,33.881138],[134.398976,33.88151],[134.398394,33.881907]]]},"properties":{"S_NAME":"大字旭","HCODE":8101}}]}