{"type":"FeatureCollection","features":[{"type":"Feature","geometry":{"type":"Polygon","coordinates":[[[134.535319,33.955343],[134.535295,33.955361],[134.5352,33.955677],[134.535002,33.956257],[134.534856,33.956464],[134.534802,33.956663],[134.534785,33.956819],[134.5346,33.956977],[134.534453,33.957042],[134.534348,33.957306],[134.534218,33.957806],[134.534078,33.95826],[134.533816,33.95851],[134.533348,33.958577],[134.533298,33.958668],[134.533121,33.959228],[134.533031,33.959431],[134.532906,33.95954],[134.532356,33.959906],[134.532053,33.960058],[134.531461,33.960321],[134.531068,33.960464],[134.530658,33.960495],[134.530263,33.960471],[134.530031,33.960481],[134.529929,33.960557],[134.529709,33.960779],[134.529634,33.960828],[134.529508,33.960808],[134.528986,33.960666],[134.528919,33.960653],[134.528295,33.960393],[134.527872,33.960082],[134.527678,33.960007],[134.527377,33.960016],[134.526941,33.960097],[134.52674,33.960185],[134.526025,33.960268],[134.525544,33.960072],[134.524276,33.960216],[134.524058,33.960246],[134.523608,33.960459],[134.523185,33.960861],[134.523103,33.961036],[134.522929,33.961205],[134.522771,33.961318],[134.522529,33.961411],[134.522232,33.961838],[134.521562,33.962605],[134.521359,33.962668],[134.52101,33.962728],[134.520855,33.962722],[134.52064,33.962748],[134.520547,33.962793],[134.520474,33.962899],[134.520346,33.963096],[134.520265,33.963157],[134.520161,33.963195],[134.519562,33.963235],[134.519377,33.96325],[134.51857,33.963138],[134.517716,33.962952],[134.517437,33.962954],[134.517218,33.962949],[134.516922,33.962909],[134.516448,33.962737],[134.515216,33.962375],[134.514936,33.96229],[134.514675,33.96231],[134.514341,33.962377],[134.513585,33.962675],[134.513514,33.962718],[134.513467,33.962718],[134.513391,33.962648],[134.513093,33.962426],[134.51272,33.962282],[134.512326,33.962194],[134.511921,33.962151],[134.511451,33.962192],[134.510357,33.962061],[134.51015,33.962072],[134.509833,33.96218],[134.50964,33.9623],[134.509589,33.962331],[134.50938,33.962475],[134.509145,33.962748],[134.508655,33.963188],[134.508537,33.963254],[134.508391,33.963324],[134.508146,33.963414],[134.508034,33.963465],[134.507852,33.963569],[134.50767,33.963676],[134.507558,33.963712],[134.507454,33.963783],[134.507292,33.963816],[134.507253,33.963826],[134.507179,33.964072],[134.507061,33.96451],[134.506846,33.965013],[134.5067,33.965141],[134.506587,33.965254],[134.506446,33.965284],[134.505998,33.965327],[134.504784,33.966096],[134.504296,33.96618],[134.503446,33.96643],[134.502896,33.96663],[134.502651,33.96679],[134.502576,33.966862],[134.502345,33.967395],[134.502134,33.967521],[134.501954,33.967672],[134.501621,33.967801],[134.501416,33.967865],[134.501359,33.967955],[134.501046,33.96838],[134.500909,33.968796],[134.500912,33.969092],[134.500769,33.969358],[134.50061,33.969558],[134.500459,33.969613],[134.500184,33.969638],[134.500152,33.969674],[134.49999,33.969702],[134.499807,33.969677],[134.499409,33.969454],[134.499198,33.969394],[134.49814,33.96942],[134.49774,33.969343],[134.497422,33.969413],[134.497261,33.969495],[134.497112,33.969667],[134.496834,33.969957],[134.496188,33.970088],[134.495873,33.969974],[134.495331,33.969816],[134.494509,33.969463],[134.494097,33.969121],[134.493747,33.968605],[134.493384,33.968196],[134.493134,33.968063],[134.492447,33.967838],[134.492344,33.967831],[134.492033,33.968085],[134.491669,33.968349],[134.491139,33.968767],[134.491021,33.968826],[134.49079,33.968869],[134.490497,33.968781],[134.490247,33.968639],[134.490122,33.968613],[134.489925,33.968622],[134.48966,33.968565],[134.488885,33.968324],[134.48876,33.968249],[134.488699,33.968141],[134.488588,33.967886],[134.488528,33.967819],[134.488322,33.967749],[134.488181,33.967701],[134.487934,33.967549],[134.48779,33.967461],[134.487653,33.967345],[134.487145,33.967032],[134.486983,33.967043],[134.486887,33.967077],[134.486813,33.96726],[134.486805,33.967424],[134.486753,33.967505],[134.486637,33.967639],[134.486554,33.967765],[134.486502,33.967788],[134.486419,33.967789],[134.486296,33.967762],[134.48583,33.967544],[134.485022,33.967188],[134.484849,33.967121],[134.484648,33.967055],[134.48446,33.967032],[134.484299,33.96703],[134.48406,33.967055],[134.483548,33.967213],[134.483298,33.96708],[134.483023,33.96663],[134.482635,33.966138],[134.482573,33.965663],[134.482573,33.96508],[134.482335,33.964647],[134.481998,33.964605],[134.481098,33.96458],[134.479586,33.964363],[134.479273,33.964563],[134.478811,33.964988],[134.478352,33.965141],[134.478261,33.965172],[134.478221,33.965204],[134.477911,33.965463],[134.477436,33.965713],[134.476998,33.96603],[134.476586,33.96648],[134.476511,33.96648],[134.476173,33.966097],[134.475786,33.965847],[134.475948,33.965422],[134.476286,33.96488],[134.476422,33.964344],[134.476423,33.964339],[134.476361,33.964088],[134.476086,33.963464],[134.475674,33.963014],[134.475074,33.962697],[134.474661,33.96238],[134.474549,33.962247],[134.474274,33.960964],[134.474049,33.960306],[134.473661,33.959547],[134.473136,33.958822],[134.472924,33.958597],[134.472262,33.958081],[134.471874,33.957514],[134.471437,33.957139],[134.470749,33.956864],[134.470274,33.956481],[134.470037,33.955964],[134.470037,33.954681],[134.469924,33.954098],[134.469739,33.953672],[134.469649,33.953465],[134.469199,33.952898],[134.468687,33.952407],[134.468162,33.95209],[134.467587,33.951932],[134.466237,33.951782],[134.465462,33.951573],[134.464725,33.951307],[134.464571,33.951261],[134.464112,33.951123],[134.4634,33.951148],[134.462687,33.951332],[134.462112,33.951648],[134.46165,33.952123],[134.461371,33.952243],[134.460925,33.952282],[134.4598,33.952098],[134.459225,33.952215],[134.458538,33.952257],[134.457663,33.952082],[134.456863,33.951965],[134.456838,33.95194],[134.456225,33.952098],[134.455325,33.952507],[134.454875,33.952648],[134.454313,33.952823],[134.453263,33.953048],[134.4523,33.95314],[134.451975,33.953257],[134.451263,33.95359],[134.450995,33.953674],[134.450813,33.953732],[134.450601,33.953748],[134.450026,33.953957],[134.449313,33.954382],[134.447163,33.955357],[134.446363,33.955607],[134.446126,33.955623],[134.444363,33.954523],[134.443951,33.954424],[134.443813,33.95439],[134.44375,33.95439],[134.442164,33.95439],[134.441176,33.954457],[134.440464,33.954323],[134.439664,33.954032],[134.438776,33.953849],[134.437601,33.953899],[134.437401,33.953965],[134.436551,33.954507],[134.435814,33.954465],[134.435289,33.954557],[134.434851,33.954799],[134.433752,33.95519],[134.432677,33.955815],[134.432189,33.956315],[134.431802,33.956807],[134.431639,33.957307],[134.431227,33.956882],[134.431202,33.95584],[134.430977,33.95544],[134.430839,33.955257],[134.430677,33.95469],[134.430427,33.954082],[134.430427,33.953524],[134.430264,33.952757],[134.430265,33.952057],[134.430315,33.951382],[134.430265,33.950774],[134.430152,33.950191],[134.430315,33.949716],[134.430427,33.949016],[134.43029,33.948499],[134.430252,33.948066],[134.43004,33.947733],[134.430015,33.946808],[134.430065,33.946675],[134.430802,33.945591],[134.431052,33.94505],[134.431002,33.9437],[134.431652,33.942184],[134.432015,33.941692],[134.43199,33.94135],[134.43209,33.941192],[134.432152,33.940609],[134.432015,33.939959],[134.431702,33.939442],[134.431515,33.938942],[134.43119,33.938426],[134.431152,33.937909],[134.431015,33.937684],[134.430853,33.937014],[134.430768,33.936703],[134.430721,33.93656],[134.430667,33.936433],[134.430648,33.936342],[134.430646,33.93618],[134.430711,33.935876],[134.43075,33.935716],[134.43079,33.935606],[134.430848,33.935477],[134.430929,33.93533],[134.430956,33.935288],[134.430992,33.935257],[134.431112,33.935196],[134.431274,33.935112],[134.431419,33.935061],[134.432255,33.934896],[134.432641,33.934803],[134.432717,33.934776],[134.433112,33.93446],[134.433133,33.934445],[134.43316,33.93442],[134.433186,33.934392],[134.433258,33.934307],[134.433327,33.934301],[134.43379,33.933985],[134.433877,33.933826],[134.433842,33.933529],[134.433766,33.933252],[134.433602,33.932993],[134.432965,33.932452],[134.431815,33.931868],[134.431559,33.931701],[134.431452,33.931553],[134.431427,33.931444],[134.431479,33.931243],[134.43154,33.93101],[134.431815,33.93036],[134.432252,33.929544],[134.432527,33.929369],[134.432915,33.929452],[134.434177,33.929635],[134.43434,33.929744],[134.434777,33.929952],[134.435052,33.929952],[134.43514,33.929902],[134.435302,33.929635],[134.435439,33.929094],[134.435514,33.929002],[134.435602,33.928894],[134.436067,33.928597],[134.436177,33.928527],[134.437002,33.928302],[134.438377,33.928169],[134.439242,33.928129],[134.439604,33.927929],[134.439705,33.927883],[134.440381,33.927746],[134.440506,33.92775],[134.442738,33.928234],[134.443041,33.928291],[134.443276,33.928314],[134.443567,33.928325],[134.443994,33.928256],[134.44516,33.927899],[134.445729,33.927644],[134.446915,33.926885],[134.447166,33.926702],[134.447235,33.926612],[134.44725,33.926541],[134.447228,33.926466],[134.446944,33.925721],[134.446532,33.925168],[134.446349,33.924822],[134.446224,33.924266],[134.446241,33.924187],[134.446306,33.924132],[134.446425,33.924121],[134.447209,33.924348],[134.447317,33.924357],[134.447347,33.924357],[134.447412,33.924327],[134.447459,33.924252],[134.447511,33.923913],[134.44763,33.92377],[134.44782,33.923727],[134.449868,33.923815],[134.450179,33.923786],[134.45037,33.923715],[134.450509,33.923645],[134.45063,33.923543],[134.450657,33.923446],[134.450577,33.923341],[134.450385,33.923225],[134.450243,33.923126],[134.450181,33.923001],[134.450152,33.922189],[134.450219,33.92192],[134.450398,33.921743],[134.450573,33.921604],[134.450693,33.921536],[134.450924,33.921501],[134.451145,33.921499],[134.451357,33.921522],[134.451669,33.92162],[134.451892,33.921702],[134.451952,33.921693],[134.452003,33.921656],[134.452029,33.921592],[134.452049,33.921533],[134.452064,33.921418],[134.452047,33.921307],[134.451886,33.920819],[134.451862,33.920343],[134.452001,33.919812],[134.452138,33.919545],[134.452551,33.918645],[134.453238,33.917737],[134.453513,33.917112],[134.453538,33.916454],[134.453401,33.915846],[134.453097,33.915433],[134.453038,33.915354],[134.452988,33.915329],[134.452788,33.915379],[134.452351,33.915696],[134.45219,33.915762],[134.452115,33.915766],[134.452051,33.915745],[134.452021,33.915724],[134.451943,33.915673],[134.451826,33.915554],[134.451726,33.915479],[134.451646,33.915381],[134.451549,33.915182],[134.451407,33.915033],[134.451367,33.914968],[134.45136,33.914894],[134.451429,33.91476],[134.451429,33.914718],[134.451314,33.914523],[134.451349,33.914334],[134.451336,33.914189],[134.451226,33.913882],[134.451184,33.913672],[134.451194,33.913546],[134.45126,33.913415],[134.451268,33.913357],[134.45125,33.913273],[134.451112,33.912989],[134.451038,33.912897],[134.450914,33.9128],[134.45082,33.9127],[134.45078,33.912616],[134.450785,33.912537],[134.45093,33.912216],[134.45094,33.912151],[134.450916,33.911936],[134.450842,33.911876],[134.450201,33.911666],[134.450035,33.9116],[134.449865,33.911433],[134.449752,33.911369],[134.449623,33.911337],[134.449316,33.911286],[134.449215,33.911245],[134.449097,33.911166],[134.44905,33.911045],[134.449015,33.910845],[134.449042,33.910789],[134.449109,33.910756],[134.449455,33.910678],[134.450043,33.910622],[134.450267,33.910597],[134.450502,33.910539],[134.450818,33.910437],[134.450901,33.910413],[134.450985,33.910403],[134.451429,33.910502],[134.451491,33.910501],[134.451547,33.910482],[134.451786,33.910317],[134.451945,33.910258],[134.452309,33.910176],[134.452516,33.910141],[134.452712,33.91014],[134.452744,33.910051],[134.452783,33.909995],[134.452888,33.909896],[134.452973,33.909859],[134.45305,33.90982],[134.453125,33.909772],[134.453201,33.909713],[134.453285,33.90964],[134.453372,33.909556],[134.453452,33.909476],[134.45351,33.909409],[134.453558,33.909351],[134.453604,33.909291],[134.453646,33.909228],[134.453658,33.909199],[134.453664,33.909171],[134.45366,33.909144],[134.453647,33.909121],[134.453625,33.909097],[134.453563,33.909045],[134.453478,33.90898],[134.45338,33.90891],[134.453276,33.908843],[134.453221,33.908813],[134.453166,33.908785],[134.453048,33.908735],[134.452921,33.908693],[134.452799,33.908663],[134.452702,33.908644],[134.452626,33.908636],[134.452557,33.908626],[134.452519,33.908616],[134.452482,33.908604],[134.452448,33.90859],[134.452421,33.908574],[134.452404,33.90856],[134.4524,33.908545],[134.452406,33.908529],[134.452444,33.908489],[134.45247,33.90846],[134.452527,33.908381],[134.452581,33.90828],[134.452606,33.908225],[134.452644,33.908109],[134.452656,33.908051],[134.452662,33.907991],[134.452663,33.907932],[134.452657,33.907873],[134.452639,33.907757],[134.452632,33.9077],[134.452631,33.907645],[134.452637,33.907591],[134.452664,33.907487],[134.45269,33.90739],[134.452694,33.907344],[134.452693,33.907299],[134.452687,33.907252],[134.452665,33.907151],[134.452632,33.907035],[134.452602,33.906919],[134.452587,33.906821],[134.452582,33.906737],[134.452576,33.906693],[134.452565,33.906642],[134.452517,33.906517],[134.452484,33.906449],[134.452446,33.906381],[134.452407,33.906316],[134.452365,33.906257],[134.452322,33.906203],[134.452278,33.906153],[134.452227,33.906102],[134.452095,33.905975],[134.452054,33.905936],[134.452005,33.905888],[134.451963,33.905842],[134.451924,33.905794],[134.451888,33.905743],[134.451825,33.905634],[134.451771,33.90551],[134.451722,33.905374],[134.451677,33.905235],[134.45163,33.905098],[134.451588,33.904972],[134.451562,33.904863],[134.451556,33.904815],[134.451556,33.904769],[134.451563,33.904723],[134.451577,33.904676],[134.451599,33.904627],[134.451659,33.904525],[134.451729,33.904431],[134.451797,33.90435],[134.451866,33.904271],[134.451945,33.90418],[134.452028,33.904076],[134.452094,33.903977],[134.452114,33.903934],[134.452128,33.903893],[134.452135,33.903853],[134.452137,33.90376],[134.452132,33.903635],[134.452124,33.903492],[134.452115,33.903346],[134.452109,33.9032],[134.452111,33.903126],[134.452116,33.903049],[134.452126,33.902967],[134.452156,33.902798],[134.452186,33.902627],[134.452207,33.90246],[134.452232,33.90229],[134.452252,33.902199],[134.452277,33.902104],[134.452336,33.901908],[134.452388,33.901723],[134.452403,33.90164],[134.452453,33.901425],[134.452464,33.901357],[134.45247,33.90129],[134.452466,33.901228],[134.452437,33.901151],[134.452406,33.901062],[134.452373,33.900947],[134.452341,33.900826],[134.452314,33.900728],[134.452308,33.900682],[134.452309,33.900627],[134.452317,33.900572],[134.452333,33.900517],[134.452353,33.900467],[134.452397,33.900369],[134.452412,33.900315],[134.452424,33.900261],[134.45243,33.900215],[134.45243,33.900175],[134.452427,33.900138],[134.452417,33.900035],[134.452403,33.899909],[134.45238,33.899808],[134.452362,33.89971],[134.452359,33.899657],[134.45236,33.899607],[134.452366,33.899562],[134.452377,33.899521],[134.452391,33.899476],[134.452424,33.899373],[134.452445,33.899321],[134.452468,33.899273],[134.452521,33.899191],[134.452561,33.899119],[134.452573,33.899091],[134.452574,33.899069],[134.452569,33.899053],[134.452562,33.899042],[134.452542,33.899022],[134.452523,33.89901],[134.452459,33.898976],[134.452426,33.898963],[134.452391,33.898952],[134.452306,33.898925],[134.452235,33.898904],[134.452128,33.898869],[134.452023,33.898828],[134.451916,33.898787],[134.451807,33.898753],[134.451707,33.898718],[134.451636,33.898691],[134.451539,33.898651],[134.451451,33.898614],[134.451332,33.898569],[134.451274,33.89854],[134.451223,33.898511],[134.451185,33.898485],[134.451162,33.898465],[134.451147,33.898448],[134.451135,33.898426],[134.45109,33.898352],[134.451034,33.898254],[134.450985,33.898164],[134.450973,33.898144],[134.450939,33.898118],[134.450903,33.8981],[134.450818,33.89806],[134.450671,33.897998],[134.450594,33.897965],[134.450556,33.897942],[134.450425,33.897848],[134.45036,33.897796],[134.450308,33.897751],[134.45022,33.897666],[134.450098,33.897557],[134.449976,33.897445],[134.449926,33.897393],[134.449833,33.897295],[134.449753,33.897212],[134.449696,33.897151],[134.449671,33.897113],[134.449615,33.897004],[134.44959,33.89694],[134.44958,33.896913],[134.449573,33.896875],[134.449568,33.896764],[134.449561,33.896626],[134.449553,33.89658],[134.449542,33.896548],[134.449515,33.896497],[134.449476,33.896439],[134.449446,33.896407],[134.449366,33.896333],[134.449316,33.896293],[134.449213,33.896212],[134.449125,33.896147],[134.449094,33.896114],[134.449068,33.89608],[134.44905,33.896044],[134.449037,33.896008],[134.449019,33.895941],[134.449009,33.895853],[134.448997,33.895752],[134.44898,33.895677],[134.448967,33.895627],[134.448956,33.895592],[134.448927,33.895564],[134.448881,33.895531],[134.448813,33.89548],[134.448719,33.895405],[134.448632,33.895324],[134.448553,33.895236],[134.448458,33.895125],[134.448384,33.895028],[134.448364,33.894991],[134.44834,33.894931],[134.448333,33.894898],[134.448318,33.894803],[134.4483,33.894685],[134.448288,33.894628],[134.44828,33.894591],[134.448256,33.8945],[134.448225,33.894403],[134.448186,33.894318],[134.448139,33.894224],[134.448085,33.894124],[134.448034,33.894047],[134.448,33.893988],[134.447989,33.893961],[134.447976,33.893897],[134.44797,33.893822],[134.447962,33.893749],[134.447962,33.893653],[134.447967,33.893543],[134.447965,33.893496],[134.447956,33.893423],[134.447938,33.893379],[134.447914,33.893342],[134.447867,33.893291],[134.44778,33.89322],[134.447703,33.893151],[134.447677,33.893122],[134.447633,33.893071],[134.447589,33.893018],[134.447535,33.892953],[134.447495,33.892915],[134.447382,33.892836],[134.447329,33.892797],[134.447289,33.892761],[134.447229,33.892693],[134.447196,33.892665],[134.447121,33.892619],[134.447056,33.892595],[134.446993,33.89258],[134.446934,33.892573],[134.446878,33.892571],[134.4468,33.892559],[134.446692,33.892534],[134.446667,33.892527],[134.446641,33.892519],[134.446622,33.892507],[134.446615,33.892496],[134.446599,33.892467],[134.446593,33.892455],[134.44648,33.892262],[134.446436,33.892162],[134.446394,33.892077],[134.446372,33.892041],[134.446348,33.892011],[134.44632,33.891985],[134.446263,33.891944],[134.446211,33.891912],[134.446173,33.891879],[134.446088,33.891771],[134.446034,33.891703],[134.445968,33.891636],[134.445917,33.891577],[134.445871,33.891521],[134.44581,33.891459],[134.445719,33.891384],[134.445618,33.891311],[134.445532,33.891254],[134.445461,33.89121],[134.445426,33.891185],[134.445388,33.891153],[134.445294,33.891065],[134.445194,33.890962],[134.445107,33.890865],[134.445036,33.890781],[134.444976,33.8907],[134.44492,33.890613],[134.444872,33.890523],[134.444831,33.890435],[134.444797,33.890351],[134.444763,33.890278],[134.444742,33.890245],[134.444719,33.890215],[134.444688,33.890184],[134.44465,33.890151],[134.444542,33.890076],[134.444474,33.890035],[134.444402,33.889996],[134.444331,33.889963],[134.444265,33.889939],[134.444207,33.889925],[134.444127,33.889913],[134.444078,33.889908],[134.444107,33.889773],[134.444124,33.889683],[134.444142,33.88959],[134.444152,33.889498],[134.444152,33.889409],[134.444143,33.88932],[134.444121,33.88923],[134.444091,33.88914],[134.444061,33.88906],[134.444035,33.888996],[134.444013,33.888942],[134.44396,33.888834],[134.443928,33.888775],[134.443893,33.888709],[134.44388,33.888675],[134.443875,33.888641],[134.443877,33.888606],[134.44389,33.888571],[134.443914,33.888537],[134.443946,33.888504],[134.443985,33.888471],[134.444076,33.888412],[134.444173,33.888356],[134.444219,33.888329],[134.444261,33.8883],[134.444296,33.888268],[134.444358,33.888194],[134.444425,33.888101],[134.444511,33.887985],[134.444527,33.887963],[134.4446,33.887866],[134.444671,33.887764],[134.444725,33.88768],[134.44478,33.887595],[134.444852,33.887495],[134.444942,33.887383],[134.445038,33.887272],[134.445134,33.887168],[134.445219,33.887067],[134.445254,33.887018],[134.445314,33.886919],[134.445369,33.88681],[134.445426,33.886689],[134.445486,33.886562],[134.445547,33.886443],[134.445578,33.886387],[134.445647,33.886276],[134.445722,33.886167],[134.445728,33.886158],[134.445785,33.886078],[134.445819,33.886031],[134.445906,33.885903],[134.445978,33.885781],[134.44602,33.885701],[134.446134,33.885497],[134.446208,33.885368],[134.446282,33.885238],[134.446323,33.885175],[134.446366,33.885115],[134.446412,33.885059],[134.44651,33.884957],[134.446557,33.884906],[134.4466,33.884852],[134.446636,33.884797],[134.446695,33.884685],[134.44675,33.884584],[134.446778,33.884544],[134.446842,33.884473],[134.446918,33.884397],[134.447,33.884305],[134.447041,33.884253],[134.447075,33.8842],[134.447104,33.884147],[134.447121,33.884097],[134.447133,33.884048],[134.44714,33.883951],[134.447143,33.88385],[134.447151,33.883749],[134.447167,33.883662],[134.447178,33.883629],[134.447205,33.883574],[134.447235,33.883526],[134.447302,33.883434],[134.447358,33.883332],[134.447408,33.883246],[134.447456,33.883168],[134.447504,33.883095],[134.447549,33.883024],[134.447601,33.882958],[134.447663,33.882896],[134.447735,33.88284],[134.447774,33.882815],[134.447856,33.882769],[134.447938,33.882725],[134.447983,33.882701],[134.448027,33.882672],[134.448115,33.882601],[134.448158,33.882561],[134.448236,33.882477],[134.448296,33.882393],[134.448342,33.882319],[134.448381,33.882261],[134.448413,33.882214],[134.448424,33.88219],[134.448433,33.882164],[134.448437,33.882134],[134.448435,33.882063],[134.448424,33.881988],[134.448409,33.881914],[134.448395,33.881844],[134.448385,33.881777],[134.448383,33.881711],[134.448388,33.881644],[134.448398,33.881571],[134.448407,33.881503],[134.448408,33.881495],[134.448412,33.881456],[134.44841,33.881375],[134.448405,33.881335],[134.448396,33.881295],[134.448384,33.881258],[134.448366,33.881221],[134.448345,33.881186],[134.448319,33.881154],[134.448288,33.881124],[134.448253,33.881098],[134.448213,33.881074],[134.448126,33.881033],[134.448082,33.881014],[134.44804,33.880993],[134.447964,33.880944],[134.447894,33.880893],[134.447819,33.880849],[134.447738,33.880814],[134.447652,33.880781],[134.447564,33.880745],[134.447481,33.880706],[134.44741,33.880663],[134.447349,33.880617],[134.447295,33.880563],[134.447241,33.880497],[134.447186,33.880425],[134.447127,33.880348],[134.447063,33.880271],[134.446995,33.880196],[134.446923,33.880123],[134.44685,33.880056],[134.446775,33.879993],[134.446695,33.87993],[134.446592,33.879861],[134.446459,33.879778],[134.446307,33.879691],[134.446152,33.879609],[134.445952,33.879515],[134.445744,33.879422],[134.445644,33.879368],[134.445558,33.879311],[134.44548,33.879254],[134.445405,33.879196],[134.445331,33.87914],[134.445256,33.879087],[134.445178,33.879039],[134.445099,33.878994],[134.445016,33.878949],[134.445008,33.878944],[134.444934,33.878899],[134.444896,33.878868],[134.444821,33.8788],[134.44475,33.87872],[134.444678,33.878638],[134.444608,33.878558],[134.444541,33.878484],[134.444508,33.878453],[134.444442,33.878395],[134.444374,33.878341],[134.444368,33.878337],[134.444296,33.878288],[134.444219,33.878233],[134.444148,33.878174],[134.444081,33.878112],[134.444008,33.87805],[134.443966,33.878021],[134.443872,33.87796],[134.443781,33.877897],[134.443698,33.87783],[134.443628,33.877763],[134.443568,33.877703],[134.443517,33.877647],[134.443497,33.877618],[134.443458,33.87755],[134.443442,33.87751],[134.44342,33.877421],[134.443408,33.877323],[134.443407,33.877272],[134.44341,33.877171],[134.443413,33.877077],[134.443415,33.876991],[134.443417,33.87691],[134.443417,33.876833],[134.443412,33.876795],[134.443403,33.876759],[134.443387,33.876722],[134.443363,33.876686],[134.443332,33.876651],[134.443296,33.876617],[134.443218,33.876553],[134.443138,33.8765],[134.443066,33.876451],[134.443011,33.876404],[134.442989,33.876379],[134.442954,33.876325],[134.442939,33.876294],[134.44291,33.876227],[134.442889,33.876149],[134.442879,33.876063],[134.442879,33.876018],[134.442886,33.875925],[134.442896,33.875837],[134.442906,33.875758],[134.442906,33.875688],[134.442898,33.875657],[134.442887,33.875628],[134.442871,33.875601],[134.442834,33.875545],[134.442788,33.875486],[134.442737,33.875419],[134.442686,33.875345],[134.442637,33.875269],[134.442594,33.8752],[134.44256,33.875146],[134.442534,33.875095],[134.442511,33.875033],[134.442492,33.87496],[134.442473,33.874889],[134.442449,33.874833],[134.442433,33.874811],[134.442416,33.874791],[134.442396,33.874775],[134.442345,33.874751],[134.442286,33.874734],[134.442224,33.874719],[134.442151,33.874704],[134.442048,33.874685],[134.441899,33.874658],[134.441712,33.874621],[134.441499,33.874574],[134.441269,33.874519],[134.441006,33.874467],[134.440998,33.874466],[134.440912,33.87446],[134.440845,33.874455],[134.440794,33.874452],[134.440743,33.874449],[134.440678,33.874444],[134.440604,33.874435],[134.440527,33.874422],[134.440452,33.874406],[134.440376,33.874391],[134.440297,33.874379],[134.440219,33.874373],[134.440147,33.874375],[134.439234,33.874358],[134.439096,33.874353],[134.438967,33.874331],[134.438877,33.87431],[134.438784,33.874276],[134.438727,33.874239],[134.438656,33.874165],[134.438535,33.874035],[134.438431,33.873923],[134.43825,33.87375],[134.438128,33.873636],[134.438072,33.873586],[134.438023,33.873536],[134.437982,33.873486],[134.437943,33.873436],[134.437899,33.873396],[134.437777,33.873314],[134.437686,33.873239],[134.437624,33.873195],[134.437586,33.873172],[134.437544,33.873152],[134.437494,33.873133],[134.437382,33.873103],[134.437322,33.87309],[134.437196,33.873069],[134.43707,33.87305],[134.43695,33.873028],[134.436836,33.872997],[134.436782,33.872978],[134.43673,33.872957],[134.436679,33.872933],[134.43658,33.872878],[134.436489,33.872821],[134.436405,33.872771],[134.436327,33.872729],[134.436239,33.87269],[134.436133,33.872645],[134.43602,33.872603],[134.435916,33.872568],[134.43587,33.872554],[134.435825,33.872543],[134.435762,33.872534],[134.435746,33.872532],[134.435676,33.872529],[134.435646,33.872526],[134.435621,33.872518],[134.435601,33.872502],[134.435587,33.872476],[134.435579,33.872442],[134.435576,33.872403],[134.435577,33.872359],[134.435591,33.872271],[134.435616,33.872187],[134.435632,33.872148],[134.43567,33.872075],[134.435714,33.872008],[134.435759,33.87194],[134.4358,33.871866],[134.435837,33.87179],[134.435869,33.871714],[134.435897,33.871644],[134.435912,33.871611],[134.435947,33.871553],[134.435991,33.871506],[134.436038,33.871463],[134.436096,33.871418],[134.436148,33.871371],[134.436171,33.871348],[134.436189,33.871322],[134.436218,33.871271],[134.436243,33.871219],[134.436268,33.871168],[134.436294,33.871115],[134.436305,33.871087],[134.436322,33.871022],[134.436335,33.870952],[134.436351,33.87088],[134.436367,33.870806],[134.436378,33.870729],[134.436378,33.870646],[134.436371,33.870563],[134.43636,33.870484],[134.43635,33.870414],[134.43634,33.870347],[134.436331,33.870277],[134.436322,33.870203],[134.436307,33.87012],[134.436288,33.870029],[134.436283,33.869995],[134.436272,33.869937],[134.436259,33.86985],[134.436252,33.869808],[134.43623,33.869728],[134.436189,33.869653],[134.436141,33.869577],[134.436095,33.8695],[134.436077,33.869459],[134.436061,33.869416],[134.436051,33.86937],[134.436045,33.869319],[134.436043,33.869266],[134.436054,33.869151],[134.436072,33.869029],[134.43609,33.868909],[134.436111,33.868796],[134.436139,33.868697],[134.436167,33.868609],[134.436178,33.868567],[134.436186,33.868525],[134.43619,33.868482],[134.436189,33.868391],[134.436187,33.868296],[134.436189,33.868199],[134.436196,33.8681],[134.436199,33.868002],[134.436197,33.867906],[134.436191,33.867814],[134.436182,33.867726],[134.436173,33.86764],[134.436166,33.867552],[134.436159,33.86746],[134.43615,33.867361],[134.436133,33.867255],[134.436117,33.867148],[134.436111,33.86705],[134.436114,33.866964],[134.436118,33.866885],[134.436118,33.866811],[134.436113,33.866742],[134.436103,33.866685],[134.436096,33.866659],[134.436074,33.866614],[134.436058,33.866594],[134.43601,33.866556],[134.435981,33.866539],[134.435913,33.866508],[134.435838,33.866486],[134.435761,33.866466],[134.435688,33.866443],[134.435618,33.866414],[134.435557,33.86638],[134.435504,33.866344],[134.435459,33.866302],[134.435418,33.866252],[134.43538,33.866196],[134.435354,33.866142],[134.435338,33.866095],[134.435326,33.866044],[134.435308,33.865972],[134.435282,33.865882],[134.435259,33.86579],[134.435245,33.865713],[134.435237,33.865648],[134.435203,33.865496],[134.435164,33.865319],[134.435149,33.865226],[134.435135,33.865168],[134.435122,33.865118],[134.435108,33.865051],[134.4351,33.864977],[134.435096,33.864905],[134.435097,33.864842],[134.435099,33.86478],[134.435096,33.864713],[134.435091,33.864649],[134.435085,33.864589],[134.435077,33.864537],[134.435061,33.86449],[134.435032,33.864445],[134.435014,33.864424],[134.434968,33.864382],[134.43491,33.864339],[134.434848,33.864301],[134.434803,33.864279],[134.434785,33.86427],[134.434725,33.86425],[134.43467,33.864235],[134.434616,33.864221],[134.434557,33.864209],[134.434489,33.864196],[134.434412,33.864183],[134.434338,33.864171],[134.43427,33.864157],[134.43421,33.86414],[134.434147,33.864117],[134.434084,33.864086],[134.434027,33.864057],[134.433979,33.864031],[134.43394,33.864006],[134.433902,33.863976],[134.433866,33.86394],[134.433836,33.863905],[134.433812,33.863873],[134.433791,33.863837],[134.433766,33.863788],[134.433737,33.863725],[134.433711,33.863659],[134.43369,33.863598],[134.433674,33.86354],[134.433653,33.863482],[134.43363,33.863423],[134.43361,33.863367],[134.433598,33.863315],[134.433592,33.863267],[134.433591,33.863219],[134.433592,33.863169],[134.433591,33.863117],[134.433586,33.863061],[134.433573,33.863008],[134.433562,33.862985],[134.433546,33.862965],[134.433507,33.862933],[134.433459,33.862908],[134.433405,33.862884],[134.433344,33.862861],[134.433276,33.862844],[134.433198,33.862832],[134.43311,33.862824],[134.433012,33.862817],[134.432918,33.862812],[134.432843,33.862808],[134.432792,33.862802],[134.432754,33.862791],[134.432719,33.862772],[134.432691,33.862744],[134.43268,33.862727],[134.432671,33.862707],[134.43266,33.862661],[134.432651,33.862604],[134.432638,33.862535],[134.432626,33.86246],[134.432617,33.862386],[134.43261,33.862317],[134.432604,33.862251],[134.432593,33.862189],[134.432583,33.862133],[134.432575,33.862085],[134.432562,33.862043],[134.432551,33.862025],[134.432535,33.862006],[134.432511,33.861986],[134.432451,33.861948],[134.432389,33.861913],[134.432337,33.861885],[134.432286,33.861861],[134.432221,33.861839],[134.432138,33.861819],[134.432045,33.861803],[134.431947,33.861789],[134.431848,33.861778],[134.431752,33.861766],[134.431656,33.861749],[134.431555,33.861732],[134.431444,33.861711],[134.431338,33.86169],[134.431249,33.86167],[134.431182,33.861652],[134.431134,33.86163],[134.431101,33.861605],[134.431079,33.861573],[134.431066,33.861535],[134.431058,33.861484],[134.431054,33.861428],[134.431052,33.861408],[134.431043,33.861298],[134.431033,33.861167],[134.431022,33.861034],[134.431021,33.86102],[134.431011,33.860912],[134.431001,33.860811],[134.43099,33.860741],[134.430978,33.860685],[134.430964,33.860627],[134.430944,33.860562],[134.430919,33.860499],[134.430883,33.86045],[134.430862,33.860429],[134.430815,33.860397],[134.430761,33.860374],[134.430703,33.860357],[134.430643,33.860344],[134.430581,33.860335],[134.430517,33.860329],[134.430484,33.860329],[134.430412,33.860333],[134.430328,33.860339],[134.430228,33.860347],[134.430133,33.860353],[134.430066,33.860354],[134.43003,33.860351],[134.430012,33.860345],[134.429992,33.860341],[134.42998,33.860334],[134.429966,33.86032],[134.429929,33.860268],[134.429881,33.860188],[134.429833,33.860105],[134.429789,33.860036],[134.429746,33.859967],[134.429698,33.859874],[134.429646,33.859762],[134.429592,33.859657],[134.429566,33.859621],[134.42952,33.859577],[134.429498,33.859549],[134.429443,33.859456],[134.429405,33.859381],[134.429375,33.859323],[134.429356,33.859282],[134.429342,33.859246],[134.429333,33.859206],[134.429323,33.859154],[134.429314,33.859097],[134.429305,33.859042],[134.429295,33.858997],[134.429286,33.858966],[134.429277,33.858943],[134.429267,33.858926],[134.429253,33.858908],[134.429239,33.858893],[134.429224,33.85888],[134.429208,33.858868],[134.429152,33.858843],[134.429163,33.858809],[134.429178,33.85877],[134.429205,33.85872],[134.429248,33.858653],[134.429306,33.858571],[134.429369,33.858488],[134.429429,33.858414],[134.429457,33.858375],[134.429506,33.858286],[134.429544,33.858226],[134.429562,33.858206],[134.429594,33.858187],[134.429671,33.858152],[134.429739,33.85812],[134.429792,33.858089],[134.429828,33.858058],[134.429848,33.858029],[134.429856,33.858009],[134.429857,33.857994],[134.429857,33.85797],[134.42986,33.857925],[134.429867,33.857866],[134.429876,33.857806],[134.429888,33.85775],[134.429907,33.857697],[134.429932,33.85765],[134.429966,33.857605],[134.430008,33.85756],[134.430055,33.857517],[134.430099,33.857475],[134.430134,33.857439],[134.430166,33.857405],[134.430204,33.857373],[134.430249,33.857342],[134.430301,33.857314],[134.430357,33.85729],[134.430417,33.85727],[134.430476,33.857253],[134.430534,33.857238],[134.430593,33.857222],[134.430654,33.857204],[134.430713,33.857182],[134.430766,33.857156],[134.430812,33.85713],[134.430852,33.857101],[134.430889,33.857071],[134.430925,33.857039],[134.430966,33.856998],[134.431009,33.856951],[134.431053,33.856906],[134.431095,33.856871],[134.431135,33.856841],[134.431171,33.85681],[134.431205,33.856775],[134.431235,33.856739],[134.431261,33.856702],[134.431284,33.856665],[134.431306,33.856628],[134.431328,33.856594],[134.431346,33.856561],[134.431368,33.85651],[134.431392,33.856444],[134.431438,33.856342],[134.431466,33.856289],[134.431527,33.856198],[134.431557,33.856163],[134.431591,33.856132],[134.431662,33.856077],[134.431744,33.856018],[134.431831,33.855956],[134.431911,33.855895],[134.431985,33.855846],[134.432022,33.855832],[134.432058,33.855827],[134.432068,33.855829],[134.432095,33.855834],[134.432134,33.855849],[134.432213,33.855897],[134.43229,33.855947],[134.432363,33.855993],[134.432397,33.856015],[134.432427,33.856039],[134.432477,33.85609],[134.432521,33.856148],[134.432568,33.856208],[134.432595,33.856237],[134.432624,33.856265],[134.432657,33.85629],[134.432694,33.856311],[134.432734,33.856326],[134.432776,33.856337],[134.432819,33.856341],[134.432862,33.856339],[134.432899,33.856331],[134.432932,33.856317],[134.432987,33.856281],[134.433015,33.856266],[134.433046,33.856255],[134.43308,33.856252],[134.433118,33.856254],[134.433199,33.856271],[134.433279,33.856288],[134.433356,33.856299],[134.433427,33.8563],[134.433494,33.856289],[134.433563,33.856266],[134.4336,33.856251],[134.433678,33.856215],[134.433719,33.8562],[134.433762,33.856189],[134.433805,33.856185],[134.433848,33.856189],[134.43389,33.8562],[134.433931,33.856218],[134.434005,33.856258],[134.434066,33.856295],[134.43412,33.856336],[134.434175,33.856386],[134.434291,33.856488],[134.434392,33.856566],[134.434441,33.856602],[134.434488,33.856636],[134.434525,33.856667],[134.434561,33.856697],[134.434601,33.856728],[134.434649,33.856762],[134.434701,33.856795],[134.43475,33.856828],[134.434794,33.856858],[134.434802,33.856864],[134.434829,33.856884],[134.434856,33.856908],[134.434887,33.856934],[134.434925,33.856969],[134.434968,33.857007],[134.435011,33.857046],[134.435049,33.857081],[134.435082,33.857115],[134.435095,33.857133],[134.435123,33.857167],[134.435154,33.857204],[134.435196,33.857244],[134.435245,33.857284],[134.435293,33.857317],[134.435317,33.857329],[134.43536,33.857353],[134.435405,33.857376],[134.435448,33.8574],[134.435496,33.857425],[134.435545,33.857452],[134.435595,33.857477],[134.435643,33.857498],[134.435688,33.857516],[134.435739,33.857534],[134.435798,33.857557],[134.435862,33.85758],[134.435921,33.857601],[134.435973,33.85762],[134.436023,33.857637],[134.436071,33.857656],[134.436121,33.857676],[134.436168,33.857701],[134.436211,33.857728],[134.436249,33.857755],[134.436277,33.857782],[134.4363,33.857808],[134.436316,33.857836],[134.436328,33.857867],[134.436342,33.857902],[134.43636,33.857943],[134.436382,33.857984],[134.436405,33.858021],[134.436426,33.858053],[134.436447,33.858084],[134.436467,33.858123],[134.436489,33.858167],[134.436516,33.858215],[134.436547,33.858263],[134.436578,33.858306],[134.436603,33.858342],[134.436629,33.858375],[134.436661,33.858414],[134.436697,33.858459],[134.436732,33.858504],[134.436761,33.858543],[134.436785,33.85858],[134.436806,33.858618],[134.436823,33.858657],[134.436833,33.858697],[134.436834,33.858717],[134.436833,33.858755],[134.436834,33.858793],[134.436842,33.858837],[134.436861,33.858881],[134.436886,33.858923],[134.436903,33.858942],[134.436939,33.858984],[134.436983,33.859028],[134.437028,33.859077],[134.437071,33.859121],[134.437105,33.859162],[134.437132,33.859199],[134.437158,33.859239],[134.437182,33.859283],[134.437208,33.859327],[134.437235,33.85937],[134.437266,33.85941],[134.437301,33.859446],[134.437338,33.859479],[134.437374,33.859508],[134.437405,33.859534],[134.437447,33.859561],[134.437529,33.859597],[134.437626,33.85963],[134.437681,33.859651],[134.437756,33.859678],[134.437824,33.859698],[134.437884,33.859711],[134.43793,33.859716],[134.437969,33.859714],[134.438004,33.859707],[134.438077,33.859682],[134.438121,33.85967],[134.438171,33.859659],[134.438221,33.859654],[134.438272,33.859655],[134.43832,33.859665],[134.43836,33.859685],[134.438432,33.85974],[134.438467,33.859768],[134.438506,33.859788],[134.438548,33.859801],[134.438598,33.859805],[134.438654,33.859801],[134.438718,33.859792],[134.438872,33.859765],[134.439048,33.859737],[134.439134,33.859728],[134.439215,33.859724],[134.439286,33.85973],[134.439351,33.859742],[134.439413,33.859763],[134.439475,33.85979],[134.439619,33.859864],[134.439773,33.859947],[134.439869,33.859999],[134.439929,33.860021],[134.439988,33.860039],[134.440062,33.860052],[134.440113,33.860058],[134.440167,33.860062],[134.440218,33.860061],[134.440262,33.860055],[134.440336,33.860036],[134.44037,33.860031],[134.440398,33.860035],[134.440426,33.860044],[134.440521,33.860095],[134.440603,33.860149],[134.440683,33.86019],[134.440763,33.860223],[134.440804,33.860239],[134.440888,33.860279],[134.440981,33.860321],[134.441091,33.860361],[134.441152,33.860379],[134.44129,33.860409],[134.441451,33.860432],[134.44162,33.860449],[134.441775,33.860456],[134.441896,33.860457],[134.441947,33.860458],[134.441996,33.860462],[134.442043,33.860472],[134.442092,33.860489],[134.442198,33.860537],[134.442256,33.860567],[134.442387,33.860626],[134.442533,33.860683],[134.442678,33.860731],[134.442747,33.860752],[134.442813,33.860769],[134.442878,33.860782],[134.442939,33.860789],[134.443002,33.86079],[134.443062,33.860785],[134.443124,33.860774],[134.443185,33.860753],[134.443246,33.860727],[134.443308,33.86069],[134.443432,33.860601],[134.443497,33.860557],[134.443563,33.860521],[134.443602,33.860506],[134.443634,33.860497],[134.443666,33.860494],[134.443708,33.860492],[134.443782,33.860501],[134.443856,33.860517],[134.443986,33.860555],[134.444037,33.860568],[134.444083,33.860576],[134.444171,33.860583],[134.444283,33.860592],[134.444417,33.860608],[134.444546,33.860623],[134.444599,33.86063],[134.444685,33.860635],[134.444761,33.86063],[134.444836,33.860617],[134.444875,33.860611],[134.444918,33.86061],[134.444952,33.860617],[134.444988,33.860633],[134.445064,33.860684],[134.445108,33.860715],[134.445157,33.860745],[134.445214,33.860775],[134.445342,33.860831],[134.445408,33.860858],[134.445471,33.860887],[134.445513,33.860909],[134.445529,33.860918],[134.445634,33.860988],[134.445736,33.861065],[134.445747,33.861073],[134.445844,33.861146],[134.445903,33.861183],[134.445964,33.861216],[134.446028,33.861242],[134.446094,33.861257],[134.446163,33.861268],[134.446299,33.861277],[134.446425,33.86129],[134.446481,33.861301],[134.446534,33.861315],[134.446583,33.861331],[134.44667,33.861367],[134.446742,33.861408],[134.446772,33.861432],[134.446824,33.861484],[134.446871,33.861542],[134.4469,33.86157],[134.446936,33.861599],[134.44698,33.861625],[134.447031,33.86165],[134.447147,33.861697],[134.447272,33.861746],[134.447335,33.861768],[134.447398,33.861787],[134.447461,33.861797],[134.447527,33.861797],[134.447593,33.861785],[134.44766,33.861766],[134.447793,33.861715],[134.447859,33.861693],[134.447922,33.861676],[134.447984,33.861667],[134.448047,33.861663],[134.448176,33.861668],[134.448314,33.861684],[134.448382,33.861698],[134.448449,33.861714],[134.448511,33.861736],[134.448567,33.861762],[134.448617,33.861792],[134.448663,33.861823],[134.448747,33.86189],[134.448826,33.861952],[134.448865,33.861981],[134.448906,33.862007],[134.44895,33.862029],[134.448996,33.862046],[134.449044,33.862061],[134.449094,33.862071],[134.449146,33.862078],[134.449198,33.862081],[134.449249,33.86208],[134.4493,33.862074],[134.449349,33.862064],[134.449397,33.862047],[134.449445,33.862024],[134.449489,33.861993],[134.449531,33.861957],[134.449607,33.861878],[134.449674,33.861804],[134.449706,33.861773],[134.449738,33.861748],[134.449773,33.861729],[134.449815,33.861717],[134.449863,33.861713],[134.449916,33.861716],[134.449987,33.861729],[134.450024,33.861736],[134.450117,33.861764],[134.45019,33.861789],[134.450224,33.861797],[134.450258,33.861802],[134.450328,33.861798],[134.450363,33.861797],[134.450394,33.861799],[134.450423,33.861808],[134.450444,33.861826],[134.450463,33.861854],[134.450496,33.861925],[134.450534,33.862008],[134.450557,33.862049],[134.450615,33.862131],[134.450652,33.862171],[134.450693,33.862208],[134.450788,33.86228],[134.450893,33.862347],[134.451002,33.862412],[134.451117,33.862475],[134.451238,33.862539],[134.451363,33.862603],[134.451425,33.862638],[134.451486,33.862675],[134.4516,33.862756],[134.451709,33.862841],[134.451818,33.86292],[134.451928,33.862994],[134.452044,33.863071],[134.452162,33.863156],[134.45229,33.863246],[134.452427,33.863336],[134.452498,33.863381],[134.452645,33.863465],[134.45279,33.863543],[134.452936,33.863614],[134.453087,33.863679],[134.453247,33.863739],[134.453417,33.863792],[134.453502,33.863816],[134.453672,33.863855],[134.453884,33.863906],[134.454087,33.863958],[134.454157,33.863981],[134.454221,33.864003],[134.454283,33.864025],[134.454342,33.864049],[134.454399,33.864075],[134.454452,33.864105],[134.454501,33.864137],[134.454545,33.864173],[134.454582,33.86421],[134.454614,33.864249],[134.454641,33.864288],[134.454664,33.864326],[134.454685,33.864365],[134.454707,33.864406],[134.454732,33.864449],[134.454759,33.864495],[134.45479,33.86454],[134.454825,33.864582],[134.454862,33.864617],[134.454901,33.864648],[134.454941,33.864675],[134.45498,33.864699],[134.455019,33.864722],[134.455061,33.864742],[134.455109,33.864762],[134.455164,33.864782],[134.455228,33.864802],[134.455301,33.864827],[134.455385,33.864856],[134.455474,33.864887],[134.455565,33.864914],[134.455608,33.864924],[134.455651,33.86493],[134.455691,33.864931],[134.455729,33.864929],[134.455801,33.864917],[134.455873,33.864899],[134.455946,33.864882],[134.45602,33.864869],[134.456095,33.864858],[134.456166,33.864851],[134.456231,33.864843],[134.456293,33.864839],[134.456357,33.864837],[134.456425,33.86484],[134.456498,33.864846],[134.456573,33.864855],[134.456648,33.864863],[134.456719,33.864869],[134.456788,33.864876],[134.456854,33.864883],[134.456918,33.864894],[134.45698,33.864908],[134.457042,33.864928],[134.457135,33.864968],[134.457208,33.865001],[134.457279,33.86503],[134.457344,33.865056],[134.457404,33.865079],[134.45746,33.8651],[134.457517,33.865124],[134.457573,33.865152],[134.457743,33.865241],[134.457893,33.865321],[134.457972,33.865358],[134.45807,33.865416],[134.458183,33.865474],[134.458306,33.865532],[134.458421,33.865591],[134.458516,33.865653],[134.458592,33.865712],[134.458655,33.86576],[134.458709,33.865791],[134.45873,33.865798],[134.45875,33.865797],[134.458765,33.86579],[134.458779,33.865775],[134.458806,33.86573],[134.45884,33.865671],[134.458885,33.865607],[134.458937,33.865542],[134.458992,33.865485],[134.459022,33.865459],[134.459054,33.865436],[134.459089,33.865415],[134.459128,33.865398],[134.459171,33.865384],[134.459218,33.865375],[134.459271,33.865371],[134.45933,33.865372],[134.459392,33.86538],[134.459461,33.865392],[134.459603,33.865423],[134.45974,33.865452],[134.459865,33.865475],[134.45992,33.865489],[134.459971,33.865503],[134.460057,33.865542],[134.460136,33.865574],[134.460178,33.865582],[134.460223,33.865584],[134.46027,33.865577],[134.460319,33.865565],[134.460366,33.865549],[134.460452,33.865511],[134.460524,33.865473],[134.460582,33.865439],[134.460606,33.865427],[134.460628,33.865419],[134.460651,33.865416],[134.460676,33.865419],[134.460706,33.86543],[134.46078,33.865475],[134.460866,33.865537],[134.460952,33.865599],[134.460996,33.865626],[134.46104,33.86565],[134.461089,33.86567],[134.461145,33.865684],[134.461206,33.865693],[134.461274,33.865696],[134.461416,33.865694],[134.461547,33.865685],[134.46166,33.865673],[134.461762,33.865656],[134.461858,33.865634],[134.461952,33.865604],[134.462008,33.865581],[134.462042,33.865567],[134.462129,33.865525],[134.462214,33.86549],[134.462295,33.865469],[134.462377,33.865451],[134.462461,33.865424],[134.462545,33.865385],[134.462624,33.86534],[134.462695,33.865304],[134.462692,33.865325],[134.462678,33.865419],[134.462657,33.865613],[134.462652,33.865698],[134.462652,33.865774],[134.462655,33.865842],[134.462661,33.865906],[134.462675,33.866031],[134.462681,33.86617],[134.462691,33.866317],[134.4627,33.866389],[134.462713,33.86646],[134.46273,33.866529],[134.462751,33.866596],[134.462776,33.866662],[134.462834,33.866791],[134.462894,33.86692],[134.462918,33.866988],[134.462936,33.867057],[134.462944,33.867131],[134.462945,33.867207],[134.46294,33.867282],[134.462932,33.867357],[134.46291,33.867497],[134.462904,33.867559],[134.462906,33.867618],[134.462923,33.86767],[134.462959,33.867717],[134.463016,33.867759],[134.463092,33.867796],[134.463183,33.867831],[134.463388,33.867904],[134.463494,33.867944],[134.463696,33.868027],[134.46387,33.8681],[134.464003,33.868151],[134.464061,33.86817],[134.464119,33.868184],[134.464181,33.868195],[134.46432,33.868216],[134.464396,33.868231],[134.464473,33.868253],[134.46455,33.868283],[134.464623,33.868325],[134.464693,33.868372],[134.464815,33.868457],[134.464865,33.868482],[134.464906,33.868489],[134.464946,33.868481],[134.465045,33.868443],[134.465118,33.868423],[134.465212,33.868409],[134.465321,33.868403],[134.465437,33.868405],[134.465551,33.868415],[134.465655,33.868433],[134.465742,33.868461],[134.465816,33.868497],[134.465882,33.868537],[134.46602,33.868624],[134.466099,33.868667],[134.466187,33.868709],[134.46628,33.868748],[134.466471,33.86882],[134.466648,33.868885],[134.466727,33.868921],[134.466795,33.868963],[134.466852,33.869014],[134.466894,33.869077],[134.466926,33.869147],[134.466949,33.86922],[134.46699,33.869355],[134.467011,33.869409],[134.467038,33.869455],[134.467072,33.869495],[134.467114,33.869529],[134.467167,33.869561],[134.46723,33.869594],[134.467303,33.869626],[134.467457,33.869694],[134.467532,33.869731],[134.467572,33.869753],[134.467601,33.869769],[134.467664,33.869809],[134.467724,33.869851],[134.467824,33.86992],[134.467287,33.871228],[134.46715,33.871795],[134.46715,33.872353],[134.467675,33.872603],[134.467812,33.872736],[134.469591,33.874893],[134.470511,33.87603],[134.471647,33.877592],[134.472738,33.879448],[134.473661,33.881354],[134.474202,33.882357],[134.473999,33.882443],[134.472249,33.88296],[134.471774,33.883235],[134.471262,33.883909],[134.470849,33.884226],[134.470624,33.884784],[134.469887,33.885918],[134.469749,33.885918],[134.469337,33.885801],[134.469116,33.885843],[134.468998,33.885925],[134.468874,33.886542],[134.468847,33.886626],[134.468841,33.886641],[134.468699,33.887067],[134.468599,33.888101],[134.468299,33.888684],[134.467849,33.889384],[134.467824,33.889567],[134.468049,33.89065],[134.468237,33.891142],[134.468324,33.891642],[134.468349,33.892104],[134.468471,33.892355],[134.468687,33.892517],[134.470911,33.893908],[134.472374,33.895083],[134.473332,33.89609],[134.473773,33.896633],[134.474111,33.897174],[134.474211,33.897808],[134.474211,33.898482],[134.474273,33.899066],[134.474573,33.899582],[134.474798,33.900099],[134.475202,33.901215],[134.475224,33.901218],[134.475256,33.901214],[134.475297,33.901206],[134.475431,33.901188],[134.475465,33.901192],[134.475491,33.901203],[134.475524,33.901223],[134.475554,33.901244],[134.475617,33.901282],[134.475663,33.901323],[134.475703,33.901353],[134.475734,33.901374],[134.475761,33.901388],[134.475785,33.901397],[134.47581,33.901399],[134.475839,33.901396],[134.475873,33.901389],[134.47591,33.901378],[134.475947,33.90137],[134.475984,33.901358],[134.476018,33.901341],[134.476051,33.901316],[134.476085,33.901291],[134.476172,33.901239],[134.476191,33.901231],[134.476223,33.901219],[134.476259,33.90121],[134.476298,33.901204],[134.476339,33.901201],[134.476435,33.901203],[134.476547,33.901202],[134.476674,33.90119],[134.476796,33.901179],[134.47685,33.901179],[134.476894,33.901183],[134.476932,33.901194],[134.476965,33.901207],[134.477033,33.901232],[134.477184,33.901295],[134.477268,33.901325],[134.47735,33.901352],[134.477426,33.901375],[134.477497,33.901401],[134.477569,33.901429],[134.477647,33.901464],[134.477734,33.901505],[134.477832,33.901559],[134.477936,33.901617],[134.478034,33.901668],[134.478113,33.901703],[134.478183,33.901727],[134.478253,33.901755],[134.478327,33.901783],[134.478362,33.901792],[134.478395,33.901794],[134.478425,33.901789],[134.47845,33.901777],[134.478476,33.901761],[134.478531,33.901724],[134.478632,33.901676],[134.478661,33.901663],[134.478707,33.90165],[134.478737,33.901646],[134.478799,33.901648],[134.478862,33.90166],[134.478913,33.901673],[134.478959,33.901689],[134.478997,33.901705],[134.479041,33.901741],[134.479073,33.901777],[134.479121,33.901839],[134.479153,33.901882],[134.47919,33.90194],[134.479206,33.901985],[134.47922,33.902011],[134.479223,33.902015],[134.479233,33.902022],[134.479273,33.902039],[134.479324,33.902057],[134.479388,33.902083],[134.479449,33.902113],[134.479514,33.902155],[134.479564,33.902189],[134.479585,33.902202],[134.479624,33.902219],[134.479632,33.902221],[134.479659,33.902219],[134.479693,33.902212],[134.479742,33.902196],[134.479793,33.902177],[134.479847,33.902158],[134.479902,33.902136],[134.479951,33.902115],[134.479997,33.902095],[134.480058,33.902074],[134.480092,33.902067],[134.480145,33.902068],[134.480201,33.902086],[134.480239,33.902113],[134.480275,33.902145],[134.480295,33.902167],[134.480325,33.902203],[134.480337,33.902222],[134.480371,33.902281],[134.480401,33.902329],[134.480437,33.902377],[134.480473,33.902417],[134.480517,33.902455],[134.480564,33.902494],[134.480614,33.902533],[134.480663,33.902575],[134.480707,33.90261],[134.480744,33.902641],[134.48077,33.902669],[134.480783,33.902705],[134.480787,33.902742],[134.480792,33.902793],[134.480796,33.902847],[134.480797,33.902889],[134.480802,33.902933],[134.480814,33.902971],[134.48084,33.903029],[134.480853,33.903049],[134.480869,33.903068],[134.480891,33.90309],[134.480934,33.903124],[134.480988,33.903164],[134.481031,33.903213],[134.481057,33.903256],[134.481068,33.903289],[134.481072,33.903335],[134.481071,33.90338],[134.481073,33.903425],[134.481079,33.903487],[134.481086,33.903545],[134.481091,33.903594],[134.481096,33.903634],[134.481104,33.903668],[134.481118,33.903703],[134.481124,33.903712],[134.48113,33.903717],[134.481149,33.90373],[134.481162,33.903737],[134.481203,33.903752],[134.481253,33.903766],[134.481302,33.903779],[134.481354,33.903792],[134.481399,33.903805],[134.481463,33.903826],[134.481524,33.903849],[134.481558,33.903868],[134.481563,33.90387],[134.481605,33.903899],[134.481619,33.903911],[134.48166,33.903967],[134.481678,33.903997],[134.481705,33.904023],[134.481741,33.904046],[134.481788,33.90407],[134.481846,33.9041],[134.481902,33.904128],[134.481952,33.904153],[134.481995,33.904173],[134.482042,33.904198],[134.482089,33.904228],[134.48214,33.904261],[134.482184,33.904293],[134.482225,33.904324],[134.482257,33.90435],[134.482301,33.904392],[134.482339,33.904422],[134.482384,33.904456],[134.482427,33.904483],[134.482477,33.904509],[134.482529,33.904534],[134.48258,33.904558],[134.482635,33.904581],[134.482709,33.904611],[134.482739,33.904625],[134.482794,33.904664],[134.482826,33.90469],[134.482862,33.904717],[134.482913,33.904754],[134.482958,33.90479],[134.483005,33.904841],[134.483045,33.904892],[134.483079,33.904942],[134.4831,33.904977],[134.483123,33.90501],[134.483149,33.905045],[134.483182,33.905086],[134.483226,33.905138],[134.483257,33.905181],[134.483292,33.905233],[134.483336,33.90528],[134.483423,33.905357],[134.483506,33.905431],[134.483566,33.905486],[134.483606,33.905527],[134.48365,33.905575],[134.483719,33.905645],[134.48376,33.905686],[134.483801,33.905728],[134.483878,33.905815],[134.483943,33.905896],[134.483997,33.905968],[134.484044,33.906027],[134.484095,33.906078],[134.484127,33.906103],[134.4842,33.90615],[134.484242,33.906171],[134.484328,33.906207],[134.484412,33.906228],[134.484454,33.906233],[134.484543,33.906242],[134.484639,33.906246],[134.484739,33.906254],[134.484834,33.906266],[134.484877,33.906276],[134.48492,33.906289],[134.484958,33.906305],[134.484993,33.906325],[134.485024,33.906348],[134.485052,33.906374],[134.485079,33.906403],[134.485126,33.90646],[134.485167,33.90651],[134.485203,33.906549],[134.485226,33.906573],[134.485248,33.906584],[134.4853,33.906597],[134.485398,33.906622],[134.485523,33.906655],[134.485649,33.906691],[134.485761,33.906725],[134.485871,33.90676],[134.485981,33.906796],[134.486088,33.906829],[134.486189,33.906859],[134.486281,33.906887],[134.486325,33.906904],[134.486365,33.906923],[134.486402,33.906945],[134.486438,33.906971],[134.486471,33.906999],[134.48653,33.90706],[134.486581,33.907122],[134.486638,33.907186],[134.486673,33.907218],[134.486714,33.907249],[134.486806,33.907321],[134.486853,33.907357],[134.486912,33.907396],[134.487021,33.907451],[134.487159,33.907514],[134.487228,33.907541],[134.487291,33.907561],[134.487389,33.907581],[134.487429,33.907594],[134.487468,33.907619],[134.487509,33.907662],[134.487553,33.907727],[134.487655,33.907895],[134.487711,33.907977],[134.487772,33.908047],[134.487833,33.908095],[134.487897,33.908128],[134.488028,33.908177],[134.488095,33.908211],[134.488159,33.908258],[134.488226,33.908316],[134.488361,33.90845],[134.488434,33.908518],[134.488509,33.90858],[134.488586,33.908638],[134.488738,33.908741],[134.48887,33.908832],[134.488978,33.908912],[134.489065,33.908983],[134.489135,33.909048],[134.489167,33.909081],[134.48923,33.90915],[134.489277,33.909197],[134.489367,33.90928],[134.489438,33.909331],[134.489488,33.90936],[134.489557,33.909382],[134.489757,33.909406],[134.489997,33.909444],[134.490038,33.90945],[134.490156,33.909474],[134.490243,33.909506],[134.490279,33.909524],[134.490317,33.909556],[134.490431,33.909639],[134.490544,33.909719],[134.490578,33.909736],[134.490622,33.909769],[134.490654,33.909802],[134.490673,33.909833],[134.490693,33.909898],[134.49071,33.909931],[134.490741,33.909968],[134.490791,33.910005],[134.490858,33.910046],[134.490939,33.910088],[134.49104,33.910136],[134.491191,33.910209],[134.491371,33.910303],[134.491569,33.910403],[134.491768,33.910501],[134.491961,33.910595],[134.492149,33.910685],[134.492332,33.910772],[134.4925,33.910846],[134.492576,33.910874],[134.492644,33.910896],[134.492706,33.910911],[134.492762,33.910921],[134.492813,33.910926],[134.492905,33.910925],[134.492995,33.910918],[134.493105,33.910913],[134.493243,33.910919],[134.493399,33.910934],[134.493553,33.910953],[134.493694,33.910977],[134.493768,33.910993],[134.493826,33.911004],[134.493948,33.911034],[134.494059,33.911055],[134.49411,33.911056],[134.494155,33.91105],[134.494196,33.911037],[134.494235,33.91102],[134.494269,33.910999],[134.494333,33.910959],[134.494397,33.910924],[134.494436,33.910907],[134.494482,33.910891],[134.494536,33.910878],[134.49454,33.910877],[134.494664,33.910856],[134.494733,33.910849],[134.494803,33.910845],[134.49487,33.910847],[134.495621,33.910756],[134.496784,33.910581],[134.497221,33.910556],[134.498264,33.910293],[134.499209,33.909974],[134.50049,33.909552],[134.501912,33.909086],[134.502559,33.9088],[134.50397,33.908079],[134.504246,33.907906],[134.504863,33.908296],[134.504945,33.908348],[134.505378,33.908619],[134.505551,33.909389],[134.505671,33.909426],[134.506509,33.9095],[134.509483,33.910622],[134.50957,33.910772],[134.510194,33.911161],[134.510895,33.911381],[134.511257,33.911514],[134.511688,33.91174],[134.512082,33.912056],[134.513332,33.913289],[134.513795,33.913597],[134.514345,33.913689],[134.514882,33.914047],[134.515195,33.914655],[134.51544,33.915163],[134.515782,33.915805],[134.516257,33.91718],[134.51652,33.91753],[134.516491,33.918044],[134.516515,33.918071],[134.516559,33.918118],[134.516723,33.918135],[134.517044,33.918104],[134.517432,33.91798],[134.517894,33.918046],[134.518332,33.918296],[134.518572,33.918344],[134.518807,33.918338],[134.519161,33.918227],[134.519369,33.918113],[134.519374,33.918109],[134.519686,33.917873],[134.519832,33.917763],[134.520219,33.917296],[134.520515,33.91684],[134.520981,33.916122],[134.521319,33.915738],[134.521535,33.91568],[134.521781,33.915613],[134.522086,33.91563],[134.522244,33.915638],[134.522444,33.915688],[134.522894,33.916005],[134.523531,33.916322],[134.524756,33.916605],[134.525294,33.916871],[134.525793,33.916946],[134.526668,33.916972],[134.527243,33.91703],[134.527806,33.917113],[134.528706,33.916996],[134.529393,33.917063],[134.530156,33.917346],[134.530768,33.917755],[134.530876,33.917899],[134.530908,33.918073],[134.530883,33.918478],[134.530756,33.919921],[134.530718,33.919996],[134.530681,33.920221],[134.530831,33.920912],[134.531068,33.921387],[134.531481,33.921912],[134.531531,33.922046],[134.531556,33.922495],[134.531556,33.92357],[134.531616,33.923745],[134.531737,33.923895],[134.53205,33.924115],[134.532395,33.924251],[134.533284,33.9244],[134.533907,33.924434],[134.534115,33.924426],[134.534287,33.924366],[134.534487,33.924294],[134.534671,33.924309],[134.534749,33.924347],[134.5348,33.924461],[134.534786,33.924917],[134.535315,33.925037],[134.535612,33.925241],[134.535708,33.925346],[134.535826,33.925474],[134.53588,33.925703],[134.535843,33.926078],[134.535718,33.926611],[134.53558,33.926961],[134.535504,33.92727],[134.535492,33.927545],[134.535571,33.927769],[134.535755,33.92797],[134.53633,33.928278],[134.53713,33.92852],[134.539392,33.929061],[134.54108,33.929928],[134.541417,33.930211],[134.541655,33.930461],[134.542354,33.930828],[134.542959,33.931061],[134.542979,33.931069],[134.543154,33.931136],[134.543579,33.931178],[134.544292,33.931028],[134.544604,33.931053],[134.544904,33.931228],[134.545466,33.931353],[134.547416,33.931361],[134.548391,33.931403],[134.549141,33.931494],[134.550066,33.931878],[134.550803,33.932053],[134.551416,33.932169],[134.552353,33.932244],[134.552653,33.932286],[134.554057,33.932433],[134.554088,33.932436],[134.554098,33.932437],[134.554165,33.932445],[134.554365,33.932519],[134.554678,33.933186],[134.55479,33.933194],[134.55534,33.933061],[134.556177,33.932978],[134.55734,33.933245],[134.557494,33.933314],[134.557942,33.933528],[134.558121,33.933613],[134.557924,33.934214],[134.5578,33.934715],[134.557817,33.934979],[134.557823,33.935077],[134.55783,33.935146],[134.557868,33.935545],[134.557986,33.935788],[134.558289,33.936048],[134.558622,33.936218],[134.558962,33.936286],[134.559099,33.937089],[134.559172,33.937435],[134.559301,33.937863],[134.559535,33.938111],[134.559721,33.938244],[134.560077,33.938363],[134.560319,33.939011],[134.560547,33.9394],[134.56062,33.939488],[134.560598,33.93955],[134.560568,33.939646],[134.560498,33.939845],[134.560723,33.939931],[134.56083,33.939978],[134.561016,33.94009],[134.56112,33.940165],[134.561258,33.94029],[134.561361,33.940406],[134.56151,33.940595],[134.561541,33.940677],[134.56158,33.940771],[134.561603,33.940815],[134.561668,33.94084],[134.56177,33.940855],[134.562029,33.940916],[134.562188,33.940965],[134.562293,33.940998],[134.562668,33.941122],[134.562917,33.941235],[134.563191,33.941346],[134.563321,33.941436],[134.563524,33.941624],[134.563638,33.941623],[134.563774,33.941628],[134.563886,33.941613],[134.564018,33.941609],[134.564079,33.941633],[134.564148,33.941668],[134.564224,33.941705],[134.564277,33.94172],[134.564332,33.941718],[134.564423,33.941717],[134.564514,33.941704],[134.564657,33.941684],[134.5648,33.94169],[134.564916,33.941732],[134.564992,33.941807],[134.565056,33.941871],[134.565145,33.941919],[134.565237,33.941956],[134.565312,33.941968],[134.565403,33.941942],[134.56549,33.941919],[134.565573,33.941875],[134.565663,33.941811],[134.565768,33.941747],[134.565851,33.941702],[134.565934,33.941682],[134.566055,33.941687],[134.566207,33.941705],[134.566328,33.941729],[134.56645,33.941766],[134.566549,33.941841],[134.566748,33.941934],[134.566939,33.942059],[134.567098,33.94212],[134.567221,33.942189],[134.567404,33.942307],[134.567527,33.942426],[134.567611,33.942513],[134.56771,33.942576],[134.568114,33.942793],[134.568275,33.942918],[134.568415,33.943163],[134.568631,33.943477],[134.568786,33.943803],[134.568837,33.943945],[134.568914,33.94402],[134.569044,33.94412],[134.569212,33.944194],[134.569441,33.944375],[134.569579,33.9445],[134.569895,33.94492],[134.569655,33.945093],[134.569554,33.945248],[134.569481,33.9454],[134.569414,33.945552],[134.569378,33.945691],[134.569364,33.945799],[134.569387,33.945854],[134.569396,33.945874],[134.56945,33.945956],[134.569573,33.946113],[134.569668,33.946409],[134.569666,33.946576],[134.569623,33.946778],[134.5696,33.947034],[134.569608,33.947403],[134.569608,33.94769],[134.569586,33.947753],[134.5695,33.947766],[134.569443,33.947805],[134.569394,33.947853],[134.569365,33.947929],[134.569291,33.948068],[134.569202,33.948221],[134.569129,33.948448],[134.569063,33.948626],[134.569057,33.948796],[134.569053,33.94903],[134.569049,33.949314],[134.569074,33.949522],[134.568978,33.949661],[134.568941,33.949756],[134.568912,33.949908],[134.568927,33.950138],[134.568958,33.950207],[134.569035,33.950314],[134.569151,33.950496],[134.569275,33.950697],[134.569383,33.950885],[134.569415,33.950973],[134.569462,33.951131],[134.569473,33.951191],[134.569503,33.951358],[134.569516,33.9515],[134.569555,33.9516],[134.569648,33.951732],[134.569779,33.951939],[134.569918,33.952178],[134.570035,33.952379],[134.570166,33.952605],[134.570046,33.952707],[134.569919,33.95279],[134.569845,33.952955],[134.569795,33.953207],[134.569699,33.953442],[134.569591,33.953566],[134.569381,33.953744],[134.569179,33.953948],[134.569075,33.954119],[134.568987,33.954316],[134.568943,33.954455],[134.568861,33.954531],[134.568643,33.954665],[134.568436,33.954791],[134.568339,33.954886],[134.568296,33.955114],[134.568154,33.95526],[134.567968,33.955508],[134.567946,33.955615],[134.567975,33.955797],[134.567958,33.955975],[134.567983,33.956101],[134.568052,33.956201],[134.568099,33.956308],[134.568138,33.956409],[134.568147,33.956522],[134.56818,33.956692],[134.568216,33.956809],[134.568257,33.956893],[134.568327,33.95697],[134.568507,33.957122],[134.568683,33.957215],[134.56876,33.957359],[134.568786,33.95758],[134.568728,33.957845],[134.568671,33.958105],[134.568642,33.958212],[134.568623,33.958515],[134.568512,33.958687],[134.568438,33.958839],[134.568364,33.959016],[134.568382,33.959199],[134.568372,33.959335],[134.568193,33.959551],[134.568028,33.95966],[134.567889,33.959803],[134.567726,33.960094],[134.567555,33.960367],[134.567466,33.960463],[134.567421,33.960552],[134.567355,33.96071],[134.567297,33.960931],[134.567079,33.961328],[134.566841,33.96167],[134.566684,33.961836],[134.566616,33.961912],[134.566633,33.962044],[134.566696,33.962202],[134.566769,33.96233],[134.566882,33.962496],[134.566668,33.96265],[134.566487,33.962705],[134.566141,33.962698],[134.56591,33.962563],[134.565686,33.962448],[134.565196,33.962411],[134.564921,33.962438],[134.564745,33.96239],[134.564509,33.962251],[134.564278,33.962077],[134.5642,33.96198],[134.563999,33.961826],[134.563851,33.961715],[134.563757,33.961696],[134.563535,33.961767],[134.563348,33.961793],[134.563189,33.96175],[134.56293,33.961635],[134.562724,33.961544],[134.562606,33.961472],[134.562516,33.961356],[134.562466,33.961088],[134.562379,33.961016],[134.562248,33.960997],[134.561949,33.961014],[134.56182,33.960996],[134.561685,33.960933],[134.561483,33.960779],[134.561295,33.960722],[134.560966,33.960716],[134.560628,33.960682],[134.560523,33.960701],[134.560468,33.960742],[134.560266,33.96086],[134.560106,33.960932],[134.559847,33.960957],[134.559636,33.960912],[134.559411,33.960868],[134.559208,33.960881],[134.559088,33.960835],[134.559009,33.960684],[134.558937,33.960493],[134.558796,33.960459],[134.558773,33.960451],[134.55811,33.960228],[134.557885,33.960137],[134.557362,33.960069],[134.557038,33.959978],[134.556849,33.959939],[134.556786,33.959957],[134.556583,33.960011],[134.556451,33.96003],[134.556289,33.960002],[134.556113,33.95991],[134.555916,33.959848],[134.555528,33.959647],[134.555444,33.959648],[134.555325,33.95966],[134.555172,33.959743],[134.555082,33.959884],[134.554966,33.960107],[134.554845,33.960239],[134.55454,33.960498],[134.55425,33.960839],[134.554142,33.961132],[134.554103,33.961447],[134.554061,33.961447],[134.553871,33.961379],[134.553625,33.961346],[134.553415,33.961365],[134.553165,33.961484],[134.55299,33.961544],[134.552807,33.961493],[134.552582,33.961372],[134.552151,33.961096],[134.552059,33.961068],[134.551884,33.961075],[134.551807,33.961047],[134.551278,33.960812],[134.550727,33.960472],[134.550371,33.960251],[134.550158,33.960043],[134.550036,33.959822],[134.549749,33.959547],[134.549332,33.959192],[134.54907,33.959018],[134.54854,33.958777],[134.548102,33.958553],[134.547855,33.958467],[134.547489,33.958424],[134.547324,33.958417],[134.54725,33.958414],[134.547108,33.958429],[134.547068,33.958433],[134.546633,33.958507],[134.54608,33.95864],[134.545805,33.958715],[134.545149,33.95867],[134.544952,33.958643],[134.54398,33.958057],[134.543054,33.957574],[134.542655,33.957315],[134.542018,33.957127],[134.541215,33.956767],[134.540113,33.956289],[134.539851,33.956093],[134.539583,33.955961],[134.538674,33.955554],[134.538306,33.955374],[134.53714,33.955313],[134.536777,33.955386],[134.536268,33.955324],[134.535735,33.955293],[134.535343,33.955325],[134.535319,33.955343]]]},"properties":{"code":"36301","name":"勝浦町"}}]}