{"type":"FeatureCollection","features":[{"type":"Feature","geometry":{"type":"Polygon","coordinates":[[[134.44375,33.95439],[134.443813,33.95439],[134.443951,33.954424],[134.444363,33.954523],[134.446126,33.955623],[134.446363,33.955607],[134.447163,33.955357],[134.449313,33.954382],[134.450026,33.953957],[134.450601,33.953748],[134.450813,33.953732],[134.450995,33.953674],[134.451263,33.95359],[134.451975,33.953257],[134.4523,33.95314],[134.453263,33.953048],[134.454313,33.952823],[134.454875,33.952648],[134.455325,33.952507],[134.456225,33.952098],[134.456838,33.95194],[134.456863,33.951965],[134.457663,33.952082],[134.458538,33.952257],[134.459225,33.952215],[134.4598,33.952098],[134.460925,33.952282],[134.461371,33.952243],[134.46165,33.952123],[134.462112,33.951648],[134.462687,33.951332],[134.4634,33.951148],[134.464112,33.951123],[134.464571,33.951261],[134.464725,33.951307],[134.465462,33.951573],[134.466237,33.951782],[134.467587,33.951932],[134.468162,33.95209],[134.468687,33.952407],[134.469199,33.952898],[134.469649,33.953465],[134.469739,33.953672],[134.469924,33.954098],[134.470037,33.954681],[134.470037,33.955964],[134.470274,33.956481],[134.470749,33.956864],[134.471437,33.957139],[134.471874,33.957514],[134.472262,33.958081],[134.472924,33.958597],[134.473136,33.958822],[134.473661,33.959547],[134.474049,33.960306],[134.474274,33.960964],[134.474549,33.962247],[134.474661,33.96238],[134.475074,33.962697],[134.475674,33.963014],[134.476086,33.963464],[134.476361,33.964088],[134.476423,33.964339],[134.476422,33.964344],[134.476286,33.96488],[134.475948,33.965422],[134.475786,33.965847],[134.476173,33.966097],[134.476511,33.96648],[134.476586,33.96648],[134.476998,33.96603],[134.477436,33.965713],[134.477911,33.965463],[134.478221,33.965204],[134.478261,33.965172],[134.478352,33.965141],[134.478811,33.964988],[134.479273,33.964563],[134.479586,33.964363],[134.481098,33.96458],[134.481998,33.964605],[134.482335,33.964647],[134.482573,33.96508],[134.482573,33.965663],[134.482635,33.966138],[134.483023,33.96663],[134.483298,33.96708],[134.483548,33.967213],[134.48406,33.967055],[134.484299,33.96703],[134.48446,33.967032],[134.484648,33.967055],[134.484849,33.967121],[134.485022,33.967188],[134.48583,33.967544],[134.486296,33.967762],[134.486419,33.967789],[134.486502,33.967788],[134.486554,33.967765],[134.486482,33.968013],[134.486377,33.968218],[134.486411,33.968324],[134.48682,33.968676],[134.486811,33.968827],[134.486834,33.968995],[134.4869,33.969119],[134.487048,33.969477],[134.48691,33.969576],[134.486614,33.9698],[134.486563,33.970022],[134.486797,33.970613],[134.486723,33.970864],[134.486606,33.970972],[134.486255,33.971028],[134.486182,33.971117],[134.486283,33.971569],[134.486167,33.972187],[134.486018,33.972645],[134.485976,33.972734],[134.485744,33.972887],[134.485488,33.972942],[134.485243,33.97298],[134.48517,33.97306],[134.485123,33.973602],[134.485317,33.97428],[134.485367,33.974892],[134.485378,33.975402],[134.485315,33.975456],[134.48505,33.975626],[134.484764,33.975789],[134.483935,33.976053],[134.483564,33.97618],[134.483422,33.976229],[134.482922,33.976654],[134.482597,33.976938],[134.48246,33.977134],[134.482378,33.977392],[134.482324,33.977796],[134.481987,33.978207],[134.481779,33.978617],[134.481521,33.979409],[134.481225,33.97958],[134.481067,33.979786],[134.481059,33.980017],[134.481115,33.980203],[134.481396,33.980546],[134.481603,33.980944],[134.481697,33.981278],[134.481772,33.98157],[134.481855,33.982424],[134.481835,33.982653],[134.481705,33.982909],[134.48177,33.982989],[134.481995,33.983031],[134.482241,33.9831],[134.483922,33.98357],[134.484609,33.983953],[134.485064,33.984432],[134.485197,33.984594],[134.485253,33.984754],[134.485364,33.985041],[134.485545,33.985392],[134.485615,33.985475],[134.485685,33.985532],[134.485941,33.98569],[134.486288,33.985777],[134.48635,33.985815],[134.48639,33.985885],[134.486735,33.986877],[134.486916,33.987179],[134.486982,33.987287],[134.487058,33.987464],[134.487248,33.988208],[134.487344,33.989077],[134.487357,33.989335],[134.487391,33.989459],[134.487997,33.989894],[134.488566,33.990567],[134.488845,33.990707],[134.489038,33.990777],[134.489977,33.990867],[134.49032,33.99097],[134.490438,33.991067],[134.491496,33.992235],[134.491771,33.992445],[134.4919,33.992489],[134.492326,33.99245],[134.492423,33.992485],[134.492455,33.992564],[134.492514,33.993043],[134.492654,33.993139],[134.493009,33.993367],[134.493256,33.993534],[134.493458,33.993479],[134.493978,33.993262],[134.494191,33.99326],[134.494471,33.993319],[134.494629,33.993283],[134.494892,33.992953],[134.495073,33.992951],[134.496036,33.993183],[134.496122,33.993236],[134.496371,33.993677],[134.496459,33.99381],[134.496604,33.994341],[134.49668,33.994447],[134.49697,33.994613],[134.497083,33.994935],[134.497171,33.995477],[134.497083,33.996693],[134.497083,33.997727],[134.496946,33.99811],[134.496459,33.998293],[134.496134,33.99861],[134.495909,33.999151],[134.495959,33.999668],[134.496246,34.00021],[134.496253,34.000248],[134.496346,34.000793],[134.496184,34.001201],[134.495971,34.001376],[134.495996,34.001468],[134.496496,34.002051],[134.496571,34.002393],[134.496359,34.003268],[134.496233,34.003318],[134.49596,34.003992],[134.495906,34.004124],[134.495746,34.004518],[134.495546,34.005151],[134.495546,34.005559],[134.495659,34.006034],[134.495584,34.006526],[134.495359,34.007092],[134.494921,34.007534],[134.494446,34.008117],[134.494228,34.008081],[134.493927,34.008017],[134.493548,34.00807],[134.493231,34.008256],[134.493295,34.008604],[134.49342,34.009085],[134.493561,34.009167],[134.493681,34.009183],[134.493684,34.009416],[134.493907,34.009713],[134.493929,34.009846],[134.49379,34.009963],[134.493772,34.01008],[134.493734,34.010313],[134.493855,34.010395],[134.494176,34.010459],[134.494436,34.010507],[134.494558,34.010655],[134.494998,34.010735],[134.495521,34.010858],[134.495939,34.010893],[134.496346,34.011108],[134.497232,34.01129],[134.497617,34.011736],[134.498318,34.011863],[134.49854,34.012094],[134.498866,34.01259],[134.499029,34.012855],[134.499052,34.013104],[134.498988,34.013363],[134.498874,34.01345],[134.4988,34.01346],[134.498497,34.013415],[134.498234,34.013402],[134.497908,34.013381],[134.497769,34.013682],[134.497603,34.013934],[134.4975,34.014093],[134.497236,34.014062],[134.49695,34.014007],[134.496804,34.013972],[134.496592,34.013917],[134.496426,34.013923],[134.496262,34.013866],[134.495947,34.013716],[134.495723,34.013608],[134.495425,34.013568],[134.495088,34.013566],[134.494702,34.013721],[134.494435,34.013899],[134.494323,34.014081],[134.494307,34.014209],[134.494271,34.014235],[134.493899,34.014243],[134.493454,34.014247],[134.49338,34.014266],[134.493352,34.014314],[134.493263,34.0145],[134.493121,34.014601],[134.492964,34.014731],[134.49292,34.014767],[134.492644,34.015068],[134.492364,34.015613],[134.492166,34.015973],[134.492047,34.01604],[134.491604,34.016315],[134.491447,34.016511],[134.491305,34.016655],[134.491226,34.016694],[134.491111,34.016873],[134.490847,34.017255],[134.49045,34.017802],[134.490385,34.01805],[134.490094,34.018618],[134.490056,34.018756],[134.490087,34.019474],[134.490083,34.019588],[134.489956,34.020017],[134.489965,34.020245],[134.489904,34.02044],[134.489808,34.020564],[134.489735,34.020603],[134.489609,34.02058],[134.489574,34.020547],[134.489533,34.020434],[134.489469,34.020368],[134.489389,34.020316],[134.489244,34.02016],[134.489117,34.020057],[134.488491,34.020525],[134.488043,34.020838],[134.487521,34.021141],[134.486601,34.021586],[134.486459,34.021654],[134.486157,34.021756],[134.485821,34.021825],[134.485488,34.021835],[134.484513,34.021845],[134.484302,34.021894],[134.484154,34.021972],[134.483965,34.022166],[134.483619,34.022358],[134.483392,34.022455],[134.483226,34.02249],[134.483055,34.022458],[134.482899,34.022379],[134.482756,34.022361],[134.482488,34.022401],[134.482393,34.022394],[134.482002,34.02231],[134.481847,34.022244],[134.481697,34.022155],[134.481529,34.02199],[134.481473,34.021793],[134.481421,34.021746],[134.481329,34.021718],[134.481105,34.021611],[134.480806,34.021456],[134.480645,34.02132],[134.480426,34.021203],[134.480202,34.0211],[134.480012,34.020988],[134.479788,34.020885],[134.479486,34.020911],[134.479304,34.02096],[134.479121,34.020938],[134.478895,34.02091],[134.478613,34.020881],[134.478396,34.02086],[134.478288,34.020823],[134.47818,34.02075],[134.478051,34.020694],[134.477921,34.020657],[134.477758,34.020673],[134.477453,34.020714],[134.477105,34.020728],[134.476647,34.020794],[134.475738,34.020846],[134.475557,34.020856],[134.47548,34.020807],[134.475467,34.020501],[134.475453,34.020411],[134.475438,34.020312],[134.475332,34.020175],[134.475204,34.020039],[134.474858,34.0199],[134.47449,34.019823],[134.474188,34.019703],[134.473758,34.019446],[134.473112,34.019051],[134.472563,34.018666],[134.472511,34.01863],[134.472306,34.01854],[134.472233,34.017848],[134.472283,34.01745],[134.472331,34.016646],[134.472227,34.01664],[134.47213,34.016565],[134.47181,34.016488],[134.471502,34.01645],[134.471394,34.016491],[134.471154,34.016466],[134.470861,34.016346],[134.470573,34.016308],[134.4702,34.016319],[134.470128,34.016323],[134.469923,34.016218],[134.469694,34.01614],[134.469478,34.016106],[134.469134,34.015999],[134.468938,34.015987],[134.468757,34.016076],[134.468637,34.015859],[134.468468,34.015653],[134.468384,34.015641],[134.468193,34.015669],[134.467923,34.01579],[134.467691,34.015819],[134.467599,34.015813],[134.467523,34.015817],[134.467414,34.015601],[134.467344,34.015512],[134.46731,34.015339],[134.467279,34.01524],[134.467248,34.015122],[134.467072,34.014968],[134.466933,34.014784],[134.466833,34.014677],[134.466609,34.014421],[134.466487,34.014303],[134.466362,34.014194],[134.466341,34.014084],[134.466389,34.013952],[134.466417,34.013903],[134.466486,34.013673],[134.466489,34.013573],[134.466465,34.013378],[134.46645,34.013317],[134.466434,34.013146],[134.466495,34.012929],[134.466521,34.012697],[134.466536,34.012471],[134.466538,34.012276],[134.466591,34.012023],[134.466591,34.011947],[134.466545,34.011808],[134.46652,34.011722],[134.466518,34.011679],[134.466521,34.011607],[134.466515,34.011437],[134.466489,34.011314],[134.466376,34.011008],[134.466359,34.010922],[134.466378,34.010812],[134.46644,34.010652],[134.46654,34.010466],[134.466602,34.010343],[134.466556,34.010164],[134.466523,34.010068],[134.466462,34.009988],[134.466437,34.009967],[134.466306,34.009856],[134.466141,34.009715],[134.465988,34.009588],[134.465695,34.009444],[134.46553,34.009303],[134.465477,34.00921],[134.465348,34.008967],[134.465191,34.008849],[134.464962,34.008734],[134.464789,34.008645],[134.46453,34.008513],[134.464362,34.008448],[134.46428,34.008299],[134.464191,34.008162],[134.464003,34.00799],[134.46381,34.007902],[134.463545,34.007791],[134.463437,34.007785],[134.463257,34.007734],[134.463144,34.007631],[134.463043,34.007556],[134.462737,34.00747],[134.462525,34.007462],[134.462389,34.007436],[134.462312,34.00739],[134.462119,34.007226],[134.462008,34.007168],[134.461804,34.00715],[134.46176,34.007137],[134.461635,34.007005],[134.461586,34.006889],[134.461553,34.006823],[134.461484,34.006717],[134.461342,34.006575],[134.461187,34.006409],[134.461094,34.0063],[134.46099,34.006367],[134.460872,34.006444],[134.460229,34.006473],[134.460017,34.006471],[134.459691,34.006442],[134.459591,34.006423],[134.459074,34.006247],[134.459014,34.006248],[134.458892,34.006441],[134.458777,34.006522],[134.458654,34.00654],[134.458542,34.006564],[134.458423,34.006658],[134.458324,34.006722],[134.458151,34.006745],[134.457879,34.006773],[134.457811,34.006764],[134.457472,34.006783],[134.457201,34.006799],[134.457125,34.006833],[134.457027,34.00695],[134.456682,34.007182],[134.456421,34.007278],[134.456334,34.007316],[134.4559,34.007824],[134.455836,34.007858],[134.455713,34.007862],[134.455461,34.007854],[134.455345,34.007885],[134.454965,34.008157],[134.45483,34.008212],[134.454551,34.008313],[134.45434,34.008325],[134.454256,34.008329],[134.453818,34.008432],[134.453754,34.008443],[134.453394,34.008389],[134.453169,34.008314],[134.452966,34.008342],[134.452838,34.00833],[134.452408,34.008097],[134.452251,34.008022],[134.452114,34.007904],[134.4519,34.007746],[134.45172,34.007681],[134.451567,34.007649],[134.451404,34.007658],[134.451124,34.007721],[134.451025,34.007782],[134.450745,34.007867],[134.450539,34.008065],[134.450342,34.008277],[134.450044,34.008385],[134.449528,34.008465],[134.44925,34.008692],[134.4486,34.009075],[134.447838,34.009742],[134.447213,34.00985],[134.446563,34.009667],[134.445713,34.009525],[134.444438,34.009567],[134.4438,34.009692],[134.443301,34.009917],[134.442301,34.009933],[134.441801,34.0097],[134.441151,34.009542],[134.440626,34.009558],[134.440483,34.009543],[134.440351,34.009507],[134.44022,34.009447],[134.440112,34.009364],[134.439999,34.009215],[134.439717,34.008637],[134.439555,34.008397],[134.439398,34.008253],[134.439221,34.008117],[134.438589,34.007967],[134.437739,34.0076],[134.437039,34.00705],[134.436664,34.006575],[134.436626,34.006459],[134.436776,34.005967],[134.436801,34.005359],[134.436889,34.004976],[134.436989,34.004884],[134.437364,34.004709],[134.437837,34.004221],[134.437889,34.004167],[134.437924,34.003758],[134.437933,34.003412],[134.439861,34.003313],[134.440204,34.003247],[134.440465,34.003073],[134.442695,34.000572],[134.443042,34.000184],[134.44524,33.997972],[134.446833,33.99636],[134.447393,33.995962],[134.447928,33.995662],[134.448262,33.995439],[134.448533,33.995238],[134.44857,33.995178],[134.44978,33.995112],[134.450107,33.995156],[134.450427,33.99534],[134.451086,33.995717],[134.451312,33.995808],[134.45148,33.995807],[134.45162,33.995759],[134.452009,33.99546],[134.452311,33.995263],[134.45259,33.995144],[134.453298,33.994921],[134.453438,33.994873],[134.453493,33.994787],[134.453492,33.994655],[134.45272,33.993804],[134.452568,33.993541],[134.452507,33.993183],[134.452532,33.992887],[134.452595,33.992676],[134.452716,33.992574],[134.45319,33.992329],[134.45417,33.991746],[134.454393,33.991604],[134.454569,33.991454],[134.454678,33.991228],[134.455168,33.990282],[134.455325,33.99011],[134.45554,33.989968],[134.455659,33.989889],[134.45651,33.98947],[134.45732,33.989167],[134.459984,33.988553],[134.45975,33.988362],[134.459672,33.988285],[134.459539,33.988069],[134.459226,33.987008],[134.459109,33.986661],[134.459018,33.986464],[134.458923,33.986295],[134.458794,33.986071],[134.458542,33.985766],[134.458253,33.985467],[134.45782,33.985102],[134.456916,33.984537],[134.456328,33.984183],[134.455133,33.983577],[134.454438,33.983301],[134.454045,33.983164],[134.453451,33.982995],[134.453004,33.982896],[134.452665,33.982848],[134.45241,33.982728],[134.451561,33.982107],[134.450821,33.981576],[134.450408,33.981118],[134.450103,33.98039],[134.449938,33.979819],[134.449025,33.980171],[134.447472,33.980936],[134.447252,33.980979],[134.446994,33.98097],[134.446796,33.980859],[134.446647,33.980707],[134.445487,33.979039],[134.444353,33.977515],[134.443775,33.976926],[134.443182,33.976573],[134.442294,33.976252],[134.441396,33.976065],[134.440844,33.976012],[134.441131,33.970459],[134.441258,33.969043],[134.441526,33.966053],[134.441647,33.964617],[134.441772,33.963123],[134.441888,33.96185],[134.44196,33.961056],[134.442148,33.959446],[134.44272,33.956514],[134.443155,33.955355],[134.443506,33.954699],[134.44375,33.95439]]]},"properties":{"S_NAME":"下","HCODE":8101}},{"type":"Feature","geometry":{"type":"Polygon","coordinates":[[[134.44375,33.95439],[134.443506,33.954699],[134.443155,33.955355],[134.44272,33.956514],[134.442148,33.959446],[134.44196,33.961056],[134.441888,33.96185],[134.441772,33.963123],[134.441647,33.964617],[134.441526,33.966053],[134.441258,33.969043],[134.441131,33.970459],[134.440844,33.976012],[134.441396,33.976065],[134.442294,33.976252],[134.443182,33.976573],[134.443775,33.976926],[134.444353,33.977515],[134.445487,33.979039],[134.446647,33.980707],[134.446796,33.980859],[134.446994,33.98097],[134.447252,33.980979],[134.447472,33.980936],[134.449025,33.980171],[134.449938,33.979819],[134.450103,33.98039],[134.450408,33.981118],[134.450821,33.981576],[134.451561,33.982107],[134.45241,33.982728],[134.452665,33.982848],[134.453004,33.982896],[134.453451,33.982995],[134.454045,33.983164],[134.454438,33.983301],[134.455133,33.983577],[134.456328,33.984183],[134.456916,33.984537],[134.45782,33.985102],[134.458253,33.985467],[134.458542,33.985766],[134.458794,33.986071],[134.458923,33.986295],[134.459018,33.986464],[134.459109,33.986661],[134.459226,33.987008],[134.459539,33.988069],[134.459672,33.988285],[134.45975,33.988362],[134.459984,33.988553],[134.45732,33.989167],[134.45651,33.98947],[134.455659,33.989889],[134.45554,33.989968],[134.455325,33.99011],[134.455168,33.990282],[134.454678,33.991228],[134.454569,33.991454],[134.454393,33.991604],[134.45417,33.991746],[134.45319,33.992329],[134.452716,33.992574],[134.452595,33.992676],[134.452532,33.992887],[134.452507,33.993183],[134.452568,33.993541],[134.45272,33.993804],[134.453492,33.994655],[134.453493,33.994787],[134.453438,33.994873],[134.453298,33.994921],[134.45259,33.995144],[134.452311,33.995263],[134.452009,33.99546],[134.45162,33.995759],[134.45148,33.995807],[134.451312,33.995808],[134.451086,33.995717],[134.450427,33.99534],[134.450107,33.995156],[134.44978,33.995112],[134.44857,33.995178],[134.448533,33.995238],[134.448262,33.995439],[134.447928,33.995662],[134.447393,33.995962],[134.446833,33.99636],[134.44524,33.997972],[134.443042,34.000184],[134.442695,34.000572],[134.440465,34.003073],[134.440204,34.003247],[134.439861,34.003313],[134.437933,34.003412],[134.437941,34.003135],[134.437915,34.002954],[134.437818,34.002665],[134.437801,34.002263],[134.43786,34.001964],[134.438078,34.001427],[134.438326,34.000719],[134.438336,34.000538],[134.438303,34.000399],[134.438191,34.000116],[134.437885,33.999823],[134.437806,33.999686],[134.437783,33.999598],[134.437771,33.999376],[134.43779,33.998905],[134.437703,33.998491],[134.437546,33.998254],[134.437394,33.998086],[134.437252,33.998026],[134.436886,33.997965],[134.436397,33.997772],[134.435726,33.997457],[134.435299,33.99714],[134.435028,33.996815],[134.434458,33.996035],[134.434212,33.995808],[134.433885,33.995742],[134.43341,33.995645],[134.432233,33.99553],[134.431606,33.995469],[134.430861,33.994827],[134.430289,33.994377],[134.430008,33.994376],[134.429445,33.994518],[134.429016,33.994828],[134.428702,33.995319],[134.428498,33.995891],[134.42846,33.99597],[134.426768,33.996502],[134.426434,33.996103],[134.42614,33.995868],[134.425477,33.995527],[134.425243,33.995448],[134.424672,33.995404],[134.423462,33.995405],[134.423453,33.995327],[134.423553,33.99436],[134.423665,33.993835],[134.423553,33.993344],[134.42334,33.99316],[134.422712,33.992896],[134.42269,33.992887],[134.422015,33.992602],[134.420228,33.991794],[134.419653,33.991452],[134.419453,33.991027],[134.419199,33.990781],[134.419178,33.990761],[134.418141,33.990694],[134.417916,33.990577],[134.417553,33.990086],[134.417253,33.989586],[134.417228,33.989452],[134.417316,33.989044],[134.417289,33.988773],[134.41721,33.987954],[134.417178,33.987628],[134.4171,33.987269],[134.417066,33.987111],[134.416791,33.986836],[134.415166,33.986544],[134.413903,33.985986],[134.412879,33.985786],[134.412304,33.985566],[134.411685,33.985203],[134.411195,33.98484],[134.410831,33.984274],[134.41071,33.98389],[134.410795,33.983705],[134.411041,33.983486],[134.411091,33.983395],[134.411066,33.98292],[134.410704,33.98117],[134.410679,33.98042],[134.410866,33.978804],[134.410904,33.978237],[134.411316,33.977579],[134.411341,33.976887],[134.410654,33.975396],[134.410291,33.974854],[134.409854,33.974696],[134.406942,33.974029],[134.406329,33.973621],[134.406142,33.973438],[134.406004,33.972904],[134.406167,33.972521],[134.406504,33.972221],[134.406529,33.972113],[134.406467,33.971121],[134.406304,33.97058],[134.406117,33.970221],[134.405779,33.969905],[134.405779,33.969088],[134.405704,33.968463],[134.405754,33.96783],[134.405729,33.96728],[134.405754,33.967197],[134.406792,33.966497],[134.406767,33.966364],[134.406079,33.966189],[134.405667,33.965739],[134.40514,33.964891],[134.405092,33.964814],[134.404704,33.964047],[134.404766,33.963488],[134.405303,33.962551],[134.405367,33.962447],[134.405392,33.962039],[134.405104,33.961807],[134.404579,33.961512],[134.404069,33.961386],[134.403217,33.961298],[134.402479,33.961206],[134.401192,33.960289],[134.400742,33.960039],[134.400662,33.960025],[134.400611,33.959994],[134.400563,33.959842],[134.400601,33.959651],[134.400805,33.959223],[134.400805,33.958865],[134.400392,33.958548],[134.39998,33.957898],[134.39948,33.957223],[134.399292,33.95664],[134.399292,33.956432],[134.39937,33.956196],[134.399527,33.955968],[134.399543,33.955825],[134.399315,33.955404],[134.399295,33.955343],[134.399253,33.955212],[134.399292,33.955057],[134.399642,33.954632],[134.399856,33.953327],[134.399867,33.953257],[134.399867,33.953183],[134.399867,33.952665],[134.400055,33.952399],[134.40028,33.952265],[134.400297,33.95225],[134.400742,33.951832],[134.400992,33.951157],[134.40108,33.951224],[134.401955,33.951274],[134.40358,33.951807],[134.404542,33.951965],[134.406517,33.95239],[134.406842,33.952507],[134.407704,33.952907],[134.408604,33.953224],[134.409067,33.953182],[134.409954,33.953407],[134.410804,33.953382],[134.411266,33.953557],[134.411654,33.953832],[134.413604,33.954257],[134.415591,33.954324],[134.417266,33.95484],[134.418641,33.95509],[134.419491,33.955107],[134.421165,33.954724],[134.422378,33.954565],[134.42309,33.954565],[134.423665,33.954832],[134.42414,33.955265],[134.424415,33.955732],[134.424538,33.955816],[134.424843,33.956025],[134.424852,33.956032],[134.425015,33.956049],[134.42619,33.95589],[134.426527,33.956165],[134.42694,33.95634],[134.427152,33.95634],[134.429115,33.955915],[134.42969,33.956023],[134.429802,33.956157],[134.429602,33.956673],[134.429602,33.957132],[134.429852,33.957582],[134.430377,33.95789],[134.430789,33.957915],[134.431414,33.957648],[134.431639,33.957348],[134.431639,33.957307],[134.431802,33.956807],[134.432189,33.956315],[134.432677,33.955815],[134.433752,33.95519],[134.434851,33.954799],[134.435289,33.954557],[134.435814,33.954465],[134.436551,33.954507],[134.437401,33.953965],[134.437601,33.953899],[134.438776,33.953849],[134.439664,33.954032],[134.440464,33.954323],[134.441176,33.954457],[134.442164,33.95439],[134.44375,33.95439]]]},"properties":{"S_NAME":"上","HCODE":8101}}]}