{"type":"FeatureCollection","features":[{"type":"Feature","geometry":{"type":"Polygon","coordinates":[[[134.46767,34.061928],[134.467991,34.062129],[134.468057,34.062147],[134.468114,34.062162],[134.46818,34.062406],[134.468484,34.062329],[134.468546,34.062265],[134.469016,34.062314],[134.468894,34.063023],[134.468837,34.063209],[134.468751,34.063467],[134.468726,34.063707],[134.468672,34.064099],[134.468425,34.065351],[134.468406,34.06542],[134.46835,34.065708],[134.467984,34.065682],[134.467931,34.065955],[134.467484,34.06589],[134.467426,34.065639],[134.467268,34.065635],[134.467246,34.065504],[134.467251,34.065395],[134.46723,34.065321],[134.467189,34.065321],[134.467155,34.065407],[134.467131,34.065676],[134.467092,34.065882],[134.467111,34.066039],[134.467147,34.06621],[134.467061,34.066473],[134.467049,34.066622],[134.467052,34.066913],[134.467081,34.067027],[134.467425,34.067093],[134.467659,34.067131],[134.467815,34.066302],[134.468151,34.066327],[134.468523,34.066416],[134.468634,34.066423],[134.468576,34.06681],[134.468471,34.066808],[134.46844,34.067013],[134.468675,34.067042],[134.468672,34.067114],[134.468621,34.067446],[134.468332,34.067403],[134.468194,34.06737],[134.468166,34.067387],[134.468065,34.06745],[134.467997,34.067491],[134.467982,34.067516],[134.467949,34.067571],[134.467878,34.067909],[134.467662,34.068847],[134.467608,34.069539],[134.467534,34.070293],[134.467477,34.070617],[134.467409,34.070694],[134.467254,34.071226],[134.466881,34.071286],[134.466778,34.071383],[134.466666,34.071594],[134.466541,34.071714],[134.466186,34.071928],[134.465998,34.072058],[134.465702,34.072357],[134.465605,34.072368],[134.465489,34.072567],[134.465022,34.072953],[134.464891,34.07315],[134.464746,34.073501],[134.464586,34.073896],[134.464409,34.074155],[134.464366,34.074218],[134.464242,34.074478],[134.464132,34.074658],[134.46415,34.074682],[134.464275,34.074695],[134.464498,34.074715],[134.46455,34.07473],[134.464572,34.074762],[134.464556,34.074827],[134.464491,34.075057],[134.464465,34.075262],[134.464433,34.075349],[134.464368,34.07548],[134.464185,34.075845],[134.464051,34.076154],[134.463713,34.077049],[134.463593,34.077166],[134.46356,34.077194],[134.463542,34.077265],[134.46352,34.077372],[134.463465,34.077537],[134.463192,34.078079],[134.463184,34.078093],[134.463175,34.078117],[134.463206,34.078123],[134.463337,34.078147],[134.464012,34.078339],[134.464511,34.078445],[134.464691,34.078491],[134.464701,34.078523],[134.464653,34.078627],[134.464601,34.078703],[134.464451,34.078806],[134.464281,34.078906],[134.464164,34.078966],[134.463943,34.079149],[134.4638,34.079286],[134.463774,34.079499],[134.463775,34.079598],[134.463774,34.079605],[134.463695,34.080071],[134.463667,34.080302],[134.463607,34.080425],[134.463557,34.080638],[134.463534,34.080931],[134.463499,34.081215],[134.463432,34.081523],[134.463343,34.082263],[134.463343,34.082298],[134.463396,34.082314],[134.463528,34.082309],[134.46368,34.082331],[134.463804,34.082401],[134.463938,34.082439],[134.464056,34.08245],[134.464166,34.082536],[134.464108,34.082672],[134.463954,34.083452],[134.463935,34.083503],[134.463261,34.083351],[134.463175,34.08334],[134.463156,34.083344],[134.463134,34.083462],[134.463051,34.08364],[134.463009,34.083739],[134.462964,34.083925],[134.462921,34.084128],[134.462917,34.084218],[134.462914,34.084372],[134.462804,34.08472],[134.462789,34.084832],[134.46275,34.085112],[134.46269,34.085243],[134.462639,34.085377],[134.462546,34.085738],[134.462528,34.085833],[134.462446,34.086145],[134.462414,34.086204],[134.462377,34.086303],[134.462338,34.086504],[134.462328,34.086647],[134.462317,34.08679],[134.462338,34.086791],[134.462364,34.086792],[134.46263,34.086765],[134.463593,34.086689],[134.464203,34.086697],[134.464537,34.086754],[134.465122,34.086864],[134.465262,34.086552],[134.465317,34.086411],[134.465784,34.086429],[134.465776,34.086621],[134.466073,34.086606],[134.466068,34.086652],[134.466049,34.086738],[134.465877,34.086978],[134.465668,34.087048],[134.465297,34.087328],[134.465018,34.087551],[134.464781,34.087785],[134.464739,34.087896],[134.464572,34.088168],[134.464389,34.088344],[134.464282,34.088447],[134.464044,34.088609],[134.463685,34.08885],[134.463522,34.088939],[134.46345,34.088959],[134.463271,34.088977],[134.463037,34.089019],[134.462707,34.089076],[134.461964,34.089253],[134.461877,34.089263],[134.461317,34.08924],[134.460853,34.089314],[134.459969,34.089429],[134.459863,34.089436],[134.459287,34.089427],[134.458866,34.089431],[134.458526,34.089411],[134.457964,34.089235],[134.457729,34.089146],[134.456594,34.088977],[134.456442,34.088955],[134.456263,34.088943],[134.456105,34.08894],[134.455779,34.088924],[134.455506,34.088841],[134.455256,34.088829],[134.454984,34.088804],[134.454874,34.088742],[134.454642,34.08861],[134.454285,34.088306],[134.454186,34.088135],[134.454173,34.088008],[134.454173,34.087726],[134.454149,34.087532],[134.454071,34.087393],[134.453973,34.087312],[134.453733,34.087063],[134.453618,34.08691],[134.453434,34.086728],[134.45331,34.086606],[134.453244,34.086547],[134.453234,34.086513],[134.453232,34.086467],[134.45325,34.08643],[134.453301,34.086398],[134.453361,34.086374],[134.452982,34.086269],[134.452943,34.086361],[134.452936,34.086377],[134.452925,34.08643],[134.452855,34.086754],[134.452806,34.087526],[134.452796,34.08769],[134.452799,34.087837],[134.452694,34.088683],[134.452683,34.089098],[134.452767,34.089116],[134.45282,34.089128],[134.452821,34.089217],[134.452799,34.089752],[134.45279,34.089914],[134.452769,34.090063],[134.452787,34.090313],[134.452802,34.091001],[134.452847,34.091821],[134.452861,34.092202],[134.452927,34.09249],[134.453044,34.092721],[134.453116,34.092864],[134.453192,34.092989],[134.453414,34.093299],[134.453579,34.093566],[134.453217,34.093659],[134.453441,34.093948],[134.453483,34.094019],[134.453529,34.094096],[134.453583,34.094476],[134.453604,34.094962],[134.45363,34.095302],[134.453632,34.095325],[134.453651,34.095427],[134.453868,34.096546],[134.453902,34.096779],[134.454014,34.097431],[134.454032,34.098628],[134.454046,34.099198],[134.454411,34.099027],[134.455056,34.098743],[134.455225,34.09856],[134.45535,34.09852],[134.455964,34.09834],[134.456216,34.098526],[134.456517,34.098725],[134.456653,34.098831],[134.457274,34.099267],[134.457943,34.09971],[134.458052,34.099768],[134.45811,34.099794],[134.458349,34.099864],[134.458329,34.100045],[134.458658,34.100477],[134.4588,34.100745],[134.458811,34.100947],[134.458956,34.101216],[134.459144,34.101532],[134.458835,34.101929],[134.458967,34.102064],[134.459289,34.102397],[134.459139,34.102532],[134.459491,34.102908],[134.459261,34.103053],[134.459517,34.103288],[134.459168,34.10356],[134.459218,34.103606],[134.459123,34.103681],[134.459105,34.103751],[134.459145,34.104006],[134.459196,34.104881],[134.459216,34.105528],[134.459234,34.105689],[134.458864,34.105848],[134.458956,34.106105],[134.4594,34.107429],[134.45945,34.107723],[134.458555,34.107747],[134.458156,34.110046],[134.458702,34.11026],[134.458572,34.110686],[134.458475,34.110963],[134.458368,34.111441],[134.458252,34.111851],[134.458156,34.11217],[134.458105,34.112427],[134.457591,34.112222],[134.457365,34.112125],[134.457117,34.112023],[134.45688,34.111876],[134.456753,34.111684],[134.456668,34.111534],[134.456537,34.111259],[134.456162,34.110484],[134.456039,34.110315],[134.455901,34.110072],[134.455762,34.109816],[134.455669,34.109647],[134.455607,34.109516],[134.455473,34.109322],[134.45535,34.109135],[134.455136,34.108873],[134.454831,34.108568],[134.454586,34.108325],[134.454289,34.108001],[134.45385,34.1076],[134.45325,34.107061],[134.452907,34.106741],[134.452425,34.106359],[134.45209,34.106142],[134.4518,34.105917],[134.451284,34.105569],[134.451029,34.105441],[134.450832,34.10533],[134.450665,34.105218],[134.450512,34.105094],[134.45036,34.104932],[134.450145,34.104717],[134.449835,34.104389],[134.449525,34.104681],[134.448784,34.105379],[134.447927,34.106133],[134.447122,34.105971],[134.446238,34.105801],[134.445832,34.105723],[134.445394,34.105643],[134.443999,34.105389],[134.442382,34.105125],[134.44189,34.105059],[134.441315,34.104994],[134.441032,34.104967],[134.440532,34.104918],[134.439616,34.104855],[134.438666,34.104766],[134.437757,34.104686],[134.43753,34.104665],[134.437362,34.104649],[134.436791,34.104595],[134.435433,34.104483],[134.434445,34.10441],[134.433336,34.104362],[134.432005,34.104272],[134.431561,34.104259],[134.431334,34.104244],[134.431018,34.104222],[134.430722,34.104191],[134.430356,34.104169],[134.430119,34.10413],[134.429813,34.104091],[134.429513,34.104026],[134.428961,34.103835],[134.428367,34.103651],[134.428287,34.103622],[134.427664,34.103394],[134.427089,34.103176],[134.426584,34.103049],[134.426287,34.102944],[134.425861,34.102816],[134.425559,34.102696],[134.425203,34.1026],[134.424915,34.102495],[134.424727,34.102431],[134.42443,34.102327],[134.42422,34.10227],[134.424192,34.102263],[134.423885,34.102117],[134.423448,34.101858],[134.423079,34.101648],[134.422825,34.101502],[134.419262,34.099444],[134.418699,34.099131],[134.418667,34.099112],[134.415813,34.097463],[134.415276,34.097152],[134.413052,34.095856],[134.41195,34.09524],[134.411289,34.094859],[134.410982,34.094689],[134.410671,34.094453],[134.410544,34.094356],[134.409838,34.093877],[134.409401,34.093593],[134.408998,34.093292],[134.408389,34.092853],[134.408375,34.092843],[134.407586,34.092294],[134.406686,34.09175],[134.405593,34.091112],[134.405176,34.090882],[134.403597,34.090163],[134.401846,34.089366],[134.401253,34.089102],[134.400739,34.088864],[134.39951,34.088294],[134.397264,34.087203],[134.39741,34.086681],[134.397455,34.086509],[134.39755,34.086145],[134.397594,34.085958],[134.397675,34.085618],[134.397768,34.085273],[134.397817,34.085008],[134.397866,34.084785],[134.397904,34.08463],[134.398035,34.084089],[134.398192,34.083448],[134.398404,34.082669],[134.398435,34.082584],[134.398468,34.082493],[134.398532,34.082325],[134.398638,34.082102],[134.398717,34.081901],[134.398848,34.081335],[134.399002,34.080799],[134.399096,34.08042],[134.399303,34.079455],[134.399307,34.079425],[134.399311,34.079398],[134.399329,34.079278],[134.399388,34.079004],[134.399447,34.078775],[134.399508,34.078508],[134.399597,34.078108],[134.399667,34.077715],[134.399733,34.077437],[134.399819,34.077],[134.399823,34.076982],[134.39987,34.076771],[134.399964,34.076394],[134.400055,34.075916],[134.400135,34.075568],[134.400216,34.075363],[134.400254,34.075245],[134.400369,34.07495],[134.400389,34.074901],[134.400421,34.074823],[134.400687,34.07489],[134.400826,34.074996],[134.400945,34.075154],[134.40109,34.075328],[134.401196,34.075613],[134.401291,34.075805],[134.401466,34.07611],[134.401575,34.076215],[134.401728,34.076312],[134.401745,34.075569],[134.401727,34.075291],[134.401722,34.074528],[134.401716,34.074413],[134.401711,34.074246],[134.40169,34.074095],[134.401683,34.073871],[134.401671,34.073707],[134.401677,34.073328],[134.401664,34.073005],[134.401664,34.072585],[134.401628,34.072293],[134.401624,34.072149],[134.401597,34.071968],[134.401602,34.071778],[134.401639,34.071542],[134.401676,34.071192],[134.40169,34.071078],[134.401704,34.071008],[134.401713,34.070976],[134.401753,34.070824],[134.40184,34.070636],[134.401878,34.070533],[134.401891,34.070415],[134.401875,34.070289],[134.401848,34.070109],[134.401819,34.069838],[134.401811,34.069576],[134.401844,34.069378],[134.401896,34.069095],[134.402009,34.068857],[134.402096,34.068696],[134.402103,34.068548],[134.402126,34.068429],[134.4021,34.06824],[134.402095,34.068075],[134.402074,34.067952],[134.402073,34.067946],[134.402015,34.067682],[134.402,34.067563],[134.401956,34.067393],[134.401973,34.067221],[134.402023,34.067057],[134.402082,34.066857],[134.402174,34.066647],[134.402213,34.066539],[134.402229,34.066493],[134.402265,34.066392],[134.402363,34.066028],[134.402473,34.065691],[134.402516,34.065292],[134.402581,34.064875],[134.402679,34.064474],[134.40279,34.064168],[134.402833,34.063913],[134.402919,34.063625],[134.403004,34.06332],[134.403029,34.063047],[134.403045,34.062958],[134.403046,34.062952],[134.403073,34.062815],[134.403082,34.062774],[134.403169,34.062707],[134.403298,34.062608],[134.403354,34.06252],[134.403385,34.062374],[134.403405,34.062199],[134.403404,34.062074],[134.403373,34.061851],[134.403351,34.061685],[134.403337,34.061523],[134.403292,34.061422],[134.403201,34.061284],[134.403066,34.061143],[134.403004,34.061018],[134.402942,34.060883],[134.402843,34.060727],[134.402739,34.060503],[134.402607,34.060289],[134.402585,34.060113],[134.402695,34.059995],[134.402865,34.059876],[134.403085,34.059622],[134.403234,34.059428],[134.403374,34.059242],[134.403375,34.059151],[134.403372,34.059051],[134.403369,34.059019],[134.403356,34.05888],[134.403307,34.058691],[134.403233,34.058361],[134.403176,34.058185],[134.403222,34.057987],[134.403263,34.057881],[134.403302,34.057763],[134.403331,34.057595],[134.403369,34.057402],[134.403408,34.05725],[134.403466,34.056964],[134.403438,34.056842],[134.403461,34.056628],[134.403516,34.056091],[134.403538,34.055847],[134.403559,34.055573],[134.403647,34.054958],[134.403722,34.054525],[134.40381,34.054247],[134.40392,34.054029],[134.403968,34.053948],[134.404088,34.053744],[134.404184,34.053561],[134.404242,34.053337],[134.404289,34.053005],[134.404291,34.052706],[134.404234,34.052536],[134.404355,34.052529],[134.404465,34.052535],[134.40477,34.052581],[134.404929,34.052633],[134.405357,34.052761],[134.405614,34.052871],[134.405884,34.052991],[134.406161,34.053096],[134.406374,34.0532],[134.406567,34.053278],[134.406723,34.05337],[134.406762,34.053582],[134.406801,34.053856],[134.40684,34.054058],[134.406952,34.054342],[134.407212,34.054705],[134.407447,34.054956],[134.407643,34.055117],[134.407803,34.055207],[134.407949,34.055216],[134.408181,34.055194],[134.408546,34.055181],[134.408924,34.055179],[134.409149,34.055241],[134.409254,34.055318],[134.409424,34.055458],[134.409525,34.055549],[134.409697,34.0557],[134.409857,34.055841],[134.410005,34.055961],[134.41013,34.056305],[134.410291,34.056477],[134.410525,34.056718],[134.410804,34.056873],[134.41136,34.057021],[134.411741,34.057101],[134.41202,34.057234],[134.412198,34.057291],[134.412401,34.057289],[134.41256,34.057251],[134.412778,34.057127],[134.413033,34.056963],[134.413183,34.056855],[134.413277,34.056851],[134.413341,34.056903],[134.413416,34.056965],[134.413669,34.057161],[134.413963,34.057352],[134.414073,34.057361],[134.414218,34.057279],[134.414338,34.057095],[134.414532,34.056952],[134.414604,34.05684],[134.414699,34.056657],[134.414832,34.056534],[134.414992,34.056401],[134.415147,34.056359],[134.415306,34.056429],[134.415355,34.056479],[134.415429,34.05656],[134.415479,34.056671],[134.415615,34.056771],[134.415724,34.056771],[134.41598,34.056698],[134.416247,34.056556],[134.416392,34.056512],[134.416635,34.056449],[134.416868,34.056539],[134.417039,34.056609],[134.417312,34.05666],[134.417564,34.056645],[134.417952,34.05646],[134.418111,34.05629],[134.418368,34.056208],[134.41863,34.056171],[134.418873,34.056164],[134.419142,34.056168],[134.419503,34.056188],[134.419814,34.056226],[134.420012,34.056247],[134.420372,34.056279],[134.420496,34.056255],[134.420642,34.056266],[134.420815,34.056282],[134.420982,34.056321],[134.421134,34.056348],[134.421293,34.056359],[134.421494,34.056363],[134.421764,34.056367],[134.422083,34.05641],[134.422222,34.056461],[134.422354,34.056495],[134.422561,34.056493],[134.422734,34.056486],[134.422893,34.056421],[134.423099,34.056339],[134.423224,34.056304],[134.423396,34.056297],[134.423449,34.056132],[134.423517,34.05597],[134.423589,34.055846],[134.423751,34.05554],[134.423853,34.055355],[134.424099,34.054996],[134.4243,34.054743],[134.424549,34.054494],[134.424847,34.054182],[134.424982,34.054046],[134.425166,34.053861],[134.425397,34.053648],[134.425694,34.05339],[134.425874,34.053227],[134.426075,34.053043],[134.42621,34.052936],[134.426284,34.05286],[134.426353,34.05284],[134.426493,34.052941],[134.426701,34.05301],[134.426971,34.053021],[134.427301,34.05298],[134.427563,34.052984],[134.427787,34.053091],[134.42802,34.05323],[134.428259,34.053273],[134.428667,34.053309],[134.428828,34.053295],[134.428943,34.053211],[134.429275,34.052987],[134.429429,34.052941],[134.429575,34.052959],[134.429738,34.053086],[134.429948,34.053225],[134.43011,34.053333],[134.430246,34.053437],[134.430362,34.053449],[134.430646,34.053428],[134.430831,34.053427],[134.431314,34.053276],[134.431452,34.053243],[134.43175,34.053061],[134.43198,34.052944],[134.432309,34.052913],[134.432492,34.052943],[134.432593,34.05301],[134.432727,34.053099],[134.432732,34.053102],[134.432807,34.053203],[134.432913,34.053276],[134.432914,34.053277],[134.43297,34.053385],[134.433094,34.053448],[134.433171,34.053466],[134.43347,34.053349],[134.433624,34.053354],[134.433755,34.053379],[134.433895,34.053531],[134.434067,34.053767],[134.434152,34.053811],[134.434291,34.053835],[134.434437,34.053834],[134.434802,34.053758],[134.435032,34.053743],[134.435248,34.053774],[134.435348,34.053754],[134.435585,34.053592],[134.435631,34.053604],[134.435902,34.053788],[134.436173,34.053875],[134.436357,34.053868],[134.436755,34.053964],[134.437041,34.05407],[134.437466,34.054278],[134.437651,34.054328],[134.437789,34.054302],[134.437951,34.0543],[134.438442,34.05413],[134.438557,34.05411],[134.438796,34.054121],[134.438903,34.05412],[134.43941,34.053969],[134.43964,34.053942],[134.439833,34.053972],[134.439971,34.053958],[134.440169,34.053949],[134.440298,34.053946],[134.44046,34.053945],[134.440814,34.05393],[134.440921,34.053929],[134.441136,34.053844],[134.441397,34.053765],[134.441672,34.053629],[134.441753,34.053599],[134.441876,34.053598],[134.442014,34.05361],[134.442638,34.053644],[134.44273,34.053643],[134.442815,34.053597],[134.442955,34.053523],[134.44349,34.053113],[134.443551,34.053068],[134.443603,34.053061],[134.443655,34.053098],[134.443997,34.05332],[134.444097,34.053344],[134.444197,34.053356],[134.444373,34.053272],[134.444871,34.053057],[134.445045,34.052951],[134.445258,34.053072],[134.445436,34.0532],[134.445458,34.053247],[134.445496,34.053523],[134.445469,34.053605],[134.445421,34.053717],[134.445323,34.053795],[134.445231,34.053842],[134.445161,34.053878],[134.445168,34.053913],[134.445232,34.053948],[134.44565,34.054074],[134.445782,34.054121],[134.445817,34.054134],[134.446007,34.054205],[134.446194,34.054331],[134.446294,34.054389],[134.4464,34.054389],[134.446752,34.054262],[134.446907,34.054244],[134.447048,34.054248],[134.447453,34.054416],[134.44763,34.054455],[134.447924,34.054503],[134.448221,34.054571],[134.448413,34.054646],[134.448668,34.054697],[134.449071,34.054718],[134.449672,34.054813],[134.449948,34.05487],[134.45009,34.054904],[134.450289,34.05499],[134.450503,34.0552],[134.450683,34.055373],[134.451014,34.055687],[134.45112,34.055739],[134.451276,34.05575],[134.451481,34.055724],[134.451734,34.05564],[134.451861,34.05561],[134.452017,34.055644],[134.452508,34.055934],[134.452671,34.056009],[134.452799,34.056061],[134.452951,34.056057],[134.45307,34.056021],[134.453141,34.056032],[134.45356,34.056246],[134.453589,34.056275],[134.453743,34.056768],[134.453786,34.056838],[134.453886,34.056919],[134.45417,34.057093],[134.454277,34.057104],[134.454411,34.057085],[134.454732,34.057086],[134.454747,34.057121],[134.454794,34.057242],[134.455071,34.057545],[134.455184,34.05767],[134.45529,34.057687],[134.455453,34.057715],[134.455651,34.057778],[134.455757,34.057783],[134.455927,34.057741],[134.45627,34.057468],[134.456324,34.057452],[134.45634,34.057458],[134.456489,34.057501],[134.456504,34.057536],[134.456638,34.057753],[134.456769,34.057893],[134.456993,34.058029],[134.457093,34.058075],[134.457234,34.058086],[134.457699,34.057947],[134.457771,34.057966],[134.457776,34.057974],[134.457877,34.058052],[134.457998,34.058238],[134.458086,34.05842],[134.458286,34.058578],[134.458629,34.058782],[134.458823,34.058905],[134.45905,34.058986],[134.459248,34.059055],[134.459461,34.059129],[134.459539,34.059176],[134.45959,34.059281],[134.459701,34.059692],[134.459808,34.059826],[134.459901,34.059913],[134.460057,34.059971],[134.460403,34.060011],[134.460991,34.060055],[134.461421,34.060066],[134.461592,34.060039],[134.462109,34.059912],[134.462312,34.05993],[134.462418,34.059912],[134.462544,34.05982],[134.462806,34.059598],[134.463184,34.059457],[134.463743,34.059344],[134.46399,34.059328],[134.464207,34.05936],[134.46451,34.059452],[134.464675,34.059556],[134.46484,34.059645],[134.465262,34.060179],[134.46546,34.060386],[134.465489,34.060411],[134.465565,34.06047],[134.465689,34.060491],[134.465912,34.060475],[134.465978,34.060497],[134.466206,34.060641],[134.466624,34.060806],[134.466885,34.060954],[134.466964,34.061008],[134.467029,34.06127],[134.467218,34.061588],[134.467482,34.061809],[134.46767,34.061928]]]},"properties":{"code":"36341","name":"石井町"}}]}