{"type":"FeatureCollection","features":[{"type":"Feature","geometry":{"type":"Polygon","coordinates":[[[134.399295,33.955343],[134.399315,33.955404],[134.399543,33.955825],[134.399527,33.955968],[134.39937,33.956196],[134.399292,33.956432],[134.399292,33.95664],[134.39948,33.957223],[134.39998,33.957898],[134.400392,33.958548],[134.400805,33.958865],[134.400805,33.959223],[134.400601,33.959651],[134.400563,33.959842],[134.400611,33.959994],[134.400662,33.960025],[134.400742,33.960039],[134.401192,33.960289],[134.402479,33.961206],[134.403217,33.961298],[134.404069,33.961386],[134.404579,33.961512],[134.405104,33.961807],[134.405392,33.962039],[134.405367,33.962447],[134.405303,33.962551],[134.404766,33.963488],[134.404704,33.964047],[134.405092,33.964814],[134.40514,33.964891],[134.405667,33.965739],[134.406079,33.966189],[134.406767,33.966364],[134.406792,33.966497],[134.405754,33.967197],[134.405729,33.96728],[134.405754,33.96783],[134.405704,33.968463],[134.405779,33.969088],[134.405779,33.969905],[134.406117,33.970221],[134.406304,33.97058],[134.406467,33.971121],[134.406529,33.972113],[134.406504,33.972221],[134.406167,33.972521],[134.406004,33.972904],[134.406142,33.973438],[134.406329,33.973621],[134.406942,33.974029],[134.409854,33.974696],[134.410291,33.974854],[134.410654,33.975396],[134.411341,33.976887],[134.411316,33.977579],[134.410904,33.978237],[134.410866,33.978804],[134.410679,33.98042],[134.410704,33.98117],[134.411066,33.98292],[134.411091,33.983395],[134.411041,33.983486],[134.410795,33.983705],[134.41071,33.98389],[134.410831,33.984274],[134.411195,33.98484],[134.411685,33.985203],[134.412304,33.985566],[134.412879,33.985786],[134.413903,33.985986],[134.415166,33.986544],[134.416791,33.986836],[134.417066,33.987111],[134.4171,33.987269],[134.417178,33.987628],[134.41721,33.987954],[134.417289,33.988773],[134.417316,33.989044],[134.417228,33.989452],[134.417253,33.989586],[134.417553,33.990086],[134.417916,33.990577],[134.418141,33.990694],[134.419178,33.990761],[134.419199,33.990781],[134.419453,33.991027],[134.419653,33.991452],[134.420228,33.991794],[134.422015,33.992602],[134.42269,33.992887],[134.422712,33.992896],[134.42334,33.99316],[134.423553,33.993344],[134.423665,33.993835],[134.423553,33.99436],[134.423453,33.995327],[134.423462,33.995405],[134.424672,33.995404],[134.425243,33.995448],[134.425477,33.995527],[134.42614,33.995868],[134.426434,33.996103],[134.426768,33.996502],[134.42846,33.99597],[134.428498,33.995891],[134.428702,33.995319],[134.429016,33.994828],[134.429445,33.994518],[134.430008,33.994376],[134.430289,33.994377],[134.430861,33.994827],[134.431606,33.995469],[134.432233,33.99553],[134.43341,33.995645],[134.433885,33.995742],[134.434212,33.995808],[134.434458,33.996035],[134.435028,33.996815],[134.435299,33.99714],[134.435726,33.997457],[134.436397,33.997772],[134.436886,33.997965],[134.437252,33.998026],[134.437394,33.998086],[134.437546,33.998254],[134.437703,33.998491],[134.43779,33.998905],[134.437771,33.999376],[134.437783,33.999598],[134.437806,33.999686],[134.437885,33.999823],[134.438191,34.000116],[134.438303,34.000399],[134.438336,34.000538],[134.438326,34.000719],[134.438078,34.001427],[134.43786,34.001964],[134.437801,34.002263],[134.437818,34.002665],[134.437915,34.002954],[134.437941,34.003135],[134.437933,34.003412],[134.437924,34.003758],[134.437889,34.004167],[134.437837,34.004221],[134.437364,34.004709],[134.436989,34.004884],[134.436889,34.004976],[134.436801,34.005359],[134.436776,34.005967],[134.436626,34.006459],[134.436664,34.006575],[134.437039,34.00705],[134.437739,34.0076],[134.438589,34.007967],[134.439221,34.008117],[134.439398,34.008253],[134.439555,34.008397],[134.439717,34.008637],[134.439999,34.009215],[134.440112,34.009364],[134.44022,34.009447],[134.440351,34.009507],[134.440483,34.009543],[134.440626,34.009558],[134.441151,34.009542],[134.441801,34.0097],[134.442301,34.009933],[134.443301,34.009917],[134.4438,34.009692],[134.444438,34.009567],[134.445713,34.009525],[134.446563,34.009667],[134.447213,34.00985],[134.447838,34.009742],[134.4486,34.009075],[134.44925,34.008692],[134.449528,34.008465],[134.449665,34.008667],[134.449691,34.008721],[134.449827,34.009008],[134.450263,34.009508],[134.450572,34.009863],[134.450933,34.010334],[134.450954,34.010362],[134.451058,34.010615],[134.451143,34.010742],[134.451465,34.01098],[134.451613,34.01117],[134.451673,34.011486],[134.451633,34.011863],[134.451582,34.012249],[134.451742,34.012457],[134.451836,34.012583],[134.451933,34.012711],[134.452094,34.012953],[134.452102,34.012965],[134.45212,34.012996],[134.452225,34.013177],[134.45226,34.013237],[134.452344,34.013306],[134.452439,34.013438],[134.452472,34.013466],[134.452558,34.013539],[134.452587,34.013617],[134.45261,34.013682],[134.452737,34.013917],[134.452907,34.014081],[134.453066,34.014169],[134.45309,34.014182],[134.45309,34.014195],[134.453086,34.014425],[134.453062,34.01455],[134.453081,34.014668],[134.453239,34.014939],[134.453359,34.015121],[134.453369,34.015136],[134.454313,34.016508],[134.454484,34.016858],[134.454542,34.017157],[134.454543,34.017261],[134.454512,34.017433],[134.454472,34.017614],[134.454397,34.017838],[134.454311,34.017996],[134.454131,34.018155],[134.453983,34.018298],[134.453933,34.018408],[134.453893,34.018515],[134.453726,34.019061],[134.453721,34.019255],[134.45368,34.019553],[134.453719,34.019777],[134.453722,34.020007],[134.453739,34.020219],[134.453675,34.020395],[134.453413,34.020723],[134.453223,34.020775],[134.453001,34.020801],[134.452909,34.020805],[134.452654,34.020879],[134.452411,34.020925],[134.452237,34.021031],[134.451955,34.021136],[134.451143,34.021467],[134.451066,34.021457],[134.450377,34.021153],[134.450114,34.02087],[134.449919,34.020816],[134.449725,34.020745],[134.449714,34.020742],[134.44951,34.020685],[134.449316,34.020647],[134.449079,34.020609],[134.448963,34.02059],[134.448858,34.020582],[134.44869,34.020687],[134.448646,34.020685],[134.448559,34.020619],[134.448405,34.020569],[134.448268,34.020545],[134.448136,34.020536],[134.447911,34.020469],[134.447419,34.020394],[134.447093,34.020328],[134.446949,34.020336],[134.446566,34.020432],[134.445992,34.020467],[134.445711,34.020526],[134.44518,34.020651],[134.445176,34.020651],[134.445177,34.02082],[134.444922,34.02131],[134.444673,34.021444],[134.444606,34.021313],[134.444566,34.021096],[134.444173,34.020867],[134.444059,34.020651],[134.444001,34.020442],[134.443688,34.020242],[134.443624,34.020202],[134.443516,34.020129],[134.443325,34.02],[134.443149,34.019891],[134.443014,34.01974],[134.442844,34.019261],[134.442819,34.018994],[134.442659,34.018833],[134.442642,34.018748],[134.442636,34.018626],[134.442562,34.018516],[134.442531,34.018391],[134.442518,34.018266],[134.442402,34.018051],[134.442253,34.017859],[134.442116,34.017755],[134.441997,34.017729],[134.441957,34.017721],[134.441857,34.017691],[134.4417,34.017683],[134.440834,34.017692],[134.440723,34.017658],[134.44065,34.017652],[134.440455,34.017569],[134.440314,34.017492],[134.440261,34.017492],[134.440235,34.017597],[134.440254,34.017746],[134.440183,34.017803],[134.439796,34.017833],[134.438784,34.017764],[134.438673,34.017765],[134.438608,34.017791],[134.438353,34.018065],[134.438158,34.018137],[134.437991,34.018259],[134.437523,34.018196],[134.437203,34.018162],[134.437145,34.018133],[134.437025,34.018074],[134.436794,34.017923],[134.43671,34.017923],[134.436569,34.017969],[134.436385,34.018034],[134.435986,34.017941],[134.43589,34.017926],[134.435734,34.017985],[134.435575,34.018139],[134.435482,34.018265],[134.435258,34.018755],[134.435247,34.018787],[134.435296,34.018957],[134.435345,34.019195],[134.435268,34.019547],[134.435268,34.01983],[134.435196,34.019974],[134.435265,34.020149],[134.435291,34.020253],[134.435243,34.020463],[134.435224,34.020509],[134.43498,34.020697],[134.434827,34.020846],[134.434697,34.020981],[134.434461,34.021223],[134.434324,34.021595],[134.434299,34.021609],[134.434201,34.02161],[134.433874,34.021626],[134.433738,34.021647],[134.433611,34.021729],[134.43339,34.02195],[134.433264,34.022009],[134.433154,34.022061],[134.432919,34.022205],[134.432816,34.022402],[134.432516,34.022591],[134.432416,34.022791],[134.432154,34.022853],[134.431854,34.023025],[134.431566,34.023142],[134.431495,34.023263],[134.43151,34.023449],[134.431444,34.023698],[134.431288,34.023879],[134.431204,34.023979],[134.431073,34.02404],[134.430961,34.024068],[134.430771,34.024064],[134.430541,34.024066],[134.430278,34.024079],[134.430081,34.024135],[134.429655,34.024225],[134.429327,34.024244],[134.429117,34.024339],[134.428822,34.024628],[134.428665,34.024695],[134.428507,34.024756],[134.428226,34.024906],[134.427521,34.025316],[134.42745,34.025393],[134.427427,34.02576],[134.427416,34.025886],[134.427357,34.025963],[134.427303,34.026433],[134.427287,34.026772],[134.427197,34.026899],[134.42708,34.027069],[134.426891,34.02718],[134.426793,34.027274],[134.426721,34.027387],[134.426703,34.027416],[134.426711,34.027537],[134.426831,34.027771],[134.426891,34.027836],[134.426954,34.027866],[134.427014,34.02792],[134.427267,34.028268],[134.427374,34.028388],[134.427622,34.028541],[134.4279,34.028692],[134.428041,34.028948],[134.428158,34.029153],[134.428451,34.029511],[134.428655,34.030144],[134.428677,34.030308],[134.428585,34.030656],[134.4286,34.030836],[134.42866,34.030912],[134.428768,34.031108],[134.428861,34.031244],[134.428869,34.031414],[134.428862,34.031591],[134.428924,34.031892],[134.428973,34.032121],[134.429084,34.03238],[134.429086,34.032582],[134.429036,34.032774],[134.428854,34.033027],[134.428814,34.033227],[134.428836,34.033445],[134.428891,34.033647],[134.428913,34.033904],[134.428862,34.034074],[134.428877,34.034167],[134.428948,34.03441],[134.428944,34.03459],[134.428934,34.034874],[134.428948,34.034962],[134.428989,34.035147],[134.42895,34.035213],[134.428831,34.035374],[134.42879,34.035522],[134.42876,34.035879],[134.428804,34.036008],[134.428949,34.036244],[134.428985,34.036454],[134.429067,34.036784],[134.429105,34.037234],[134.429196,34.037599],[134.429313,34.038011],[134.429402,34.038257],[134.429391,34.038351],[134.429271,34.03852],[134.429222,34.038632],[134.429233,34.038688],[134.429287,34.038775],[134.429301,34.038837],[134.429276,34.038999],[134.429219,34.039136],[134.429187,34.039216],[134.429181,34.039279],[134.429208,34.039344],[134.429225,34.039412],[134.429219,34.039513],[134.429217,34.039587],[134.429193,34.039789],[134.429155,34.039956],[134.429083,34.039991],[134.428866,34.040079],[134.428786,34.040113],[134.428587,34.040302],[134.428315,34.040611],[134.428271,34.04066],[134.428215,34.040756],[134.428018,34.040953],[134.427775,34.04121],[134.427657,34.041302],[134.427365,34.041501],[134.427067,34.041706],[134.426915,34.041894],[134.426721,34.042209],[134.426682,34.042257],[134.426648,34.042478],[134.426669,34.042854],[134.426747,34.043138],[134.426733,34.043238],[134.426694,34.043282],[134.426641,34.043305],[134.426522,34.04328],[134.426487,34.043284],[134.426461,34.04331],[134.42634,34.043489],[134.425965,34.04352],[134.425437,34.043801],[134.425294,34.043886],[134.425093,34.043993],[134.424971,34.044086],[134.42513,34.044356],[134.425144,34.044433],[134.425048,34.044518],[134.4249,34.044595],[134.424667,34.044623],[134.424462,34.044719],[134.424353,34.044738],[134.424191,34.044772],[134.424099,34.044806],[134.423985,34.044829],[134.423251,34.044728],[134.422935,34.04555],[134.422358,34.047135],[134.422225,34.047263],[134.422135,34.04735],[134.42239,34.047819],[134.42253,34.048075],[134.422794,34.048595],[134.422863,34.048614],[134.42321,34.048688],[134.423658,34.048774],[134.423835,34.048817],[134.424009,34.048949],[134.42421,34.049359],[134.424265,34.049473],[134.424405,34.049543],[134.424543,34.049567],[134.42466,34.049637],[134.424796,34.049805],[134.424839,34.049936],[134.424821,34.05001],[134.42483,34.050125],[134.424886,34.05024],[134.425018,34.050354],[134.425249,34.050429],[134.425434,34.050447],[134.425894,34.050315],[134.42601,34.050295],[134.426049,34.05034],[134.426073,34.050436],[134.42617,34.050889],[134.426203,34.051049],[134.426244,34.051298],[134.426179,34.051513],[134.426181,34.051849],[134.426198,34.05206],[134.426214,34.05211],[134.426238,34.052185],[134.426339,34.052309],[134.426321,34.052549],[134.426337,34.052808],[134.426353,34.05284],[134.426284,34.05286],[134.42621,34.052936],[134.426075,34.053043],[134.425874,34.053227],[134.425694,34.05339],[134.425397,34.053648],[134.425166,34.053861],[134.424982,34.054046],[134.424847,34.054182],[134.424549,34.054494],[134.4243,34.054743],[134.424099,34.054996],[134.423853,34.055355],[134.423751,34.05554],[134.423589,34.055846],[134.423517,34.05597],[134.423449,34.056132],[134.423396,34.056297],[134.423224,34.056304],[134.423099,34.056339],[134.422893,34.056421],[134.422734,34.056486],[134.422561,34.056493],[134.422354,34.056495],[134.422222,34.056461],[134.422083,34.05641],[134.421764,34.056367],[134.421494,34.056363],[134.421293,34.056359],[134.421134,34.056348],[134.420982,34.056321],[134.420815,34.056282],[134.420642,34.056266],[134.420496,34.056255],[134.420372,34.056279],[134.420012,34.056247],[134.419814,34.056226],[134.419503,34.056188],[134.419142,34.056168],[134.418873,34.056164],[134.41863,34.056171],[134.418368,34.056208],[134.418111,34.05629],[134.417952,34.05646],[134.417564,34.056645],[134.417312,34.05666],[134.417039,34.056609],[134.416868,34.056539],[134.416635,34.056449],[134.416392,34.056512],[134.416247,34.056556],[134.41598,34.056698],[134.415724,34.056771],[134.415615,34.056771],[134.415479,34.056671],[134.415429,34.05656],[134.415355,34.056479],[134.415306,34.056429],[134.415147,34.056359],[134.414992,34.056401],[134.414832,34.056534],[134.414699,34.056657],[134.414604,34.05684],[134.414532,34.056952],[134.414338,34.057095],[134.414218,34.057279],[134.414073,34.057361],[134.413963,34.057352],[134.413669,34.057161],[134.413416,34.056965],[134.413341,34.056903],[134.413277,34.056851],[134.413183,34.056855],[134.413033,34.056963],[134.412778,34.057127],[134.41256,34.057251],[134.412401,34.057289],[134.412198,34.057291],[134.41202,34.057234],[134.411741,34.057101],[134.41136,34.057021],[134.410804,34.056873],[134.410525,34.056718],[134.410291,34.056477],[134.41013,34.056305],[134.410005,34.055961],[134.409857,34.055841],[134.409697,34.0557],[134.409525,34.055549],[134.409424,34.055458],[134.409254,34.055318],[134.409149,34.055241],[134.408924,34.055179],[134.408546,34.055181],[134.408181,34.055194],[134.407949,34.055216],[134.407803,34.055207],[134.407643,34.055117],[134.407447,34.054956],[134.407212,34.054705],[134.406952,34.054342],[134.40684,34.054058],[134.406801,34.053856],[134.406762,34.053582],[134.406723,34.05337],[134.406567,34.053278],[134.406374,34.0532],[134.406161,34.053096],[134.405884,34.052991],[134.405614,34.052871],[134.405357,34.052761],[134.404929,34.052633],[134.40477,34.052581],[134.404465,34.052535],[134.404355,34.052529],[134.404234,34.052536],[134.403971,34.052219],[134.403792,34.052053],[134.403768,34.05202],[134.403655,34.051867],[134.403524,34.051642],[134.403496,34.051563],[134.403436,34.051396],[134.403396,34.051026],[134.403362,34.050746],[134.403189,34.05054],[134.402908,34.050339],[134.402717,34.050253],[134.402692,34.050246],[134.402581,34.050265],[134.402299,34.050265],[134.40194,34.050265],[134.401862,34.050267],[134.401761,34.050301],[134.40143,34.050419],[134.400967,34.050506],[134.399728,34.05068],[134.399574,34.050742],[134.399443,34.050828],[134.399339,34.051015],[134.399331,34.051172],[134.399307,34.051252],[134.399226,34.051286],[134.399056,34.051301],[134.398818,34.051321],[134.398456,34.051458],[134.397492,34.051753],[134.397295,34.051828],[134.397175,34.051886],[134.397062,34.051991],[134.396952,34.05214],[134.396828,34.052244],[134.396671,34.052355],[134.396497,34.052555],[134.396426,34.052711],[134.396267,34.05275],[134.396009,34.052778],[134.395769,34.052752],[134.395577,34.05273],[134.395414,34.052769],[134.395244,34.052858],[134.395233,34.052863],[134.395101,34.052962],[134.394974,34.053086],[134.394793,34.05318],[134.394637,34.053179],[134.394475,34.053088],[134.394278,34.052977],[134.394118,34.052887],[134.394116,34.052886],[134.394115,34.052885],[134.393985,34.052725],[134.393875,34.052563],[134.393842,34.052514],[134.393836,34.052488],[134.393723,34.0523],[134.393614,34.052156],[134.393503,34.052056],[134.393425,34.052062],[134.393281,34.052046],[134.393226,34.052006],[134.393216,34.051999],[134.393149,34.05195],[134.393147,34.051947],[134.393049,34.051772],[134.393042,34.05176],[134.393035,34.051746],[134.392973,34.051636],[134.392935,34.051569],[134.392871,34.051294],[134.392825,34.051029],[134.392728,34.050807],[134.392572,34.0507],[134.392467,34.050632],[134.39218,34.05047],[134.391941,34.050314],[134.391672,34.050032],[134.391458,34.049781],[134.391261,34.04954],[134.390976,34.049419],[134.390949,34.049408],[134.390542,34.0492],[134.390333,34.049104],[134.390105,34.049063],[134.389968,34.048877],[134.389872,34.048801],[134.389717,34.048735],[134.389694,34.04873],[134.389519,34.048689],[134.389273,34.048638],[134.389042,34.04855],[134.389033,34.048546],[134.388788,34.04843],[134.388674,34.048279],[134.388607,34.048166],[134.388597,34.048149],[134.388592,34.048141],[134.388484,34.047998],[134.388323,34.047842],[134.388197,34.047771],[134.388007,34.047679],[134.387916,34.047635],[134.387677,34.047413],[134.387657,34.047374],[134.387564,34.047198],[134.387434,34.046907],[134.387334,34.046546],[134.387294,34.046241],[134.387031,34.04618],[134.386797,34.046113],[134.386575,34.046069],[134.386514,34.046056],[134.386437,34.046041],[134.386149,34.045944],[134.385772,34.045732],[134.385727,34.045664],[134.385701,34.045627],[134.385644,34.045468],[134.385612,34.045381],[134.385584,34.045191],[134.385561,34.045026],[134.385566,34.044964],[134.385455,34.044927],[134.385095,34.044848],[134.384682,34.044796],[134.384334,34.044789],[134.38405,34.044565],[134.383897,34.044505],[134.383822,34.044476],[134.38372,34.044461],[134.383473,34.044424],[134.382919,34.044354],[134.382646,34.044247],[134.382625,34.044239],[134.38233,34.044114],[134.38183,34.044053],[134.381695,34.044044],[134.381449,34.044028],[134.381429,34.044023],[134.381166,34.043957],[134.380862,34.043822],[134.380807,34.043797],[134.380746,34.04379],[134.380513,34.043762],[134.380198,34.043791],[134.380035,34.043738],[134.379915,34.043657],[134.379784,34.043595],[134.379707,34.043424],[134.379689,34.043251],[134.379673,34.043088],[134.379672,34.043082],[134.37966,34.042902],[134.379572,34.042722],[134.379473,34.042532],[134.379387,34.042484],[134.37926,34.042412],[134.378984,34.0423],[134.378764,34.042229],[134.378714,34.042213],[134.378623,34.042194],[134.378403,34.042146],[134.378241,34.04199],[134.378086,34.041859],[134.378025,34.041839],[134.3779,34.041798],[134.377733,34.041747],[134.377641,34.041729],[134.377439,34.04169],[134.377216,34.041627],[134.377205,34.041624],[134.377183,34.041626],[134.377103,34.041633],[134.377007,34.041642],[134.376995,34.041643],[134.376622,34.041665],[134.376406,34.041609],[134.376275,34.041513],[134.376192,34.041357],[134.376109,34.041202],[134.376087,34.041184],[134.375953,34.041071],[134.375889,34.041025],[134.375804,34.040965],[134.375643,34.040809],[134.375595,34.040782],[134.375391,34.040667],[134.375231,34.040577],[134.37514,34.040526],[134.374901,34.040369],[134.374673,34.040164],[134.374644,34.040138],[134.374633,34.040129],[134.374421,34.039958],[134.374375,34.039921],[134.374223,34.03987],[134.374088,34.039824],[134.373812,34.039778],[134.373572,34.039751],[134.373357,34.039666],[134.373185,34.039644],[134.372684,34.039476],[134.372379,34.039288],[134.372278,34.039174],[134.372274,34.038951],[134.372279,34.038816],[134.372285,34.038737],[134.372295,34.038657],[134.372306,34.038592],[134.372374,34.038409],[134.372416,34.038309],[134.37242,34.038272],[134.37242,34.038233],[134.372408,34.038194],[134.372394,34.038165],[134.372368,34.038132],[134.37234,34.038106],[134.372308,34.03808],[134.372167,34.037997],[134.372153,34.037978],[134.372155,34.037959],[134.37216,34.037927],[134.372159,34.037886],[134.372144,34.037842],[134.372124,34.037803],[134.37211,34.037779],[134.37209,34.037747],[134.372075,34.037724],[134.372042,34.037676],[134.372014,34.03763],[134.371991,34.037586],[134.371973,34.037547],[134.37196,34.037515],[134.371942,34.037483],[134.371931,34.037454],[134.371926,34.037426],[134.371929,34.037398],[134.371937,34.037361],[134.371946,34.037321],[134.371954,34.037289],[134.371969,34.037257],[134.372,34.037194],[134.372042,34.037116],[134.37206,34.037089],[134.372093,34.03705],[134.372108,34.037029],[134.372116,34.036998],[134.372109,34.036967],[134.37208,34.036895],[134.372052,34.036826],[134.372029,34.03676],[134.372021,34.036719],[134.37202,34.036681],[134.37203,34.036632],[134.372044,34.036581],[134.372079,34.036479],[134.372097,34.03642],[134.372122,34.036306],[134.372139,34.036148],[134.372143,34.035984],[134.372143,34.035864],[134.372149,34.035782],[134.372165,34.03568],[134.372195,34.035554],[134.372214,34.035495],[134.372235,34.035446],[134.372251,34.035421],[134.372291,34.035386],[134.372308,34.035367],[134.372391,34.035288],[134.3724,34.035267],[134.372399,34.035235],[134.372374,34.035168],[134.372308,34.035074],[134.372198,34.034923],[134.372099,34.034822],[134.371857,34.034659],[134.371738,34.034561],[134.371334,34.034307],[134.371231,34.034259],[134.371106,34.034124],[134.371086,34.03407],[134.371011,34.033996],[134.370942,34.033893],[134.370841,34.033741],[134.370825,34.033718],[134.370801,34.033659],[134.370693,34.033394],[134.370604,34.033016],[134.370589,34.032809],[134.37058,34.032692],[134.370524,34.032395],[134.370533,34.032133],[134.370488,34.032082],[134.370413,34.031999],[134.370255,34.031896],[134.370165,34.031851],[134.370019,34.031789],[134.369466,34.031567],[134.369251,34.031521],[134.369053,34.031449],[134.368961,34.031392],[134.368903,34.031323],[134.368845,34.031188],[134.368737,34.030921],[134.368703,34.030807],[134.368678,34.030761],[134.368652,34.030732],[134.368613,34.030704],[134.36821,34.030466],[134.368135,34.030429],[134.368086,34.030412],[134.368037,34.0304],[134.36799,34.030391],[134.367941,34.030378],[134.367884,34.030354],[134.367821,34.030322],[134.367763,34.030286],[134.367709,34.030248],[134.367608,34.030161],[134.367504,34.030063],[134.367365,34.029935],[134.367251,34.029829],[134.367209,34.029787],[134.367173,34.029747],[134.367109,34.029659],[134.367042,34.029556],[134.366982,34.029474],[134.366928,34.029406],[134.366906,34.029386],[134.366878,34.029375],[134.36684,34.029371],[134.366799,34.029374],[134.366705,34.029396],[134.366604,34.029424],[134.366495,34.029446],[134.366402,34.029472],[134.366307,34.029475],[134.366252,34.029471],[134.366111,34.029465],[134.365994,34.029455],[134.36592,34.029452],[134.365888,34.029449],[134.365849,34.02944],[134.365799,34.029417],[134.365737,34.029384],[134.365631,34.02932],[134.365545,34.029271],[134.365437,34.029226],[134.365302,34.029186],[134.365182,34.029152],[134.365125,34.029131],[134.365107,34.02915],[134.365094,34.029193],[134.365073,34.029263],[134.365067,34.029295],[134.365072,34.029335],[134.365094,34.029374],[134.365147,34.029433],[134.365184,34.029482],[134.365218,34.029539],[134.365235,34.029575],[134.365248,34.029611],[134.365255,34.029657],[134.365258,34.029736],[134.365255,34.029766],[134.365248,34.029787],[134.365232,34.029816],[134.365166,34.029905],[134.36513,34.029949],[134.365062,34.030013],[134.364947,34.030118],[134.364872,34.030175],[134.364775,34.030226],[134.364685,34.030269],[134.364652,34.030286],[134.364615,34.030308],[134.364519,34.030378],[134.364429,34.03044],[134.364387,34.030476],[134.364349,34.030514],[134.364286,34.030587],[134.364211,34.03065],[134.364126,34.030746],[134.364058,34.030882],[134.364011,34.031032],[134.363985,34.03108],[134.363934,34.031113],[134.363846,34.031137],[134.363708,34.031148],[134.363576,34.031137],[134.363466,34.031108],[134.363317,34.031052],[134.363059,34.030927],[134.362948,34.030897],[134.362666,34.030895],[134.362506,34.031003],[134.362407,34.031164],[134.362316,34.031416],[134.362242,34.031677],[134.362238,34.031688],[134.362133,34.031919],[134.361938,34.032072],[134.361622,34.032181],[134.361515,34.032214],[134.361399,34.032249],[134.361354,34.032264],[134.361155,34.032359],[134.361002,34.032505],[134.360719,34.032774],[134.36068,34.032811],[134.360335,34.0331],[134.360275,34.033168],[134.36015,34.033355],[134.360141,34.033394],[134.360097,34.033589],[134.360039,34.033736],[134.359944,34.033883],[134.359857,34.03398],[134.35978,34.03407],[134.359769,34.034095],[134.359753,34.034147],[134.359756,34.034206],[134.359784,34.034288],[134.359832,34.034397],[134.359855,34.034443],[134.359844,34.034618],[134.359752,34.034767],[134.359735,34.034807],[134.359454,34.03507],[134.358274,34.035986],[134.357971,34.036131],[134.357635,34.036385],[134.357354,34.036675],[134.357205,34.036779],[134.357069,34.036837],[134.356945,34.036882],[134.356882,34.036902],[134.356798,34.036919],[134.356734,34.036953],[134.356574,34.037365],[134.356507,34.037445],[134.356414,34.03746],[134.356043,34.037521],[134.355905,34.037516],[134.355749,34.037505],[134.355635,34.03752],[134.35553,34.03758],[134.355459,34.037651],[134.355417,34.037735],[134.355381,34.037855],[134.355365,34.038014],[134.355284,34.038299],[134.355198,34.038553],[134.355132,34.038652],[134.355098,34.03869],[134.35495,34.038855],[134.354943,34.03887],[134.354912,34.03894],[134.354811,34.039167],[134.354711,34.039361],[134.354707,34.039369],[134.354608,34.039531],[134.354581,34.039609],[134.354527,34.039756],[134.354512,34.039783],[134.354468,34.039784],[134.354412,34.039775],[134.354298,34.03978],[134.354115,34.039775],[134.353832,34.039735],[134.353654,34.039719],[134.353592,34.039713],[134.353418,34.039705],[134.353184,34.039708],[134.352925,34.039675],[134.352647,34.039569],[134.352372,34.03952],[134.352353,34.039517],[134.352287,34.039487],[134.351213,34.039042],[134.351115,34.039023],[134.351062,34.039036],[134.350995,34.039093],[134.350882,34.039144],[134.350625,34.039178],[134.350285,34.03918],[134.349891,34.03912],[134.349691,34.039061],[134.349607,34.038968],[134.34953,34.038836],[134.349482,34.038648],[134.349381,34.03829],[134.349271,34.037883],[134.349216,34.03772],[134.349101,34.037581],[134.349036,34.037504],[134.348982,34.037328],[134.348942,34.03714],[134.348933,34.036977],[134.349006,34.036744],[134.349038,34.036545],[134.349007,34.036439],[134.348861,34.036258],[134.348617,34.035958],[134.34827,34.035655],[134.348179,34.035612],[134.348065,34.035581],[134.347452,34.03546],[134.346809,34.035382],[134.346642,34.035358],[134.346581,34.035296],[134.34661,34.035214],[134.346639,34.035088],[134.346859,34.034725],[134.34688,34.034568],[134.346833,34.034461],[134.346765,34.034374],[134.345739,34.033408],[134.345417,34.033191],[134.345358,34.033153],[134.345102,34.03313],[134.344829,34.033102],[134.34452,34.032994],[134.344507,34.03299],[134.34449,34.032991],[134.344446,34.032971],[134.344206,34.032859],[134.344197,34.032854],[134.344087,34.03276],[134.343969,34.032646],[134.343923,34.032595],[134.343889,34.032549],[134.343842,34.032459],[134.343796,34.032363],[134.343778,34.032328],[134.343764,34.032307],[134.34374,34.032294],[134.343591,34.032259],[134.343348,34.032202],[134.343242,34.032179],[134.343155,34.032153],[134.343086,34.032117],[134.343033,34.032066],[134.342991,34.032004],[134.342934,34.031883],[134.342902,34.031818],[134.34289,34.031724],[134.342898,34.031688],[134.34293,34.031606],[134.342923,34.0316],[134.342789,34.031492],[134.342708,34.031487],[134.342519,34.031475],[134.34222,34.031529],[134.342205,34.031533],[134.341916,34.031622],[134.341491,34.031672],[134.341042,34.031687],[134.340611,34.031635],[134.340245,34.031638],[134.339766,34.031625],[134.339333,34.031674],[134.338922,34.031713],[134.338609,34.031758],[134.338362,34.031819],[134.338179,34.031869],[134.337904,34.031796],[134.337661,34.031695],[134.337639,34.031684],[134.337373,34.031538],[134.337188,34.031461],[134.337019,34.031402],[134.336912,34.031408],[134.336693,34.031446],[134.336575,34.031461],[134.336465,34.03147],[134.33638,34.031474],[134.336305,34.03147],[134.336224,34.031459],[134.336133,34.031441],[134.336036,34.031415],[134.335936,34.031379],[134.335853,34.031337],[134.335778,34.031287],[134.335657,34.031195],[134.335611,34.031156],[134.335566,34.031105],[134.335525,34.031049],[134.335488,34.030985],[134.335457,34.030917],[134.335411,34.030798],[134.335371,34.030706],[134.33533,34.030631],[134.335243,34.030491],[134.335167,34.030353],[134.334999,34.029995],[134.334926,34.0298],[134.334837,34.029628],[134.334574,34.028997],[134.334649,34.028322],[134.334624,34.028189],[134.334649,34.02803],[134.334724,34.027889],[134.334887,34.027189],[134.335074,34.026964],[134.335212,34.026672],[134.335174,34.026089],[134.335124,34.025881],[134.335124,34.025322],[134.335028,34.025106],[134.334924,34.024872],[134.335087,34.024256],[134.334812,34.023406],[134.334674,34.023131],[134.334462,34.022839],[134.334433,34.022774],[134.334374,34.022639],[134.334312,34.022298],[134.334212,34.022031],[134.334062,34.021223],[134.334037,34.020948],[134.334087,34.020681],[134.334062,34.020565],[134.334087,34.020406],[134.333949,34.020181],[134.333549,34.01994],[134.332862,34.019598],[134.332562,34.019423],[134.331825,34.018815],[134.331337,34.01859],[134.330825,34.018206],[134.3306,34.01794],[134.33055,34.017715],[134.330625,34.017423],[134.330812,34.017173],[134.3309,34.016923],[134.330737,34.016673],[134.3306,34.01614],[134.33047,34.015829],[134.330287,34.01539],[134.330227,34.01533],[134.329862,34.014965],[134.329775,34.014765],[134.329775,34.014607],[134.33015,34.013857],[134.33025,34.013524],[134.330239,34.013497],[134.330175,34.01334],[134.329987,34.013232],[134.32925,34.013074],[134.329063,34.013007],[134.3287,34.012765],[134.328538,34.012582],[134.32805,34.01229],[134.327838,34.011974],[134.327663,34.011524],[134.32715,34.011124],[134.326963,34.010782],[134.326763,34.010582],[134.3265,34.010541],[134.326088,34.010516],[134.325609,34.010259],[134.325513,34.010207],[134.324813,34.010166],[134.324651,34.009941],[134.324401,34.009374],[134.324163,34.009174],[134.323563,34.008857],[134.323401,34.008699],[134.323363,34.008524],[134.323501,34.007958],[134.323501,34.00788],[134.323501,34.007732],[134.323438,34.007533],[134.323463,34.007233],[134.323551,34.007058],[134.323876,34.006691],[134.324063,34.006333],[134.324113,34.005833],[134.323976,34.005674],[134.323651,34.005458],[134.323651,34.005383],[134.323951,34.005208],[134.324326,34.004774],[134.324588,34.004033],[134.324893,34.003352],[134.32499,34.003109],[134.325113,34.002925],[134.325063,34.002875],[134.324876,34.002875],[134.324743,34.002932],[134.324663,34.002966],[134.324466,34.00309],[134.324226,34.003241],[134.323882,34.003477],[134.3235,34.003692],[134.322501,34.004175],[134.321989,34.004425],[134.321639,34.004516],[134.321201,34.004716],[134.320964,34.004899],[134.320689,34.004966],[134.320251,34.004924],[134.319576,34.004999],[134.319114,34.0052],[134.319014,34.005266],[134.318964,34.005449],[134.318739,34.005816],[134.318501,34.005949],[134.318389,34.005949],[134.317901,34.006066],[134.317476,34.006291],[134.316901,34.006358],[134.315814,34.006408],[134.314976,34.006508],[134.314714,34.006579],[134.314576,34.006616],[134.313862,34.006931],[134.313839,34.006941],[134.313189,34.007324],[134.312514,34.007599],[134.311927,34.007666],[134.311239,34.007649],[134.310752,34.007449],[134.310539,34.007291],[134.310339,34.007041],[134.310077,34.006816],[134.309689,34.006299],[134.309552,34.006049],[134.309277,34.005716],[134.308652,34.005399],[134.308214,34.005341],[134.307952,34.005383],[134.307214,34.005366],[134.306652,34.005249],[134.306352,34.005166],[134.306102,34.005141],[134.305839,34.005233],[134.305376,34.005191],[134.305076,34.005124],[134.304689,34.005108],[134.304126,34.005149],[134.303316,34.005119],[134.303014,34.005108],[134.302779,34.005103],[134.302667,34.005101],[134.302201,34.005091],[134.302114,34.005066],[134.301764,34.005116],[134.301301,34.005566],[134.300976,34.005707],[134.300739,34.005774],[134.299464,34.006341],[134.298926,34.006482],[134.298813,34.006416],[134.298488,34.006007],[134.298326,34.005874],[134.298163,34.005399],[134.298051,34.005199],[134.297776,34.004882],[134.297288,34.004549],[134.297151,34.004366],[134.296826,34.003599],[134.296688,34.003316],[134.296576,34.003024],[134.296226,34.002666],[134.295764,34.002391],[134.294801,34.002458],[134.293989,34.002574],[134.293314,34.002441],[134.292677,34.002233],[134.292077,34.002299],[134.291489,34.002499],[134.291203,34.002445],[134.291139,34.002433],[134.290714,34.002166],[134.290397,34.001996],[134.289937,34.001749],[134.289365,34.001441],[134.289202,34.001283],[134.28894,34.000858],[134.288777,34.000491],[134.288665,33.999933],[134.288615,33.99905],[134.28814,33.998283],[134.288053,33.997334],[134.287765,33.996925],[134.287578,33.9965],[134.287491,33.996001],[134.287278,33.995551],[134.287116,33.995392],[134.286828,33.994834],[134.286716,33.994292],[134.286591,33.994048],[134.286528,33.993926],[134.286391,33.993843],[134.285828,33.993701],[134.285554,33.9936],[134.285104,33.993434],[134.284379,33.992893],[134.283891,33.992326],[134.283042,33.99151],[134.282501,33.991258],[134.282279,33.991285],[134.282188,33.991354],[134.281829,33.991626],[134.281267,33.991893],[134.279892,33.992118],[134.278792,33.991985],[134.278217,33.992368],[134.27758,33.992568],[134.27688,33.992518],[134.27618,33.992635],[134.275743,33.99261],[134.275293,33.992768],[134.274718,33.99286],[134.274172,33.992392],[134.274105,33.992335],[134.273868,33.992243],[134.27303,33.992018],[134.272381,33.991593],[134.271656,33.991027],[134.271131,33.990552],[134.270431,33.990168],[134.269594,33.989427],[134.269106,33.988885],[134.268794,33.98881],[134.267419,33.988835],[134.266831,33.988518],[134.266481,33.98816],[134.266206,33.988068],[134.265756,33.988135],[134.265131,33.988018],[134.264269,33.98791],[134.263519,33.987702],[134.262794,33.987677],[134.262282,33.987518],[134.261994,33.98696],[134.261719,33.986552],[134.261294,33.98646],[134.260569,33.986435],[134.260439,33.986405],[134.259782,33.986252],[134.259082,33.98621],[134.258382,33.986277],[134.257607,33.986227],[134.256257,33.986227],[134.25607,33.986118],[134.255645,33.985752],[134.25522,33.985302],[134.254024,33.984719],[134.25392,33.984668],[134.25377,33.984468],[134.253682,33.98361],[134.253745,33.983069],[134.253495,33.982394],[134.25297,33.981719],[134.252457,33.981335],[134.25167,33.980836],[134.251433,33.980544],[134.252245,33.979644],[134.252895,33.979302],[134.25402,33.978786],[134.255745,33.977144],[134.256145,33.976603],[134.256395,33.976036],[134.256437,33.975713],[134.256476,33.975415],[134.256507,33.975178],[134.256505,33.975133],[134.256482,33.974594],[134.256157,33.973711],[134.255926,33.973403],[134.25592,33.973395],[134.255407,33.97322],[134.25482,33.973145],[134.254495,33.97292],[134.253495,33.97182],[134.25302,33.971361],[134.25267,33.97087],[134.252183,33.970503],[134.25167,33.970186],[134.251195,33.96967],[134.250895,33.969195],[134.250545,33.96897],[134.250046,33.96877],[134.249096,33.96802],[134.248646,33.96782],[134.247921,33.967637],[134.247321,33.96737],[134.247308,33.967453],[134.247021,33.96732],[134.246883,33.967028],[134.246586,33.965957],[134.246421,33.965362],[134.246508,33.96502],[134.246459,33.96482],[134.246271,33.964545],[134.246046,33.96412],[134.246134,33.96367],[134.245946,33.963262],[134.245734,33.962987],[134.245621,33.962787],[134.245646,33.962445],[134.245734,33.962154],[134.245921,33.961979],[134.246046,33.961771],[134.245996,33.961321],[134.245484,33.960171],[134.245334,33.958862],[134.244921,33.958504],[134.244709,33.957979],[134.244695,33.957973],[134.244196,33.957754],[134.243721,33.957621],[134.242422,33.957554],[134.241759,33.957504],[134.241159,33.957504],[134.240684,33.957396],[134.240359,33.957254],[134.239872,33.956579],[134.239197,33.956354],[134.238722,33.956304],[134.237935,33.956079],[134.237322,33.956054],[134.23681,33.955879],[134.23616,33.955513],[134.235835,33.955421],[134.235147,33.955354],[134.234522,33.955354],[134.23436,33.955329],[134.234282,33.955264],[134.23401,33.955038],[134.233935,33.954704],[134.233885,33.954004],[134.23391,33.953954],[134.23251,33.952988],[134.23216,33.952671],[134.231948,33.952288],[134.231648,33.951921],[134.23141,33.951838],[134.230973,33.951763],[134.230573,33.951763],[134.229898,33.951896],[134.229823,33.95188],[134.229473,33.951588],[134.229236,33.951246],[134.229073,33.95093],[134.228823,33.950638],[134.228448,33.95043],[134.227886,33.95023],[134.227086,33.950047],[134.226948,33.949888],[134.226948,33.94928],[134.226973,33.949255],[134.226786,33.94833],[134.226806,33.948153],[134.22681,33.948116],[134.226923,33.947097],[134.228048,33.946555],[134.228836,33.945972],[134.229073,33.945747],[134.229186,33.945539],[134.229261,33.945497],[134.229211,33.945314],[134.228598,33.944614],[134.228786,33.944414],[134.228998,33.944056],[134.229111,33.943489],[134.229073,33.943014],[134.228861,33.942223],[134.228836,33.941839],[134.228923,33.941506],[134.229136,33.941256],[134.229373,33.941056],[134.229673,33.940714],[134.229811,33.940423],[134.229811,33.939748],[134.229461,33.939206],[134.229373,33.938798],[134.229436,33.938123],[134.229698,33.937307],[134.230023,33.936523],[134.229973,33.935823],[134.230048,33.93539],[134.230273,33.934874],[134.230561,33.934357],[134.230623,33.93379],[134.230536,33.933432],[134.230323,33.932982],[134.230224,33.932661],[134.230136,33.932374],[134.229949,33.931557],[134.229786,33.931132],[134.229711,33.931066],[134.229274,33.930907],[134.228736,33.930857],[134.228449,33.930791],[134.228174,33.930541],[134.227886,33.930024],[134.227869,33.930005],[134.227586,33.929708],[134.227186,33.929416],[134.226212,33.929074],[134.226062,33.928649],[134.225712,33.928216],[134.225337,33.927883],[134.224824,33.927516],[134.224752,33.927332],[134.224744,33.927313],[134.224637,33.927041],[134.224612,33.926575],[134.224499,33.926191],[134.224312,33.925783],[134.224049,33.925375],[134.223774,33.925083],[134.22335,33.923591],[134.223162,33.923233],[134.2227,33.922033],[134.222037,33.921333],[134.221687,33.920617],[134.221625,33.920275],[134.221737,33.920025],[134.221787,33.920008],[134.221737,33.919992],[134.221585,33.919514],[134.221487,33.919208],[134.22135,33.918892],[134.221112,33.91855],[134.22105,33.91855],[134.22079,33.918282],[134.220789,33.918281],[134.220662,33.91815],[134.220525,33.917834],[134.2205,33.917492],[134.220587,33.916975],[134.220887,33.916525],[134.221075,33.916009],[134.221325,33.914834],[134.2213,33.914542],[134.221187,33.914317],[134.220987,33.914184],[134.220887,33.914001],[134.220875,33.913667],[134.22105,33.913301],[134.221262,33.912442],[134.22115,33.912084],[134.220487,33.911234],[134.220075,33.910801],[134.220025,33.910576],[134.220163,33.910401],[134.220438,33.910243],[134.220687,33.909993],[134.220925,33.909609],[134.221125,33.909384],[134.221512,33.909293],[134.22195,33.909243],[134.222575,33.909109],[134.223375,33.908701],[134.2239,33.908368],[134.224449,33.908093],[134.225462,33.908185],[134.225824,33.908185],[134.226124,33.908093],[134.226512,33.907826],[134.226862,33.907685],[134.227224,33.907443],[134.227587,33.907126],[134.228024,33.906827],[134.228599,33.907035],[134.229561,33.907485],[134.229949,33.907793],[134.230249,33.907976],[134.230386,33.908018],[134.230749,33.908068],[134.231399,33.908043],[134.231486,33.908018],[134.231848,33.908201],[134.232148,33.908468],[134.232473,33.908651],[134.232836,33.908718],[134.233273,33.908693],[134.233436,33.908743],[134.233661,33.909168],[134.234186,33.90921],[134.234736,33.909301],[134.235148,33.909435],[134.235361,33.90966],[134.235611,33.909818],[134.237235,33.910068],[134.237673,33.910018],[134.23801,33.91011],[134.238498,33.910493],[134.23971,33.911101],[134.240373,33.911393],[134.241247,33.91166],[134.241885,33.911818],[134.24266,33.912151],[134.243485,33.912718],[134.243947,33.912968],[134.24456,33.913209],[134.24521,33.913409],[134.245684,33.913659],[134.246097,33.914018],[134.246284,33.914293],[134.246509,33.914401],[134.246972,33.914451],[134.247197,33.914584],[134.247284,33.914693],[134.247322,33.914693],[134.249322,33.915568],[134.249797,33.916134],[134.249871,33.916309],[134.249959,33.917009],[134.250396,33.917059],[134.251196,33.916918],[134.251909,33.916851],[134.252546,33.916876],[134.252959,33.916559],[134.253534,33.916284],[134.254221,33.916218],[134.254709,33.916401],[134.254984,33.916734],[134.255434,33.916868],[134.256258,33.916893],[134.256808,33.916734],[134.257271,33.916459],[134.257683,33.916368],[134.258733,33.916659],[134.259771,33.917043],[134.259822,33.917057],[134.261033,33.917401],[134.262083,33.917651],[134.26302,33.917743],[134.264095,33.917626],[134.26502,33.917493],[134.26527,33.91751],[134.265982,33.917285],[134.267057,33.91706],[134.268107,33.917035],[134.269869,33.917351],[134.271019,33.917143],[134.272644,33.917235],[134.272894,33.916968],[134.272969,33.916652],[134.273744,33.916577],[134.274132,33.916335],[134.274757,33.91581],[134.275444,33.915585],[134.276469,33.915452],[134.277294,33.915244],[134.277806,33.915019],[134.278394,33.915019],[134.279156,33.915294],[134.279569,33.915402],[134.281031,33.91556],[134.282181,33.915785],[134.283556,33.915419],[134.284268,33.915352],[134.284993,33.915419],[134.285756,33.915327],[134.286393,33.915169],[134.286418,33.914811],[134.286231,33.913594],[134.286643,33.913211],[134.287243,33.912961],[134.287656,33.912377],[134.288068,33.911678],[134.288456,33.910619],[134.289143,33.909536],[134.289468,33.908878],[134.289656,33.908136],[134.290043,33.90712],[134.290406,33.906803],[134.291168,33.906803],[134.292518,33.90692],[134.293206,33.906912],[134.294418,33.906687],[134.294693,33.907053],[134.29568,33.90802],[134.296068,33.908562],[134.29643,33.90917],[134.296343,33.909461],[134.296643,33.909703],[134.297492,33.909953],[134.298267,33.910136],[134.298767,33.910361],[134.29873,33.910361],[134.298542,33.911036],[134.298405,33.911711],[134.29843,33.912361],[134.298542,33.912994],[134.298817,33.913669],[134.299117,33.914252],[134.299479,33.914569],[134.299504,33.914844],[134.29955,33.915287],[134.299624,33.915723],[134.300579,33.917252],[134.300992,33.917968],[134.301816,33.919977],[134.301854,33.919993],[134.302066,33.920185],[134.302154,33.920451],[134.302016,33.921376],[134.302279,33.922143],[134.302491,33.923451],[134.302654,33.924043],[134.303053,33.924968],[134.303251,33.925557],[134.303266,33.925601],[134.303566,33.925959],[134.304209,33.926115],[134.304787,33.926242],[134.305155,33.926356],[134.305212,33.926374],[134.305523,33.92647],[134.305928,33.927042],[134.306253,33.927634],[134.306397,33.928011],[134.306416,33.928059],[134.306515,33.92813],[134.306578,33.928175],[134.306653,33.92815],[134.307165,33.927834],[134.308065,33.927225],[134.308253,33.926773],[134.308515,33.926576],[134.309103,33.926367],[134.309365,33.926326],[134.310315,33.926376],[134.311653,33.926309],[134.312815,33.925859],[134.313186,33.925837],[134.313425,33.925844],[134.31377,33.925929],[134.314085,33.926066],[134.314745,33.926444],[134.315207,33.926702],[134.315742,33.92708],[134.315995,33.927305],[134.316164,33.927547],[134.316385,33.927815],[134.31673,33.928199],[134.317214,33.928384],[134.317539,33.928792],[134.317827,33.929292],[134.318041,33.929439],[134.318289,33.929609],[134.318664,33.929692],[134.319789,33.930125],[134.320589,33.930709],[134.321239,33.931025],[134.321655,33.931192],[134.321914,33.931817],[134.322501,33.932267],[134.323676,33.932975],[134.324076,33.933344],[134.324164,33.933425],[134.324488,33.933808],[134.324873,33.9342],[134.324888,33.934217],[134.325528,33.93443],[134.325613,33.934458],[134.326388,33.93455],[134.326738,33.934483],[134.3275,33.934241],[134.328259,33.934039],[134.328608,33.933897],[134.328942,33.933812],[134.329184,33.933728],[134.329551,33.933553],[134.330328,33.932685],[134.3311,33.932209],[134.33185,33.931742],[134.3328,33.930909],[134.333319,33.930691],[134.333837,33.930592],[134.334162,33.930434],[134.334537,33.929959],[134.334862,33.929417],[134.33504,33.929324],[134.335325,33.929176],[134.335937,33.928926],[134.3365,33.928409],[134.336775,33.927976],[134.336975,33.927746],[134.337425,33.927351],[134.337962,33.926792],[134.3382,33.926376],[134.338687,33.925818],[134.33925,33.925385],[134.339862,33.925235],[134.34024,33.925138],[134.34059,33.925165],[134.341133,33.925278],[134.34158,33.925532],[134.34213,33.92591],[134.343052,33.926313],[134.344166,33.926542],[134.345237,33.92691],[134.345983,33.927231],[134.34657,33.927764],[134.347062,33.928376],[134.347591,33.929086],[134.347746,33.929294],[134.348396,33.929781],[134.349425,33.930284],[134.349877,33.930754],[134.349987,33.931117],[134.350416,33.931396],[134.351198,33.931809],[134.351764,33.932079],[134.352333,33.932157],[134.352595,33.932155],[134.352879,33.932099],[134.353642,33.932239],[134.354322,33.93248],[134.355068,33.932757],[134.355559,33.932699],[134.35641,33.932534],[134.35701,33.932493],[134.35846,33.932876],[134.360035,33.932943],[134.360855,33.932829],[134.361294,33.932659],[134.361513,33.932676],[134.362038,33.932772],[134.362597,33.93295],[134.362959,33.933039],[134.363463,33.933199],[134.363989,33.933396],[134.364397,33.933468],[134.365147,33.933468],[134.365759,33.933559],[134.365882,33.933637],[134.366222,33.933851],[134.366734,33.934259],[134.367184,33.934801],[134.367559,33.935368],[134.367697,33.935659],[134.367809,33.936201],[134.367996,33.936717],[134.368371,33.937101],[134.368884,33.937284],[134.369421,33.937309],[134.370084,33.937126],[134.372309,33.936334],[134.372359,33.936351],[134.372746,33.936376],[134.373433,33.936467],[134.373708,33.936559],[134.374308,33.936934],[134.375246,33.937751],[134.375546,33.937976],[134.376995,33.938742],[134.377445,33.939142],[134.377608,33.939659],[134.377658,33.9402],[134.377995,33.94065],[134.378233,33.940809],[134.380595,33.941825],[134.381282,33.94205],[134.381945,33.942067],[134.382332,33.942208],[134.382932,33.942225],[134.383182,33.942275],[134.383559,33.942234],[134.384332,33.941975],[134.384807,33.941709],[134.385357,33.941659],[134.385942,33.941535],[134.386482,33.94105],[134.388799,33.940547],[134.389119,33.940784],[134.389394,33.941275],[134.389531,33.94195],[134.389855,33.942293],[134.390381,33.94285],[134.390794,33.943442],[134.391069,33.943733],[134.392881,33.943617],[134.394118,33.943683],[134.394731,33.943458],[134.395243,33.943392],[134.396181,33.943683],[134.397031,33.943725],[134.397918,33.943883],[134.399093,33.944375],[134.399943,33.944692],[134.400238,33.944757],[134.40102,33.945099],[134.401408,33.945499],[134.401538,33.945687],[134.401525,33.945853],[134.401345,33.946233],[134.401248,33.946494],[134.40104,33.947016],[134.400975,33.947573],[134.400942,33.948049],[134.40088,33.948141],[134.400692,33.948841],[134.40058,33.949741],[134.40063,33.949966],[134.400905,33.950574],[134.40108,33.951224],[134.400992,33.951157],[134.400742,33.951832],[134.400297,33.95225],[134.40028,33.952265],[134.400055,33.952399],[134.399867,33.952665],[134.399867,33.953183],[134.399867,33.953257],[134.399856,33.953327],[134.399642,33.954632],[134.399292,33.955057],[134.399253,33.955212],[134.399295,33.955343]]]},"properties":{"code":"36342","name":"神山町"}}]}