{"type":"FeatureCollection","features":[{"type":"Feature","geometry":{"type":"Polygon","coordinates":[[[134.519427,33.873524],[134.519417,33.873489],[134.519319,33.873128],[134.519154,33.872803],[134.519006,33.872628],[134.518829,33.872498],[134.518756,33.872445],[134.518056,33.872145],[134.517282,33.872045],[134.516994,33.87192],[134.516532,33.871661],[134.516157,33.871336],[134.515894,33.871186],[134.515144,33.870986],[134.514907,33.87097],[134.514057,33.871045],[134.513182,33.871045],[134.512395,33.870861],[134.511895,33.87052],[134.511695,33.870161],[134.51127,33.869986],[134.511065,33.869942],[134.510951,33.869918],[134.510457,33.869811],[134.509695,33.869761],[134.508183,33.869328],[134.507245,33.868978],[134.505958,33.868328],[134.505345,33.868195],[134.50437,33.868111],[134.502446,33.86762],[134.501421,33.867245],[134.500433,33.866728],[134.499484,33.866103],[134.498934,33.865595],[134.498509,33.865337],[134.498125,33.865294],[134.498059,33.865287],[134.497858,33.865324],[134.497653,33.865429],[134.497384,33.865662],[134.497247,33.865936],[134.497002,33.867916],[134.496957,33.868776],[134.497021,33.871452],[134.496334,33.871469],[134.493672,33.871794],[134.492872,33.872019],[134.492297,33.872086],[134.492022,33.872086],[134.491472,33.871952],[134.491247,33.871861],[134.490647,33.871519],[134.490197,33.871094],[134.490147,33.870961],[134.48976,33.870669],[134.48946,33.870236],[134.489122,33.869519],[134.489097,33.869044],[134.489022,33.868778],[134.488788,33.868732],[134.48856,33.868762],[134.487688,33.868889],[134.485746,33.869746],[134.485333,33.869976],[134.484571,33.870074],[134.484114,33.870134],[134.483556,33.870295],[134.483126,33.870567],[134.482822,33.870682],[134.482411,33.870732],[134.481961,33.870707],[134.481461,33.870718],[134.480748,33.870878],[134.479261,33.871036],[134.478773,33.871036],[134.477536,33.870719],[134.475386,33.870161],[134.473505,33.869513],[134.473211,33.869328],[134.472911,33.868903],[134.472174,33.86782],[134.471812,33.86782],[134.471049,33.867978],[134.470112,33.868295],[134.469312,33.868662],[134.468574,33.869062],[134.468324,33.869245],[134.467937,33.869695],[134.467824,33.86992],[134.467724,33.869851],[134.467664,33.869809],[134.467601,33.869769],[134.467572,33.869753],[134.467532,33.869731],[134.467457,33.869694],[134.467303,33.869626],[134.46723,33.869594],[134.467167,33.869561],[134.467114,33.869529],[134.467072,33.869495],[134.467038,33.869455],[134.467011,33.869409],[134.46699,33.869355],[134.466949,33.86922],[134.466926,33.869147],[134.466894,33.869077],[134.466852,33.869014],[134.466795,33.868963],[134.466727,33.868921],[134.466648,33.868885],[134.466471,33.86882],[134.46628,33.868748],[134.466187,33.868709],[134.466099,33.868667],[134.46602,33.868624],[134.465882,33.868537],[134.465816,33.868497],[134.465742,33.868461],[134.465655,33.868433],[134.465551,33.868415],[134.465437,33.868405],[134.465321,33.868403],[134.465212,33.868409],[134.465118,33.868423],[134.465045,33.868443],[134.464946,33.868481],[134.464906,33.868489],[134.464865,33.868482],[134.464815,33.868457],[134.464693,33.868372],[134.464623,33.868325],[134.46455,33.868283],[134.464473,33.868253],[134.464396,33.868231],[134.46432,33.868216],[134.464181,33.868195],[134.464119,33.868184],[134.464061,33.86817],[134.464003,33.868151],[134.46387,33.8681],[134.463696,33.868027],[134.463494,33.867944],[134.463388,33.867904],[134.463183,33.867831],[134.463092,33.867796],[134.463016,33.867759],[134.462959,33.867717],[134.462923,33.86767],[134.462906,33.867618],[134.462904,33.867559],[134.46291,33.867497],[134.462932,33.867357],[134.46294,33.867282],[134.462945,33.867207],[134.462944,33.867131],[134.462936,33.867057],[134.462918,33.866988],[134.462894,33.86692],[134.462834,33.866791],[134.462776,33.866662],[134.462751,33.866596],[134.46273,33.866529],[134.462713,33.86646],[134.4627,33.866389],[134.462691,33.866317],[134.462681,33.86617],[134.462675,33.866031],[134.462661,33.865906],[134.462655,33.865842],[134.462652,33.865774],[134.462652,33.865698],[134.462657,33.865613],[134.462678,33.865419],[134.462692,33.865325],[134.462695,33.865304],[134.462624,33.86534],[134.462545,33.865385],[134.462461,33.865424],[134.462377,33.865451],[134.462295,33.865469],[134.462214,33.86549],[134.462129,33.865525],[134.462042,33.865567],[134.462008,33.865581],[134.461952,33.865604],[134.461858,33.865634],[134.461762,33.865656],[134.46166,33.865673],[134.461547,33.865685],[134.461416,33.865694],[134.461274,33.865696],[134.461206,33.865693],[134.461145,33.865684],[134.461089,33.86567],[134.46104,33.86565],[134.460996,33.865626],[134.460952,33.865599],[134.460866,33.865537],[134.46078,33.865475],[134.460706,33.86543],[134.460676,33.865419],[134.460651,33.865416],[134.460628,33.865419],[134.460606,33.865427],[134.460582,33.865439],[134.460524,33.865473],[134.460452,33.865511],[134.460366,33.865549],[134.460319,33.865565],[134.46027,33.865577],[134.460223,33.865584],[134.460178,33.865582],[134.460136,33.865574],[134.460057,33.865542],[134.459971,33.865503],[134.45992,33.865489],[134.459865,33.865475],[134.45974,33.865452],[134.459603,33.865423],[134.459461,33.865392],[134.459392,33.86538],[134.45933,33.865372],[134.459271,33.865371],[134.459218,33.865375],[134.459171,33.865384],[134.459128,33.865398],[134.459089,33.865415],[134.459054,33.865436],[134.459022,33.865459],[134.458992,33.865485],[134.458937,33.865542],[134.458885,33.865607],[134.45884,33.865671],[134.458806,33.86573],[134.458779,33.865775],[134.458765,33.86579],[134.45875,33.865797],[134.45873,33.865798],[134.458709,33.865791],[134.458655,33.86576],[134.458592,33.865712],[134.458516,33.865653],[134.458421,33.865591],[134.458306,33.865532],[134.458183,33.865474],[134.45807,33.865416],[134.457972,33.865358],[134.457893,33.865321],[134.457743,33.865241],[134.457573,33.865152],[134.457517,33.865124],[134.45746,33.8651],[134.457404,33.865079],[134.457344,33.865056],[134.457279,33.86503],[134.457208,33.865001],[134.457135,33.864968],[134.457042,33.864928],[134.45698,33.864908],[134.456918,33.864894],[134.456854,33.864883],[134.456788,33.864876],[134.456719,33.864869],[134.456648,33.864863],[134.456573,33.864855],[134.456498,33.864846],[134.456425,33.86484],[134.456357,33.864837],[134.456293,33.864839],[134.456231,33.864843],[134.456166,33.864851],[134.456095,33.864858],[134.45602,33.864869],[134.455946,33.864882],[134.455873,33.864899],[134.455801,33.864917],[134.455729,33.864929],[134.455691,33.864931],[134.455651,33.86493],[134.455608,33.864924],[134.455565,33.864914],[134.455474,33.864887],[134.455385,33.864856],[134.455301,33.864827],[134.455228,33.864802],[134.455164,33.864782],[134.455109,33.864762],[134.455061,33.864742],[134.455019,33.864722],[134.45498,33.864699],[134.454941,33.864675],[134.454901,33.864648],[134.454862,33.864617],[134.454825,33.864582],[134.45479,33.86454],[134.454759,33.864495],[134.454732,33.864449],[134.454707,33.864406],[134.454685,33.864365],[134.454664,33.864326],[134.454641,33.864288],[134.454614,33.864249],[134.454582,33.86421],[134.454545,33.864173],[134.454501,33.864137],[134.454452,33.864105],[134.454399,33.864075],[134.454342,33.864049],[134.454283,33.864025],[134.454221,33.864003],[134.454157,33.863981],[134.454087,33.863958],[134.453884,33.863906],[134.453672,33.863855],[134.453502,33.863816],[134.453417,33.863792],[134.453247,33.863739],[134.453087,33.863679],[134.452936,33.863614],[134.45279,33.863543],[134.452645,33.863465],[134.452498,33.863381],[134.452427,33.863336],[134.45229,33.863246],[134.452162,33.863156],[134.452044,33.863071],[134.451928,33.862994],[134.451818,33.86292],[134.451709,33.862841],[134.4516,33.862756],[134.451486,33.862675],[134.451425,33.862638],[134.451363,33.862603],[134.451238,33.862539],[134.451117,33.862475],[134.451002,33.862412],[134.450893,33.862347],[134.450788,33.86228],[134.450693,33.862208],[134.450652,33.862171],[134.450615,33.862131],[134.450557,33.862049],[134.450534,33.862008],[134.450496,33.861925],[134.450463,33.861854],[134.450444,33.861826],[134.450423,33.861808],[134.450394,33.861799],[134.450363,33.861797],[134.450328,33.861798],[134.450258,33.861802],[134.450224,33.861797],[134.45019,33.861789],[134.450117,33.861764],[134.450024,33.861736],[134.449987,33.861729],[134.449916,33.861716],[134.449863,33.861713],[134.449815,33.861717],[134.449773,33.861729],[134.449738,33.861748],[134.449706,33.861773],[134.449674,33.861804],[134.449607,33.861878],[134.449531,33.861957],[134.449489,33.861993],[134.449445,33.862024],[134.449397,33.862047],[134.449349,33.862064],[134.4493,33.862074],[134.449249,33.86208],[134.449198,33.862081],[134.449146,33.862078],[134.449094,33.862071],[134.449044,33.862061],[134.448996,33.862046],[134.44895,33.862029],[134.448906,33.862007],[134.448865,33.861981],[134.448826,33.861952],[134.448747,33.86189],[134.448663,33.861823],[134.448617,33.861792],[134.448567,33.861762],[134.448511,33.861736],[134.448449,33.861714],[134.448382,33.861698],[134.448314,33.861684],[134.448176,33.861668],[134.448047,33.861663],[134.447984,33.861667],[134.447922,33.861676],[134.447859,33.861693],[134.447793,33.861715],[134.44766,33.861766],[134.447593,33.861785],[134.447527,33.861797],[134.447461,33.861797],[134.447398,33.861787],[134.447335,33.861768],[134.447272,33.861746],[134.447147,33.861697],[134.447031,33.86165],[134.44698,33.861625],[134.446936,33.861599],[134.4469,33.86157],[134.446871,33.861542],[134.446824,33.861484],[134.446772,33.861432],[134.446742,33.861408],[134.44667,33.861367],[134.446583,33.861331],[134.446534,33.861315],[134.446481,33.861301],[134.446425,33.86129],[134.446299,33.861277],[134.446163,33.861268],[134.446094,33.861257],[134.446028,33.861242],[134.445964,33.861216],[134.445903,33.861183],[134.445844,33.861146],[134.445747,33.861073],[134.445736,33.861065],[134.445634,33.860988],[134.445529,33.860918],[134.445513,33.860909],[134.445471,33.860887],[134.445408,33.860858],[134.445342,33.860831],[134.445214,33.860775],[134.445157,33.860745],[134.445108,33.860715],[134.445064,33.860684],[134.444988,33.860633],[134.444952,33.860617],[134.444918,33.86061],[134.444875,33.860611],[134.444836,33.860617],[134.444761,33.86063],[134.444685,33.860635],[134.444599,33.86063],[134.444546,33.860623],[134.444417,33.860608],[134.444283,33.860592],[134.444171,33.860583],[134.444083,33.860576],[134.444037,33.860568],[134.443986,33.860555],[134.443856,33.860517],[134.443782,33.860501],[134.443708,33.860492],[134.443666,33.860494],[134.443634,33.860497],[134.443602,33.860506],[134.443563,33.860521],[134.443497,33.860557],[134.443432,33.860601],[134.443308,33.86069],[134.443246,33.860727],[134.443185,33.860753],[134.443124,33.860774],[134.443062,33.860785],[134.443002,33.86079],[134.442939,33.860789],[134.442878,33.860782],[134.442813,33.860769],[134.442747,33.860752],[134.442678,33.860731],[134.442533,33.860683],[134.442387,33.860626],[134.442256,33.860567],[134.442198,33.860537],[134.442092,33.860489],[134.442043,33.860472],[134.441996,33.860462],[134.441947,33.860458],[134.441896,33.860457],[134.441775,33.860456],[134.44162,33.860449],[134.441451,33.860432],[134.44129,33.860409],[134.441152,33.860379],[134.441091,33.860361],[134.440981,33.860321],[134.440888,33.860279],[134.440804,33.860239],[134.440763,33.860223],[134.440683,33.86019],[134.440603,33.860149],[134.440521,33.860095],[134.440426,33.860044],[134.440398,33.860035],[134.44037,33.860031],[134.440336,33.860036],[134.440262,33.860055],[134.440218,33.860061],[134.440167,33.860062],[134.440113,33.860058],[134.440062,33.860052],[134.439988,33.860039],[134.439929,33.860021],[134.439869,33.859999],[134.439773,33.859947],[134.439619,33.859864],[134.439475,33.85979],[134.439413,33.859763],[134.439351,33.859742],[134.439286,33.85973],[134.439215,33.859724],[134.439134,33.859728],[134.439048,33.859737],[134.438872,33.859765],[134.438718,33.859792],[134.438654,33.859801],[134.438598,33.859805],[134.438548,33.859801],[134.438506,33.859788],[134.438467,33.859768],[134.438432,33.85974],[134.43836,33.859685],[134.43832,33.859665],[134.438272,33.859655],[134.438221,33.859654],[134.438171,33.859659],[134.438121,33.85967],[134.438077,33.859682],[134.438004,33.859707],[134.437969,33.859714],[134.43793,33.859716],[134.437884,33.859711],[134.437824,33.859698],[134.437756,33.859678],[134.437681,33.859651],[134.437626,33.85963],[134.437529,33.859597],[134.437447,33.859561],[134.437405,33.859534],[134.437374,33.859508],[134.437338,33.859479],[134.437301,33.859446],[134.437266,33.85941],[134.437235,33.85937],[134.437208,33.859327],[134.437182,33.859283],[134.437158,33.859239],[134.437132,33.859199],[134.437105,33.859162],[134.437071,33.859121],[134.437028,33.859077],[134.436983,33.859028],[134.436939,33.858984],[134.436903,33.858942],[134.436886,33.858923],[134.436861,33.858881],[134.436842,33.858837],[134.436834,33.858793],[134.436833,33.858755],[134.436834,33.858717],[134.436833,33.858697],[134.436823,33.858657],[134.436806,33.858618],[134.436785,33.85858],[134.436761,33.858543],[134.436732,33.858504],[134.436697,33.858459],[134.436661,33.858414],[134.436629,33.858375],[134.436603,33.858342],[134.436578,33.858306],[134.436547,33.858263],[134.436516,33.858215],[134.436489,33.858167],[134.436467,33.858123],[134.436447,33.858084],[134.436426,33.858053],[134.436405,33.858021],[134.436382,33.857984],[134.43636,33.857943],[134.436342,33.857902],[134.436328,33.857867],[134.436316,33.857836],[134.4363,33.857808],[134.436277,33.857782],[134.436249,33.857755],[134.436211,33.857728],[134.436168,33.857701],[134.436121,33.857676],[134.436071,33.857656],[134.436023,33.857637],[134.435973,33.85762],[134.435921,33.857601],[134.435862,33.85758],[134.435798,33.857557],[134.435739,33.857534],[134.435688,33.857516],[134.435643,33.857498],[134.435595,33.857477],[134.435545,33.857452],[134.435496,33.857425],[134.435448,33.8574],[134.435405,33.857376],[134.43536,33.857353],[134.435317,33.857329],[134.435293,33.857317],[134.435245,33.857284],[134.435196,33.857244],[134.435154,33.857204],[134.435123,33.857167],[134.435095,33.857133],[134.435082,33.857115],[134.435049,33.857081],[134.435011,33.857046],[134.434968,33.857007],[134.434925,33.856969],[134.434887,33.856934],[134.434856,33.856908],[134.434829,33.856884],[134.434802,33.856864],[134.434794,33.856858],[134.43475,33.856828],[134.434701,33.856795],[134.434649,33.856762],[134.434601,33.856728],[134.434561,33.856697],[134.434525,33.856667],[134.434488,33.856636],[134.434441,33.856602],[134.434392,33.856566],[134.434291,33.856488],[134.434175,33.856386],[134.43412,33.856336],[134.434066,33.856295],[134.434005,33.856258],[134.433931,33.856218],[134.43389,33.8562],[134.433848,33.856189],[134.433805,33.856185],[134.433762,33.856189],[134.433719,33.8562],[134.433678,33.856215],[134.4336,33.856251],[134.433563,33.856266],[134.433494,33.856289],[134.433427,33.8563],[134.433356,33.856299],[134.433279,33.856288],[134.433199,33.856271],[134.433118,33.856254],[134.43308,33.856252],[134.433046,33.856255],[134.433015,33.856266],[134.432987,33.856281],[134.432932,33.856317],[134.432899,33.856331],[134.432862,33.856339],[134.432819,33.856341],[134.432776,33.856337],[134.432734,33.856326],[134.432694,33.856311],[134.432657,33.85629],[134.432624,33.856265],[134.432595,33.856237],[134.432568,33.856208],[134.432521,33.856148],[134.432477,33.85609],[134.432427,33.856039],[134.432397,33.856015],[134.432363,33.855993],[134.43229,33.855947],[134.432213,33.855897],[134.432134,33.855849],[134.432095,33.855834],[134.432068,33.855829],[134.432058,33.855827],[134.432022,33.855832],[134.431985,33.855846],[134.431911,33.855895],[134.431831,33.855956],[134.431744,33.856018],[134.431662,33.856077],[134.431591,33.856132],[134.431557,33.856163],[134.431527,33.856198],[134.431466,33.856289],[134.431438,33.856342],[134.431392,33.856444],[134.431368,33.85651],[134.431346,33.856561],[134.431328,33.856594],[134.431306,33.856628],[134.431284,33.856665],[134.431261,33.856702],[134.431235,33.856739],[134.431205,33.856775],[134.431171,33.85681],[134.431135,33.856841],[134.431095,33.856871],[134.431053,33.856906],[134.431009,33.856951],[134.430966,33.856998],[134.430925,33.857039],[134.430889,33.857071],[134.430852,33.857101],[134.430812,33.85713],[134.430766,33.857156],[134.430713,33.857182],[134.430654,33.857204],[134.430593,33.857222],[134.430534,33.857238],[134.430476,33.857253],[134.430417,33.85727],[134.430357,33.85729],[134.430301,33.857314],[134.430249,33.857342],[134.430204,33.857373],[134.430166,33.857405],[134.430134,33.857439],[134.430099,33.857475],[134.430055,33.857517],[134.430008,33.85756],[134.429966,33.857605],[134.429932,33.85765],[134.429907,33.857697],[134.429888,33.85775],[134.429876,33.857806],[134.429867,33.857866],[134.42986,33.857925],[134.429857,33.85797],[134.429857,33.857994],[134.429856,33.858009],[134.429848,33.858029],[134.429828,33.858058],[134.429792,33.858089],[134.429739,33.85812],[134.429671,33.858152],[134.429594,33.858187],[134.429562,33.858206],[134.429544,33.858226],[134.429506,33.858286],[134.429457,33.858375],[134.429429,33.858414],[134.429369,33.858488],[134.429306,33.858571],[134.429248,33.858653],[134.429205,33.85872],[134.429178,33.85877],[134.429163,33.858809],[134.429152,33.858843],[134.428741,33.858939],[134.428054,33.858689],[134.427229,33.858489],[134.426291,33.858372],[134.425479,33.85838],[134.424954,33.858314],[134.423554,33.857772],[134.422892,33.857997],[134.421904,33.857955],[134.421629,33.857864],[134.421154,33.857639],[134.420392,33.857797],[134.419817,33.857997],[134.419505,33.858289],[134.41888,33.85863],[134.41833,33.858788],[134.417867,33.859147],[134.41728,33.859805],[134.41673,33.86003],[134.415968,33.860055],[134.41473,33.859922],[134.412781,33.858972],[134.412006,33.85843],[134.411681,33.858255],[134.411618,33.858097],[134.411343,33.857822],[134.410631,33.85778],[134.409981,33.857555],[134.409569,33.857214],[134.409431,33.856905],[134.408881,33.85668],[134.408876,33.856678],[134.408131,33.856314],[134.407644,33.855914],[134.407152,33.855768],[134.406871,33.85538],[134.406637,33.855346],[134.405932,33.855714],[134.404807,33.855581],[134.404441,33.855406],[134.404282,33.855331],[134.404023,33.855144],[134.403846,33.854848],[134.403308,33.855013],[134.40301,33.855119],[134.402732,33.855298],[134.401979,33.856006],[134.401895,33.856031],[134.400133,33.855539],[134.399458,33.855356],[134.398683,33.854864],[134.398183,33.854639],[134.397583,33.855106],[134.397083,33.855106],[134.396258,33.854639],[134.396233,33.854048],[134.396158,33.853598],[134.395771,33.85349],[134.395196,33.853715],[134.394508,33.854098],[134.393321,33.854256],[134.392971,33.854215],[134.392825,33.85379],[134.392721,33.85349],[134.392609,33.853448],[134.392445,33.853448],[134.392196,33.853448],[134.391734,33.853248],[134.391122,33.852723],[134.390772,33.85234],[134.390497,33.852298],[134.390197,33.851915],[134.389784,33.851582],[134.388914,33.851671],[134.388247,33.85174],[134.387722,33.851715],[134.38761,33.851649],[134.387285,33.85129],[134.387197,33.851265],[134.386897,33.851307],[134.38596,33.851607],[134.385298,33.851849],[134.385197,33.851849],[134.384835,33.85174],[134.384535,33.85149],[134.384198,33.851515],[134.383873,33.851924],[134.38316,33.852149],[134.382448,33.85224],[134.381761,33.852482],[134.380848,33.852732],[134.380273,33.85314],[134.379911,33.853723],[134.379473,33.854157],[134.378736,33.85434],[134.378549,33.854448],[134.378374,33.854923],[134.378324,33.855623],[134.378099,33.85614],[134.377861,33.856256],[134.377528,33.856266],[134.377479,33.856267],[134.377274,33.856273],[134.376761,33.856115],[134.376211,33.856006],[134.374808,33.855771],[134.374287,33.855581],[134.373674,33.855356],[134.373157,33.854903],[134.372312,33.854473],[134.371287,33.853973],[134.369863,33.853115],[134.369225,33.852807],[134.368538,33.852215],[134.367851,33.851899],[134.366726,33.85159],[134.366201,33.851207],[134.365763,33.850624],[134.365213,33.85019],[134.364526,33.849949],[134.363926,33.849857],[134.363072,33.849713],[134.362601,33.849516],[134.361364,33.849091],[134.361202,33.848957],[134.361089,33.848799],[134.360764,33.848641],[134.360627,33.848616],[134.359664,33.848799],[134.359389,33.849024],[134.359269,33.849387],[134.359002,33.849695],[134.358817,33.849809],[134.358508,33.849949],[134.358291,33.850046],[134.35792,33.850221],[134.357673,33.850283],[134.357384,33.850406],[134.357116,33.850512],[134.356962,33.850677],[134.356829,33.850773],[134.356725,33.850816],[134.356478,33.850905],[134.356147,33.850984],[134.355899,33.851012],[134.355485,33.851032],[134.355237,33.851051],[134.354902,33.851026],[134.354742,33.850964],[134.354513,33.850836],[134.354305,33.850751],[134.354056,33.850684],[134.353952,33.850676],[134.353807,33.850686],[134.353601,33.850791],[134.353291,33.850845],[134.353146,33.850837],[134.352813,33.850649],[134.352656,33.850529],[134.352347,33.850355],[134.352045,33.850236],[134.351734,33.850152],[134.351422,33.850067],[134.350873,33.850037],[134.350565,33.850023],[134.351015,33.850882],[134.350878,33.851732],[134.351203,33.85259],[134.35164,33.85309],[134.351703,33.853315],[134.351728,33.854348],[134.351478,33.854956],[134.351565,33.855431],[134.351702,33.855906],[134.352177,33.856556],[134.351799,33.85757],[134.350915,33.857974],[134.350154,33.858061],[134.34934,33.858272],[134.348465,33.858564],[134.348105,33.858583],[134.34769,33.858605],[134.347203,33.858855],[134.34684,33.859397],[134.346265,33.85953],[134.345915,33.859513],[134.344866,33.859538],[134.343716,33.859622],[134.342803,33.859472],[134.341703,33.85963],[134.341541,33.859713],[134.341216,33.860147],[134.340528,33.860438],[134.339241,33.860621],[134.338791,33.860888],[134.338354,33.86143],[134.337229,33.862263],[134.337091,33.862738],[134.337091,33.863346],[134.336904,33.863888],[134.336329,33.864246],[134.335916,33.864679],[134.335854,33.864704],[134.335416,33.864704],[134.334679,33.864562],[134.333829,33.864479],[134.333167,33.864321],[134.332942,33.864204],[134.332204,33.864096],[134.330917,33.864029],[134.330642,33.863962],[134.329729,33.863829],[134.32803,33.863937],[134.327205,33.863871],[134.326792,33.863896],[134.32668,33.863962],[134.32643,33.864304],[134.326422,33.864382],[134.32638,33.86482],[134.326492,33.865112],[134.327205,33.865162],[134.327317,33.865229],[134.327505,33.865612],[134.32748,33.866262],[134.327155,33.867545],[134.327205,33.86802],[134.327155,33.868403],[134.326879,33.868811],[134.326305,33.86942],[134.32608,33.86987],[134.326105,33.870453],[134.326192,33.871019],[134.326192,33.871286],[134.326079,33.872277],[134.326279,33.872727],[134.326254,33.873136],[134.326029,33.873927],[134.326142,33.874219],[134.326167,33.874577],[134.325955,33.875052],[134.32578,33.875252],[134.325317,33.875685],[134.32438,33.87636],[134.324318,33.876384],[134.323692,33.876627],[134.323067,33.87681],[134.322767,33.87706],[134.322542,33.877326],[134.322222,33.877545],[134.32211,33.87763],[134.322043,33.877725],[134.321977,33.877895],[134.32207,33.878158],[134.322178,33.878562],[134.322351,33.878872],[134.322443,33.87906],[134.322671,33.879284],[134.322796,33.879349],[134.323265,33.879676],[134.323518,33.880088],[134.323587,33.880192],[134.323592,33.880326],[134.32368,33.880417],[134.32368,33.880459],[134.324365,33.881243],[134.324917,33.881876],[134.325404,33.882234],[134.325842,33.882484],[134.326042,33.882734],[134.326042,33.882775],[134.325817,33.883092],[134.325604,33.883542],[134.325442,33.884175],[134.325354,33.88505],[134.325329,33.886425],[134.325217,33.886925],[134.325206,33.88693],[134.325079,33.886991],[134.324419,33.886875],[134.324058,33.886849],[134.323798,33.886886],[134.323692,33.886902],[134.323293,33.887232],[134.32283,33.887783],[134.322692,33.888233],[134.322742,33.888724],[134.322554,33.889224],[134.322142,33.889741],[134.321379,33.890332],[134.320654,33.891049],[134.320392,33.89139],[134.320049,33.891951],[134.319592,33.892632],[134.318979,33.893215],[134.318873,33.893372],[134.318571,33.893679],[134.318224,33.893958],[134.317642,33.894073],[134.316986,33.894243],[134.316592,33.89464],[134.316342,33.895248],[134.316567,33.896014],[134.316429,33.897381],[134.316129,33.897922],[134.315604,33.898306],[134.315167,33.898739],[134.314979,33.898806],[134.314404,33.898847],[134.313817,33.898964],[134.313237,33.899242],[134.312667,33.899414],[134.312167,33.900005],[134.311629,33.901197],[134.311629,33.901622],[134.311729,33.90223],[134.311592,33.902796],[134.311267,33.903271],[134.311107,33.903632],[134.310588,33.904233],[134.310015,33.904586],[134.309292,33.905029],[134.308717,33.905346],[134.308467,33.905862],[134.308079,33.906404],[134.307454,33.906787],[134.307092,33.906879],[134.306317,33.907012],[134.305692,33.907012],[134.304917,33.907287],[134.304205,33.907629],[134.303567,33.908029],[134.302917,33.908503],[134.302067,33.909295],[134.301405,33.909836],[134.300355,33.910286],[134.299617,33.910378],[134.298842,33.910403],[134.298767,33.910361],[134.298267,33.910136],[134.297492,33.909953],[134.296643,33.909703],[134.296343,33.909461],[134.29643,33.90917],[134.296068,33.908562],[134.29568,33.90802],[134.294693,33.907053],[134.294418,33.906687],[134.293206,33.906912],[134.292518,33.90692],[134.291168,33.906803],[134.290406,33.906803],[134.290043,33.90712],[134.289656,33.908136],[134.289468,33.908878],[134.289143,33.909536],[134.288456,33.910619],[134.288068,33.911678],[134.287656,33.912377],[134.287243,33.912961],[134.286643,33.913211],[134.286231,33.913594],[134.286418,33.914811],[134.286393,33.915169],[134.285756,33.915327],[134.284993,33.915419],[134.284268,33.915352],[134.283556,33.915419],[134.282181,33.915785],[134.281031,33.91556],[134.279569,33.915402],[134.279156,33.915294],[134.278394,33.915019],[134.277806,33.915019],[134.277294,33.915244],[134.276469,33.915452],[134.275444,33.915585],[134.274757,33.91581],[134.274132,33.916335],[134.273744,33.916577],[134.272969,33.916652],[134.272894,33.916968],[134.272644,33.917235],[134.271019,33.917143],[134.269869,33.917351],[134.268107,33.917035],[134.267057,33.91706],[134.265982,33.917285],[134.26527,33.91751],[134.26502,33.917493],[134.264095,33.917626],[134.26302,33.917743],[134.262083,33.917651],[134.261033,33.917401],[134.259822,33.917057],[134.259771,33.917043],[134.258733,33.916659],[134.257683,33.916368],[134.257271,33.916459],[134.256808,33.916734],[134.256258,33.916893],[134.255434,33.916868],[134.254984,33.916734],[134.254709,33.916401],[134.254221,33.916218],[134.253534,33.916284],[134.252959,33.916559],[134.252546,33.916876],[134.251909,33.916851],[134.251196,33.916918],[134.250396,33.917059],[134.249959,33.917009],[134.249871,33.916309],[134.249797,33.916134],[134.249322,33.915568],[134.247322,33.914693],[134.247284,33.914693],[134.247197,33.914584],[134.246972,33.914451],[134.246509,33.914401],[134.246284,33.914293],[134.246097,33.914018],[134.245684,33.913659],[134.24521,33.913409],[134.24456,33.913209],[134.243947,33.912968],[134.243485,33.912718],[134.24266,33.912151],[134.241885,33.911818],[134.241247,33.91166],[134.240373,33.911393],[134.23971,33.911101],[134.238498,33.910493],[134.23801,33.91011],[134.237673,33.910018],[134.237235,33.910068],[134.235611,33.909818],[134.235361,33.90966],[134.235148,33.909435],[134.234736,33.909301],[134.234186,33.90921],[134.233661,33.909168],[134.233436,33.908743],[134.233273,33.908693],[134.232836,33.908718],[134.232473,33.908651],[134.232148,33.908468],[134.231848,33.908201],[134.231486,33.908018],[134.231399,33.908043],[134.23145,33.907896],[134.232423,33.90696],[134.232661,33.906577],[134.232836,33.906193],[134.232886,33.90581],[134.232723,33.905452],[134.232448,33.90516],[134.232386,33.904868],[134.232411,33.904727],[134.232636,33.90446],[134.232798,33.904327],[134.233236,33.904169],[134.234361,33.903469],[134.234773,33.903244],[134.23511,33.902952],[134.23541,33.902744],[134.235798,33.90256],[134.236235,33.902227],[134.23681,33.901936],[134.236898,33.901869],[134.236973,33.901619],[134.236948,33.901144],[134.236345,33.899877],[134.236493,33.899462],[134.236658,33.899392],[134.238623,33.898011],[134.23876,33.897786],[134.23876,33.897428],[134.238398,33.896686],[134.238485,33.896387],[134.23881,33.895645],[134.238748,33.895195],[134.238785,33.894787],[134.238923,33.894362],[134.238835,33.893937],[134.238835,33.893876],[134.238835,33.893529],[134.239048,33.892879],[134.239193,33.891907],[134.23921,33.891796],[134.239185,33.891746],[134.238773,33.891704],[134.238148,33.891546],[134.237598,33.891321],[134.237073,33.891187],[134.236798,33.891212],[134.235035,33.890787],[134.234186,33.890379],[134.234023,33.890271],[134.233248,33.889571],[134.232636,33.889229],[134.231236,33.888713],[134.230524,33.888555],[134.229586,33.888379],[134.228986,33.888221],[134.228574,33.888354],[134.228187,33.888355],[134.22686,33.887973],[134.226529,33.887998],[134.225792,33.888853],[134.225379,33.889039],[134.223237,33.889013],[134.222775,33.889013],[134.2217,33.889088],[134.220788,33.888746],[134.219863,33.888679],[134.219475,33.888429],[134.219063,33.888029],[134.218175,33.887846],[134.218013,33.887763],[134.217663,33.887463],[134.217351,33.887105],[134.217213,33.886813],[134.216976,33.88663],[134.216526,33.886455],[134.215101,33.886163],[134.214189,33.885846],[134.213451,33.88583],[134.213064,33.885738],[134.212714,33.88553],[134.212301,33.88538],[134.211623,33.885268],[134.211439,33.885238],[134.211226,33.885105],[134.211002,33.884788],[134.210477,33.884272],[134.210152,33.883872],[134.209927,33.883488],[134.209764,33.882947],[134.209739,33.88263],[134.209402,33.882222],[134.208652,33.880813],[134.206266,33.880925],[134.205527,33.881189],[134.205115,33.88153],[134.204793,33.881896],[134.203052,33.882522],[134.20199,33.882888],[134.201815,33.883088],[134.201653,33.883513],[134.201353,33.883763],[134.200915,33.88388],[134.199865,33.88428],[134.199178,33.884597],[134.198593,33.884873],[134.198051,33.884956],[134.196714,33.884813],[134.195884,33.884978],[134.194949,33.885425],[134.194092,33.886022],[134.193768,33.886044],[134.19302,33.885908],[134.191353,33.885646],[134.190778,33.88553],[134.190441,33.885396],[134.189916,33.884855],[134.189503,33.884588],[134.189129,33.884113],[134.188854,33.883913],[134.188679,33.883663],[134.188604,33.88328],[134.188516,33.883172],[134.187504,33.882422],[134.187329,33.882339],[134.186954,33.882222],[134.186454,33.881972],[134.185817,33.881705],[134.185217,33.881522],[134.184642,33.881455],[134.184042,33.881439],[134.183567,33.881372],[134.182967,33.881122],[134.182692,33.880831],[134.182442,33.880406],[134.18173,33.879772],[134.18148,33.879431],[134.181255,33.879031],[134.180905,33.878581],[134.18035,33.878427],[134.180105,33.878289],[134.178921,33.878346],[134.178479,33.878368],[134.178093,33.878317],[134.177741,33.87819],[134.176999,33.877582],[134.17534,33.875558],[134.174599,33.874998],[134.173366,33.873599],[134.173124,33.873135],[134.172115,33.872315],[134.172026,33.871856],[134.171997,33.871412],[134.172101,33.871058],[134.172423,33.870047],[134.172375,33.86979],[134.171688,33.868976],[134.170482,33.867999],[134.170394,33.867883],[134.169594,33.867366],[134.169319,33.867258],[134.168907,33.8673],[134.168357,33.867275],[134.168144,33.867233],[134.167182,33.86685],[134.166632,33.866833],[134.166284,33.866796],[134.16605,33.866719],[134.165791,33.866567],[134.16481,33.865798],[134.164646,33.865703],[134.164416,33.865588],[134.164182,33.86555],[134.163657,33.865591],[134.163245,33.865683],[134.162507,33.865575],[134.161907,33.865525],[134.161182,33.86555],[134.160357,33.865642],[134.159507,33.865825],[134.15847,33.865825],[134.158032,33.865892],[134.157895,33.865933],[134.157168,33.866336],[134.15696,33.866395],[134.156702,33.866421],[134.156383,33.866324],[134.154914,33.865925],[134.154575,33.865861],[134.154227,33.865879],[134.15388,33.865964],[134.152945,33.866908],[134.152582,33.867041],[134.152007,33.867116],[134.151407,33.867225],[134.150744,33.867541],[134.150291,33.867831],[134.149461,33.86849],[134.148657,33.869166],[134.148244,33.869391],[134.147669,33.869508],[134.147304,33.869535],[134.14644,33.86954],[134.145664,33.869465],[134.144425,33.869199],[134.143409,33.868921],[134.142924,33.868617],[134.142636,33.86829],[134.142415,33.867792],[134.142,33.866944],[134.141233,33.866808],[134.140795,33.8666],[134.140408,33.866308],[134.140058,33.865792],[134.139833,33.865633],[134.139583,33.865617],[134.139233,33.8657],[134.138658,33.866067],[134.138208,33.86626],[134.137596,33.866377],[134.136956,33.866278],[134.13622,33.866067],[134.13506,33.865551],[134.134881,33.865421],[134.134404,33.865078],[134.134171,33.8646],[134.133871,33.864267],[134.133596,33.864017],[134.133459,33.86395],[134.132546,33.863634],[134.132109,33.863117],[134.131859,33.862509],[134.131859,33.86235],[134.131646,33.86195],[134.131396,33.861767],[134.130984,33.861542],[134.130434,33.861409],[134.129703,33.861342],[134.129215,33.861228],[134.128737,33.861057],[134.127909,33.860459],[134.127434,33.860076],[134.127247,33.859784],[134.127247,33.859401],[134.127109,33.859067],[134.126884,33.858751],[134.126647,33.858526],[134.126372,33.858439],[134.126147,33.858368],[134.12596,33.858168],[134.125685,33.858051],[134.125385,33.857784],[134.12511,33.857376],[134.125022,33.857334],[134.124747,33.857334],[134.124264,33.857574],[134.124006,33.857575],[134.123672,33.857401],[134.123122,33.857084],[134.122455,33.856771],[134.121285,33.856426],[134.12016,33.856243],[134.11901,33.856084],[134.117136,33.855976],[134.115686,33.856093],[134.115361,33.856093],[134.113239,33.856016],[134.112466,33.855756],[134.112237,33.855561],[134.11214,33.855329],[134.111974,33.85456],[134.111786,33.854135],[134.111328,33.853288],[134.110645,33.852758],[134.109965,33.85275],[134.108949,33.85296],[134.108349,33.853143],[134.107524,33.853301],[134.106887,33.853351],[134.105374,33.853443],[134.104112,33.853668],[134.103287,33.85376],[134.102549,33.853735],[134.101662,33.853826],[134.100987,33.853893],[134.100212,33.854209],[134.099523,33.854321],[134.098111,33.854509],[134.097399,33.854789],[134.097185,33.85489],[134.096808,33.854978],[134.096532,33.854974],[134.096221,33.854981],[134.096059,33.854938],[134.095912,33.855027],[134.095887,33.855034],[134.095767,33.855068],[134.095658,33.855058],[134.09558,33.855049],[134.095519,33.855014],[134.095291,33.85468],[134.094634,33.854518],[134.094361,33.853744],[134.094337,33.853676],[134.093862,33.853135],[134.093725,33.853018],[134.093262,33.852776],[134.092244,33.852484],[134.09182,33.852188],[134.091558,33.851946],[134.091464,33.851502],[134.091025,33.85036],[134.09065,33.849893],[134.089507,33.849361],[134.088574,33.848743],[134.088403,33.848375],[134.087238,33.847168],[134.086875,33.846652],[134.08665,33.846044],[134.086413,33.845594],[134.08562,33.8443],[134.085638,33.843926],[134.08575,33.843549],[134.085509,33.843767],[134.085378,33.84381],[134.084984,33.84382],[134.083925,33.843934],[134.083472,33.844088],[134.083276,33.844194],[134.083006,33.844574],[134.082715,33.844794],[134.082454,33.844947],[134.082132,33.845058],[134.081759,33.845077],[134.08089,33.845039],[134.080668,33.845057],[134.079712,33.845339],[134.078488,33.845702],[134.078276,33.845754],[134.078085,33.845763],[134.077903,33.845705],[134.07766,33.845563],[134.076505,33.844988],[134.075706,33.844739],[134.075039,33.844477],[134.073117,33.843842],[134.071836,33.843145],[134.071522,33.843029],[134.070795,33.84294],[134.070078,33.842892],[134.069755,33.842827],[134.069299,33.842644],[134.068753,33.842427],[134.06814,33.842202],[134.067477,33.84191],[134.065984,33.841114],[134.065043,33.840748],[134.064942,33.840631],[134.064815,33.83986],[134.064754,33.839706],[134.06465,33.839625],[134.064365,33.839569],[134.06354,33.839252],[134.06299,33.838869],[134.06239,33.83851],[134.061417,33.837907],[134.060639,33.837642],[134.059294,33.837328],[134.058936,33.8373],[134.058664,33.837327],[134.058291,33.837404],[134.057585,33.837432],[134.05707,33.837367],[134.056292,33.837194],[134.055837,33.837045],[134.055341,33.836803],[134.055017,33.836737],[134.054674,33.836722],[134.054341,33.836748],[134.05418,33.836732],[134.054018,33.836666],[134.053835,33.836532],[134.053399,33.836206],[134.052457,33.835553],[134.051895,33.835249],[134.05148,33.83515],[134.050733,33.835077],[134.05048,33.835019],[134.050334,33.83494],[134.049612,33.834186],[134.049137,33.833986],[134.048723,33.833912],[134.04733,33.833918],[134.046043,33.83381],[134.045659,33.833762],[134.045025,33.833744],[134.044702,33.833767],[134.041927,33.834087],[134.041539,33.834111],[134.041125,33.834253],[134.040815,33.834373],[134.040377,33.834677],[134.040145,33.834862],[134.039951,33.834927],[134.039692,33.834929],[134.03942,33.834865],[134.038511,33.834415],[134.037991,33.834104],[134.037848,33.833965],[134.037795,33.833835],[134.037716,33.833577],[134.037728,33.833436],[134.037855,33.833025],[134.037867,33.832874],[134.037244,33.832073],[134.036735,33.831452],[134.036268,33.831008],[134.035705,33.830277],[134.035313,33.829859],[134.034293,33.828934],[134.033725,33.828524],[134.033253,33.828381],[134.033272,33.828271],[134.033347,33.828044],[134.033436,33.827774],[134.033656,33.827428],[134.034453,33.826245],[134.034849,33.825639],[134.035155,33.824653],[134.035205,33.824295],[134.035145,33.823947],[134.035161,33.823663],[134.035205,33.823378],[134.035589,33.822802],[134.035655,33.822704],[134.035968,33.82232],[134.03628,33.821862],[134.03663,33.821204],[134.036805,33.820754],[134.036843,33.820296],[134.036832,33.819839],[134.036739,33.818618],[134.036493,33.817746],[134.036455,33.817229],[134.03648,33.816788],[134.03658,33.816338],[134.037,33.815426],[134.037049,33.815127],[134.036979,33.814744],[134.03663,33.814313],[134.036355,33.814088],[134.035518,33.813688],[134.035284,33.81343],[134.03489,33.813019],[134.034119,33.812383],[134.033853,33.812064],[134.033387,33.811043],[134.03318,33.810604],[134.033018,33.810114],[134.033068,33.809789],[134.033193,33.809464],[134.033556,33.808997],[134.033906,33.808705],[134.034768,33.80823],[134.035155,33.807964],[134.035868,33.807206],[134.036555,33.806539],[134.036843,33.806172],[134.037493,33.805564],[134.03808,33.805148],[134.03888,33.804781],[134.039255,33.804498],[134.040442,33.80274],[134.04078,33.801998],[134.040967,33.80184],[134.04128,33.801706],[134.041912,33.801569],[134.042667,33.801215],[134.043678,33.800794],[134.044908,33.800057],[134.045825,33.799655],[134.046538,33.799311],[134.046779,33.798982],[134.04706,33.798385],[134.047143,33.797958],[134.047174,33.797517],[134.04712,33.797034],[134.04691,33.796282],[134.046823,33.79597],[134.046666,33.795757],[134.046091,33.795107],[134.045891,33.794824],[134.045867,33.794591],[134.046257,33.794004],[134.046357,33.793563],[134.046579,33.792403],[134.046558,33.791764],[134.046385,33.791353],[134.045929,33.79025],[134.045892,33.789866],[134.045991,33.789641],[134.046179,33.7895],[134.046329,33.7895],[134.046666,33.789408],[134.047104,33.789183],[134.047716,33.788475],[134.048166,33.788158],[134.049366,33.7875],[134.049454,33.787308],[134.049454,33.787033],[134.049541,33.786676],[134.049554,33.786625],[134.049729,33.786433],[134.049829,33.786375],[134.050029,33.786142],[134.050178,33.785825],[134.050341,33.785667],[134.050678,33.785584],[134.051191,33.785517],[134.052441,33.785384],[134.052891,33.785392],[134.053266,33.7853],[134.054128,33.784976],[134.055315,33.784592],[134.055553,33.784334],[134.055728,33.784009],[134.055815,33.783642],[134.05584,33.783184],[134.05614,33.782576],[134.05639,33.781876],[134.056528,33.781751],[134.056853,33.781668],[134.057372,33.781427],[134.057958,33.781147],[134.058093,33.780976],[134.058041,33.78082],[134.057802,33.780693],[134.05763,33.780537],[134.057612,33.780324],[134.057678,33.780054],[134.057608,33.77967],[134.057519,33.779131],[134.057533,33.778633],[134.057749,33.77778],[134.057934,33.777551],[134.058393,33.777365],[134.058605,33.777229],[134.058756,33.776944],[134.058873,33.776545],[134.058946,33.774769],[134.0587,33.772233],[134.058544,33.771864],[134.058439,33.771424],[134.058522,33.771026],[134.058646,33.770521],[134.058711,33.770037],[134.058774,33.769227],[134.058838,33.768687],[134.058818,33.768204],[134.058728,33.767479],[134.058742,33.767024],[134.059018,33.766206],[134.058964,33.765837],[134.058759,33.765582],[134.058152,33.765271],[134.05784,33.764929],[134.057815,33.764729],[134.0579,33.76452],[134.058324,33.764177],[134.05854,33.763879],[134.058927,33.763271],[134.059052,33.762896],[134.059165,33.762204],[134.059115,33.761563],[134.059062,33.761211],[134.058923,33.760842],[134.058377,33.760271],[134.058194,33.759985],[134.057457,33.75915],[134.057077,33.758455],[134.056937,33.757731],[134.05684,33.75653],[134.056727,33.755064],[134.056752,33.754731],[134.056786,33.754201],[134.056835,33.753817],[134.056927,33.753348],[134.056927,33.753306],[134.056327,33.752331],[134.056102,33.751815],[134.056102,33.751456],[134.056402,33.750981],[134.056602,33.750873],[134.057658,33.75075],[134.05793,33.750692],[134.058082,33.750535],[134.058199,33.750179],[134.058281,33.749824],[134.058329,33.749255],[134.058435,33.748551],[134.058483,33.748181],[134.058481,33.747783],[134.058548,33.747584],[134.058802,33.747413],[134.058937,33.747241],[134.059509,33.746244],[134.059659,33.745703],[134.059589,33.745324],[134.058981,33.74356],[134.059064,33.743333],[134.059352,33.74309],[134.060115,33.74266],[134.060817,33.741896],[134.061086,33.741497],[134.061322,33.741141],[134.061524,33.740771],[134.061514,33.740341],[134.061539,33.739667],[134.061402,33.739017],[134.061421,33.738071],[134.061314,33.73775],[134.061253,33.737027],[134.061552,33.736031],[134.061753,33.73549],[134.062381,33.73526],[134.063614,33.735091],[134.063937,33.734975],[134.06448,33.734717],[134.065396,33.734315],[134.06594,33.734199],[134.066279,33.734098],[134.066482,33.733869],[134.066615,33.733357],[134.066594,33.732817],[134.066862,33.732191],[134.06754,33.731719],[134.067692,33.731476],[134.067753,33.730524],[134.068571,33.729333],[134.068671,33.729034],[134.068599,33.728495],[134.068239,33.727518],[134.06808,33.72709],[134.067826,33.726318],[134.067764,33.72571],[134.067601,33.725152],[134.067464,33.724944],[134.067238,33.724685],[134.066862,33.724445],[134.066623,33.724219],[134.066433,33.723822],[134.066257,33.723013],[134.066101,33.722516],[134.065877,33.72202],[134.065685,33.721424],[134.065484,33.720593],[134.065309,33.719855],[134.065375,33.719457],[134.06566,33.718873],[134.066569,33.717362],[134.066887,33.716579],[134.06696,33.716046],[134.067043,33.715761],[134.067246,33.715561],[134.067603,33.715418],[134.068366,33.71513],[134.068705,33.714915],[134.069365,33.714372],[134.070042,33.713857],[134.070177,33.713601],[134.070409,33.712733],[134.070426,33.712554],[134.070451,33.712487],[134.070404,33.711951],[134.070266,33.711625],[134.070009,33.711441],[134.069343,33.711089],[134.068063,33.710385],[134.067039,33.709896],[134.066514,33.709629],[134.066099,33.709271],[134.065721,33.708789],[134.065487,33.708087],[134.065382,33.707604],[134.065276,33.707107],[134.065144,33.706348],[134.065069,33.705325],[134.065028,33.704245],[134.065031,33.703385],[134.064908,33.702831],[134.064371,33.701441],[134.063993,33.700803],[134.063733,33.700468],[134.063676,33.700372],[134.063626,33.699989],[134.063729,33.699864],[134.064905,33.698518],[134.064989,33.698333],[134.064886,33.698206],[134.064364,33.697981],[134.063938,33.697563],[134.063622,33.697387],[134.063008,33.697248],[134.062641,33.697043],[134.0617,33.696152],[134.061307,33.69587],[134.060778,33.695673],[134.060267,33.695533],[134.058139,33.695273],[134.057882,33.695047],[134.05759,33.694608],[134.056865,33.694192],[134.056711,33.69405],[134.056709,33.69378],[134.056944,33.693282],[134.05733,33.692569],[134.057885,33.691586],[134.058324,33.690973],[134.058816,33.690772],[134.060089,33.690482],[134.06206,33.690047],[134.062739,33.689859],[134.063265,33.689729],[134.063674,33.689769],[134.063929,33.689697],[134.064334,33.689212],[134.064638,33.688997],[134.065216,33.688824],[134.066339,33.688699],[134.067301,33.688716],[134.068814,33.688985],[134.070109,33.689264],[134.070841,33.68936],[134.072016,33.689553],[134.072902,33.689833],[134.073449,33.690229],[134.073987,33.690489],[134.075843,33.690822],[134.076557,33.690833],[134.077169,33.690773],[134.077594,33.690714],[134.07812,33.690484],[134.078596,33.690453],[134.07972,33.69059],[134.081627,33.690965],[134.08311,33.691356],[134.084804,33.691568],[134.08569,33.691791],[134.085878,33.691933],[134.085966,33.692316],[134.086222,33.692556],[134.086581,33.692739],[134.087024,33.692837],[134.08864,33.692914],[134.089883,33.693122],[134.0907,33.693146],[134.091311,33.693001],[134.091938,33.692629],[134.092574,33.692524],[134.094719,33.69258],[134.095673,33.692774],[134.096391,33.69324],[134.096904,33.69372],[134.097229,33.69396],[134.099251,33.694796],[134.099864,33.694893],[134.100272,33.694905],[134.10163,33.6945],[134.103534,33.694278],[134.104196,33.694104],[134.104723,33.694002],[134.105335,33.693971],[134.106167,33.693824],[134.106508,33.693894],[134.106884,33.694148],[134.108001,33.69449],[134.109618,33.69471],[134.109891,33.694808],[134.110898,33.695286],[134.111632,33.695638],[134.11211,33.695806],[134.112808,33.695945],[134.114545,33.696192],[134.116628,33.696061],[134.117648,33.695985],[134.1187,33.695695],[134.119531,33.695321],[134.120006,33.695148],[134.120285,33.695182],[134.121572,33.695816],[134.122284,33.696132],[134.12251,33.696177],[134.122731,33.696176],[134.122978,33.696146],[134.1233,33.696088],[134.123682,33.695979],[134.123988,33.695864],[134.124361,33.695762],[134.124642,33.695725],[134.124897,33.695724],[134.125134,33.695782],[134.125787,33.695965],[134.126298,33.695962],[134.127045,33.695788],[134.127775,33.695557],[134.128403,33.695369],[134.128861,33.695182],[134.129438,33.69498],[134.13032,33.694691],[134.130846,33.694532],[134.131558,33.694159],[134.131914,33.694015],[134.13233,33.693906],[134.132874,33.693889],[134.133265,33.69383],[134.133536,33.693673],[134.133806,33.69333],[134.134159,33.692859],[134.134735,33.69243],[134.135107,33.692201],[134.135343,33.691944],[134.135545,33.691659],[134.135799,33.691458],[134.136358,33.691185],[134.137079,33.690848],[134.137944,33.690474],[134.138538,33.690314],[134.139047,33.69017],[134.139879,33.689924],[134.140505,33.689579],[134.141283,33.688893],[134.142128,33.688249],[134.143179,33.687746],[134.144451,33.687271],[134.145427,33.686917],[134.146274,33.686515],[134.147105,33.686141],[134.147784,33.685939],[134.148582,33.685849],[134.149258,33.685892],[134.150023,33.686025],[134.150929,33.686078],[134.152218,33.686178],[134.152926,33.686223],[134.153436,33.686201],[134.153877,33.686228],[134.154255,33.686279],[134.154998,33.686391],[134.155975,33.68658],[134.156718,33.686731],[134.157345,33.686757],[134.158552,33.68678],[134.159532,33.686876],[134.160038,33.686917],[134.160631,33.686992],[134.161085,33.687164],[134.161597,33.687432],[134.162267,33.687744],[134.162945,33.687909],[134.16336,33.688087],[134.163558,33.688222],[134.16356,33.688454],[134.163459,33.688804],[134.1633,33.689338],[134.163315,33.689706],[134.163457,33.690113],[134.163675,33.690504],[134.164036,33.690764],[134.164294,33.691024],[134.164283,33.69115],[134.163916,33.691695],[134.163607,33.692201],[134.16342,33.692808],[134.163352,33.69308],[134.163343,33.693361],[134.16334,33.694447],[134.163239,33.694893],[134.163046,33.695505],[134.162784,33.696098],[134.162572,33.696492],[134.162562,33.696647],[134.162772,33.696762],[134.163039,33.696848],[134.163876,33.697027],[134.164201,33.696997],[134.164561,33.697053],[134.165038,33.697283],[134.165353,33.697427],[134.166097,33.697626],[134.166587,33.697982],[134.167107,33.698372],[134.167597,33.698806],[134.167796,33.698921],[134.168447,33.699189],[134.168633,33.699236],[134.16977,33.699124],[134.170096,33.699238],[134.170481,33.699585],[134.170821,33.69999],[134.171453,33.700724],[134.172084,33.701244],[134.17271,33.701885],[134.173051,33.702416],[134.173345,33.702929],[134.173547,33.703587],[134.173653,33.703702],[134.173804,33.703779],[134.174187,33.703767],[134.174698,33.703794],[134.175116,33.703888],[134.175459,33.70393],[134.175888,33.703918],[134.176237,33.703936],[134.176643,33.704021],[134.177075,33.704309],[134.177705,33.704722],[134.178148,33.70503],[134.178743,33.705415],[134.179057,33.705491],[134.179221,33.705596],[134.179473,33.705939],[134.179902,33.705898],[134.180146,33.705935],[134.180426,33.70607],[134.180798,33.706184],[134.181532,33.706577],[134.182103,33.706923],[134.182967,33.707519],[134.1832,33.707605],[134.183954,33.707611],[134.184361,33.707686],[134.184868,33.707921],[134.185251,33.708016],[134.186521,33.708552],[134.188803,33.709441],[134.188978,33.709585],[134.189109,33.709991],[134.189244,33.710189],[134.190061,33.710834],[134.190271,33.710901],[134.19093,33.710956],[134.192616,33.711014],[134.193278,33.71103],[134.193626,33.711028],[134.194021,33.711064],[134.194335,33.711121],[134.195512,33.711676],[134.196876,33.712444],[134.19761,33.712896],[134.197978,33.713174],[134.198209,33.713403],[134.198425,33.713644],[134.198625,33.713886],[134.198903,33.714229],[134.200029,33.715206],[134.200779,33.715864],[134.201654,33.716331],[134.203125,33.716706],[134.203982,33.716829],[134.204517,33.716788],[134.205081,33.71667],[134.205463,33.716693],[134.206131,33.717104],[134.206669,33.717407],[134.20722,33.717532],[134.208453,33.718064],[134.208641,33.71813],[134.209078,33.718447],[134.209441,33.718897],[134.209578,33.719372],[134.209491,33.719889],[134.209511,33.720161],[134.209578,33.720472],[134.209673,33.720763],[134.209736,33.720986],[134.209798,33.721196],[134.210628,33.721572],[134.210866,33.721688],[134.211416,33.721797],[134.211678,33.721764],[134.211965,33.721663],[134.212628,33.721572],[134.21334,33.721663],[134.214278,33.721838],[134.214915,33.721888],[134.215198,33.721855],[134.21604,33.721613],[134.216314,33.721645],[134.21654,33.72173],[134.217252,33.721955],[134.218152,33.72213],[134.218492,33.722155],[134.21884,33.722088],[134.219427,33.721947],[134.220102,33.721838],[134.22036,33.721839],[134.22067,33.721865],[134.222139,33.722238],[134.222852,33.722488],[134.222939,33.722463],[134.223402,33.721922],[134.223927,33.721522],[134.224477,33.721205],[134.224653,33.721143],[134.224889,33.721155],[134.227176,33.721697],[134.227889,33.72183],[134.228156,33.721825],[134.228926,33.721647],[134.230339,33.721514],[134.23045,33.721511],[134.230549,33.721446],[134.230947,33.721091],[134.231838,33.720472],[134.232338,33.720072],[134.233626,33.719256],[134.233844,33.719194],[134.234063,33.719164],[134.234231,33.719192],[134.234431,33.719283],[134.234751,33.719506],[134.234888,33.719639],[134.235226,33.720089],[134.235313,33.720184],[134.235438,33.720222],[134.235988,33.720064],[134.236651,33.719956],[134.237125,33.719972],[134.237415,33.72007],[134.237675,33.720222],[134.237863,33.720381],[134.238438,33.720697],[134.239213,33.720989],[134.239738,33.72128],[134.239899,33.721344],[134.241413,33.721772],[134.24208,33.722038],[134.242291,33.722148],[134.242486,33.722299],[134.242737,33.722539],[134.243015,33.72267],[134.243336,33.722733],[134.244137,33.72278],[134.2449,33.722914],[134.245253,33.723017],[134.245565,33.723182],[134.246311,33.723732],[134.246937,33.724022],[134.247212,33.724088],[134.247343,33.724095],[134.247564,33.724001],[134.247827,33.723787],[134.248145,33.723443],[134.248337,33.723097],[134.248462,33.722805],[134.248481,33.722637],[134.248437,33.722397],[134.248411,33.722221],[134.248412,33.722064],[134.248712,33.72118],[134.248924,33.720797],[134.24916,33.720585],[134.249642,33.720244],[134.250437,33.719814],[134.251849,33.719297],[134.253112,33.719031],[134.253787,33.718939],[134.254485,33.718863],[134.256443,33.718756],[134.256751,33.718822],[134.256911,33.718897],[134.257299,33.719239],[134.257511,33.719572],[134.25808,33.720197],[134.258149,33.720272],[134.258499,33.720497],[134.258611,33.720522],[134.258999,33.720525],[134.260424,33.720414],[134.261761,33.720455],[134.262223,33.720547],[134.263648,33.72078],[134.264044,33.720906],[134.264467,33.721092],[134.264591,33.721191],[134.264923,33.721455],[134.265136,33.721747],[134.265273,33.722314],[134.265348,33.722447],[134.265673,33.72278],[134.265836,33.723122],[134.265973,33.723597],[134.266161,33.724005],[134.266473,33.72418],[134.267185,33.724271],[134.267985,33.724455],[134.268423,33.724655],[134.268773,33.725088],[134.26901,33.725488],[134.269248,33.72603],[134.269785,33.726571],[134.270273,33.726888],[134.270607,33.727205],[134.271258,33.727606],[134.272135,33.727838],[134.272723,33.727929],[134.274047,33.728296],[134.274535,33.728296],[134.275097,33.728454],[134.275427,33.728481],[134.275574,33.728435],[134.275772,33.728271],[134.27599,33.728082],[134.276092,33.728055],[134.276173,33.728096],[134.27626,33.728162],[134.276635,33.728587],[134.277122,33.728971],[134.277522,33.729246],[134.278872,33.729695],[134.280678,33.730216],[134.281636,33.730629],[134.281865,33.730844],[134.282012,33.731024],[134.282297,33.731054],[134.282512,33.730998],[134.282721,33.730881],[134.282913,33.730698],[134.283134,33.730312],[134.283534,33.729454],[134.283809,33.728979],[134.284159,33.72867],[134.284834,33.728304],[134.286159,33.727746],[134.286696,33.727587],[134.287259,33.727521],[134.288321,33.727596],[134.288884,33.727704],[134.289071,33.727837],[134.290046,33.728271],[134.290146,33.728454],[134.290328,33.728599],[134.290633,33.728721],[134.291221,33.728879],[134.291351,33.72893],[134.292018,33.729318],[134.292221,33.729395],[134.292683,33.72947],[134.293056,33.729568],[134.293308,33.72967],[134.293487,33.729748],[134.293783,33.729945],[134.294058,33.730029],[134.294234,33.730108],[134.294358,33.730212],[134.294433,33.730437],[134.294473,33.730512],[134.294571,33.730554],[134.296533,33.73087],[134.297508,33.731054],[134.29907,33.731304],[134.299781,33.731474],[134.299947,33.731499],[134.30007,33.731478],[134.30018,33.731426],[134.300228,33.731359],[134.300283,33.731287],[134.300393,33.731245],[134.300815,33.731125],[134.300925,33.731119],[134.301368,33.731198],[134.301429,33.731228],[134.301547,33.731366],[134.301696,33.731483],[134.301843,33.731553],[134.301991,33.731578],[134.302169,33.731597],[134.302451,33.73158],[134.302678,33.731604],[134.302986,33.731664],[134.303373,33.731779],[134.30373,33.731874],[134.304312,33.732071],[134.304768,33.732284],[134.30506,33.73239],[134.305351,33.732388],[134.305869,33.732344],[134.306676,33.73215],[134.307355,33.732037],[134.307873,33.732007],[134.308034,33.731938],[134.308859,33.73104],[134.309077,33.730924],[134.309335,33.730868],[134.309732,33.730859],[134.310056,33.730924],[134.310186,33.730991],[134.310463,33.731179],[134.310731,33.731278],[134.311177,33.73137],[134.311501,33.731456],[134.311786,33.731596],[134.312038,33.731729],[134.312241,33.731795],[134.312404,33.731862],[134.312623,33.731975],[134.312781,33.732012],[134.312881,33.73202],[134.312984,33.73199],[134.314006,33.731412],[134.314111,33.731374],[134.314231,33.73137],[134.314775,33.731464],[134.315034,33.731442],[134.316006,33.731304],[134.316543,33.731345],[134.317193,33.731487],[134.317515,33.73151],[134.317656,33.731528],[134.317742,33.73157],[134.317931,33.731812],[134.318306,33.732053],[134.318914,33.732272],[134.319263,33.732364],[134.319953,33.732508],[134.320248,33.732496],[134.320643,33.732395],[134.320943,33.73217],[134.321243,33.731828],[134.321618,33.731129],[134.32183,33.730837],[134.322596,33.730291],[134.322837,33.730154],[134.32308,33.730092],[134.323702,33.730047],[134.32405,33.730052],[134.324267,33.730054],[134.324427,33.7301],[134.32463,33.730173],[134.324784,33.730172],[134.325381,33.730012],[134.325761,33.729935],[134.32602,33.729907],[134.326465,33.729904],[134.326886,33.729921],[134.327072,33.72992],[134.327152,33.729879],[134.327367,33.72972],[134.327541,33.729569],[134.328135,33.728964],[134.328448,33.728765],[134.32873,33.72854],[134.328898,33.728356],[134.32909,33.728112],[134.329254,33.727946],[134.329792,33.727671],[134.331002,33.727191],[134.331629,33.727046],[134.331866,33.726927],[134.332019,33.726885],[134.332173,33.726851],[134.332311,33.72689],[134.332522,33.727024],[134.332766,33.727151],[134.333116,33.727271],[134.333862,33.727461],[134.334215,33.72753],[134.334499,33.727629],[134.334719,33.727776],[134.334939,33.727977],[134.335169,33.728273],[134.335325,33.728502],[134.335383,33.728637],[134.335392,33.728772],[134.33537,33.728995],[134.335404,33.729123],[134.33551,33.729244],[134.336057,33.7297],[134.336261,33.729935],[134.336318,33.730012],[134.336666,33.730478],[134.337078,33.730453],[134.337591,33.73032],[134.338478,33.730004],[134.339478,33.729579],[134.339716,33.729404],[134.340041,33.729062],[134.340505,33.728637],[134.340749,33.728405],[134.340781,33.728374],[134.34104,33.727979],[134.341196,33.727757],[134.341315,33.727646],[134.341457,33.727582],[134.34169,33.727537],[134.34279,33.727512],[134.343765,33.727604],[134.343978,33.727696],[134.344353,33.727962],[134.344678,33.728262],[134.344921,33.728363],[134.345215,33.72837],[134.345865,33.728329],[134.346515,33.72837],[134.347077,33.728529],[134.347515,33.728604],[134.347664,33.728706],[134.347727,33.728829],[134.347865,33.729162],[134.34819,33.729387],[134.34854,33.72957],[134.348824,33.729806],[134.349004,33.730015],[134.349152,33.730337],[134.34964,33.730245],[134.350965,33.730045],[134.351365,33.72987],[134.351614,33.729662],[134.351714,33.729212],[134.351739,33.728895],[134.351788,33.728816],[134.351902,33.728762],[134.352827,33.728696],[134.352964,33.728629],[134.353064,33.728612],[134.353198,33.728614],[134.353314,33.728654],[134.353902,33.729037],[134.35411,33.729121],[134.354464,33.728837],[134.355302,33.728571],[134.355577,33.728523],[134.355836,33.728548],[134.356089,33.728637],[134.356464,33.728862],[134.356652,33.729129],[134.356677,33.729287],[134.356764,33.729579],[134.357811,33.730613],[134.358245,33.731157],[134.358351,33.731345],[134.358751,33.731278],[134.359264,33.731295],[134.359751,33.73137],[134.360126,33.73137],[134.360246,33.731339],[134.360514,33.73112],[134.360964,33.730987],[134.361453,33.73101],[134.361858,33.731061],[134.362106,33.731132],[134.362259,33.731102],[134.362401,33.730962],[134.363173,33.729842],[134.363396,33.729462],[134.363713,33.729145],[134.364101,33.728962],[134.364344,33.728833],[134.364476,33.728696],[134.364613,33.728421],[134.364688,33.728037],[134.364756,33.727898],[134.364876,33.727796],[134.365688,33.727346],[134.366413,33.727096],[134.36725,33.726937],[134.367763,33.726779],[134.368413,33.726404],[134.368495,33.726371],[134.3686,33.726404],[134.36895,33.726563],[134.369308,33.726744],[134.3696,33.726788],[134.370137,33.726738],[134.37065,33.726762],[134.371187,33.726921],[134.371812,33.727012],[134.371982,33.727049],[134.372075,33.727104],[134.372312,33.727304],[134.372499,33.727387],[134.372675,33.727421],[134.373212,33.727312],[134.373624,33.727312],[134.373949,33.727379],[134.374237,33.727471],[134.374516,33.727609],[134.374597,33.727608],[134.375162,33.727287],[134.376237,33.726779],[134.376724,33.726462],[134.376911,33.726238],[134.377186,33.726063],[134.377536,33.725971],[134.377999,33.725996],[134.378424,33.725954],[134.379211,33.725754],[134.379474,33.725663],[134.380049,33.725554],[134.381661,33.725379],[134.382036,33.725379],[134.382364,33.725448],[134.382711,33.725554],[134.383498,33.725854],[134.383761,33.725871],[134.383986,33.725854],[134.384548,33.725696],[134.384898,33.725629],[134.385435,33.725588],[134.385865,33.725534],[134.386083,33.725526],[134.38686,33.725571],[134.387607,33.725439],[134.387947,33.725388],[134.388722,33.725396],[134.38886,33.725413],[134.389297,33.725413],[134.38986,33.725329],[134.390322,33.725213],[134.391422,33.725088],[134.392334,33.724929],[134.392747,33.724888],[134.393172,33.724796],[134.393822,33.724571],[134.394396,33.724438],[134.394496,33.724417],[134.394609,33.724463],[134.395196,33.724888],[134.395571,33.725113],[134.395796,33.725338],[134.395946,33.725454],[134.396156,33.725726],[134.396376,33.72586],[134.396546,33.725929],[134.397134,33.726304],[134.397289,33.726462],[134.397384,33.726604],[134.397484,33.726821],[134.397561,33.726933],[134.397696,33.727029],[134.398109,33.727271],[134.398184,33.727384],[134.398226,33.727492],[134.398159,33.728237],[134.398187,33.728412],[134.398259,33.728554],[134.398421,33.728712],[134.398671,33.72887],[134.398958,33.729004],[134.399233,33.72907],[134.399583,33.729095],[134.399769,33.729127],[134.399858,33.729167],[134.399891,33.729241],[134.399771,33.729787],[134.399821,33.730595],[134.399683,33.731045],[134.399734,33.731203],[134.400094,33.731558],[134.400176,33.731672],[134.400246,33.731812],[134.400513,33.73223],[134.401108,33.732645],[134.401268,33.732803],[134.401321,33.732953],[134.401321,33.733786],[134.401362,33.734086],[134.401429,33.734255],[134.401558,33.734461],[134.401758,33.734728],[134.401828,33.734911],[134.401858,33.735111],[134.401808,33.735286],[134.401671,33.735469],[134.401508,33.735894],[134.401508,33.736119],[134.401583,33.736386],[134.401576,33.736714],[134.401508,33.737181],[134.401346,33.737644],[134.40134,33.737726],[134.401371,33.737844],[134.401446,33.738002],[134.401786,33.738541],[134.401846,33.738719],[134.401863,33.738959],[134.401796,33.739394],[134.401746,33.73966],[134.401871,33.739819],[134.402121,33.740019],[134.403433,33.740744],[134.403846,33.741102],[134.404296,33.741368],[134.404621,33.741393],[134.405345,33.741352],[134.40602,33.741402],[134.406158,33.741468],[134.406533,33.74176],[134.406883,33.741693],[134.407133,33.741643],[134.40767,33.741852],[134.40812,33.741893],[134.408695,33.742035],[134.409045,33.742077],[134.409395,33.741943],[134.410045,33.741518],[134.410495,33.741385],[134.410607,33.74141],[134.411907,33.741343],[134.412282,33.741168],[134.412357,33.741185],[134.412469,33.741277],[134.412769,33.74146],[134.412707,33.741393],[134.412957,33.741552],[134.413118,33.741734],[134.413332,33.741977],[134.413407,33.742202],[134.413594,33.742493],[134.413969,33.742918],[134.414482,33.743835],[134.414757,33.744243],[134.414894,33.744335],[134.415082,33.744401],[134.415082,33.744426],[134.415432,33.744785],[134.415782,33.745076],[134.415857,33.745101],[134.416482,33.745476],[134.418194,33.747023],[134.419132,33.747988],[134.419529,33.748796],[134.419621,33.749245],[134.419602,33.749551],[134.419605,33.749822],[134.419672,33.750037],[134.419781,33.750144],[134.420108,33.750448],[134.420414,33.750734],[134.420891,33.751018],[134.421411,33.751195],[134.421802,33.75139],[134.422044,33.751684],[134.422181,33.751992],[134.422281,33.752717],[134.422181,33.753233],[134.422206,33.75335],[134.422131,33.753425],[134.421457,33.754841],[134.421432,33.755183],[134.421457,33.75545],[134.421407,33.755991],[134.420969,33.756991],[134.420969,33.75715],[134.421319,33.757258],[134.421807,33.757483],[134.422207,33.757733],[134.423994,33.759624],[134.424919,33.760307],[134.425831,33.761007],[134.426356,33.761499],[134.426994,33.761841],[134.428518,33.762332],[134.429056,33.762699],[134.429406,33.762857],[134.429781,33.763374],[134.430031,33.763374],[134.431481,33.763057],[134.432218,33.763332],[134.432568,33.763424],[134.433155,33.763624],[134.433568,33.76344],[134.43378,33.763399],[134.434568,33.763465],[134.435542,33.763199],[134.436542,33.762832],[134.436917,33.76274],[134.437404,33.762499],[134.437804,33.762407],[134.438054,33.762499],[134.438292,33.762765],[134.438729,33.762949],[134.439154,33.763199],[134.439642,33.763374],[134.439804,33.763307],[134.440292,33.763265],[134.441704,33.763332],[134.442591,33.76344],[134.443966,33.76374],[134.444666,33.764007],[134.445128,33.764299],[134.445566,33.76439],[134.446678,33.764824],[134.447565,33.765407],[134.447865,33.765457],[134.448515,33.765632],[134.449003,33.765923],[134.449478,33.766107],[134.449615,33.766223],[134.44994,33.766898],[134.45019,33.767282],[134.450003,33.767398],[134.449265,33.767098],[134.449165,33.767123],[134.449003,33.767373],[134.448428,33.767756],[134.447978,33.768206],[134.447653,33.768615],[134.447516,33.769898],[134.447466,33.770056],[134.446816,33.770939],[134.446541,33.771406],[134.446353,33.771931],[134.446416,33.772356],[134.446541,33.772764],[134.447191,33.773914],[134.447953,33.774006],[134.448011,33.774006],[134.448928,33.774006],[134.449928,33.773956],[134.450628,33.774006],[134.451465,33.774322],[134.452165,33.774639],[134.452715,33.775089],[134.452897,33.775125],[134.452927,33.775131],[134.453715,33.775064],[134.454715,33.774814],[134.455489,33.774906],[134.456202,33.775131],[134.456389,33.775156],[134.456814,33.775339],[134.456952,33.775431],[134.457464,33.775589],[134.458252,33.775655],[134.458876,33.775631],[134.459551,33.775364],[134.459651,33.775364],[134.460439,33.775522],[134.460576,33.775655],[134.461001,33.77583],[134.461226,33.77588],[134.461301,33.775972],[134.461926,33.776397],[134.462489,33.776489],[134.463013,33.776672],[134.463201,33.776847],[134.463388,33.777189],[134.463501,33.777914],[134.463626,33.777997],[134.464113,33.77823],[134.464338,33.778363],[134.464576,33.778838],[134.465038,33.77913],[134.465047,33.779138],[134.465122,33.779206],[134.46528,33.77935],[134.465313,33.77938],[134.465601,33.779513],[134.465826,33.779513],[134.466413,33.779447],[134.466951,33.778972],[134.4675,33.778905],[134.468113,33.778947],[134.468925,33.77893],[134.469575,33.778705],[134.469763,33.778588],[134.470013,33.778547],[134.47025,33.778455],[134.4706,33.778472],[134.471313,33.778705],[134.47185,33.77863],[134.472112,33.778389],[134.472687,33.778247],[134.47325,33.778247],[134.4739,33.778114],[134.474312,33.778097],[134.474762,33.777939],[134.474987,33.777939],[134.475328,33.778107],[134.47585,33.778364],[134.476987,33.779338],[134.478449,33.779722],[134.478874,33.779922],[134.479037,33.780038],[134.479387,33.780488],[134.479987,33.781388],[134.480099,33.781747],[134.480222,33.781876],[134.480449,33.782113],[134.480562,33.782471],[134.480386,33.783079],[134.48012,33.784003],[134.479937,33.784638],[134.479887,33.785155],[134.480049,33.786213],[134.480374,33.786779],[134.480699,33.786871],[134.481349,33.787213],[134.481999,33.787754],[134.482261,33.788046],[134.482324,33.788046],[134.483186,33.788429],[134.483586,33.788771],[134.484111,33.789262],[134.484486,33.789712],[134.485111,33.790279],[134.485299,33.790729],[134.485599,33.791045],[134.486161,33.791362],[134.487648,33.792195],[134.488036,33.792737],[134.488523,33.793237],[134.488948,33.793412],[134.489036,33.793504],[134.490111,33.79387],[134.490573,33.794095],[134.490948,33.794203],[134.491573,33.794003],[134.492198,33.79407],[134.492335,33.794137],[134.49276,33.793912],[134.492973,33.793754],[134.494173,33.793487],[134.495035,33.792879],[134.495198,33.792854],[134.49606,33.792945],[134.49671,33.792787],[134.497135,33.792812],[134.497297,33.792762],[134.49756,33.79272],[134.49791,33.792587],[134.498635,33.79247],[134.499372,33.79242],[134.499885,33.792604],[134.500372,33.792829],[134.500786,33.792891],[134.500985,33.79292],[134.502259,33.793229],[134.502859,33.793345],[134.503322,33.79357],[134.503834,33.793862],[134.504259,33.79372],[134.504809,33.793704],[134.505347,33.793837],[134.505372,33.793945],[134.505584,33.794329],[134.505947,33.79467],[134.506647,33.795053],[134.507409,33.795278],[134.507921,33.795345],[134.508159,33.795478],[134.508459,33.79572],[134.508709,33.795678],[134.509346,33.79577],[134.509996,33.795995],[134.510384,33.796078],[134.510759,33.796078],[134.510921,33.796145],[134.511434,33.796437],[134.511734,33.796462],[134.512458,33.796595],[134.512683,33.796662],[134.513433,33.797161],[134.513683,33.797161],[134.514221,33.79727],[134.514983,33.797561],[134.515171,33.797678],[134.516033,33.797736],[134.516495,33.797853],[134.51717,33.798436],[134.517658,33.798778],[134.517956,33.798905],[134.51912,33.799403],[134.520308,33.799561],[134.521232,33.799603],[134.521932,33.799919],[134.522932,33.800436],[134.52337,33.800386],[134.524095,33.800069],[134.524295,33.800028],[134.524807,33.800161],[134.525395,33.800411],[134.525948,33.800586],[134.526107,33.800636],[134.526782,33.801169],[134.527619,33.802344],[134.528032,33.802836],[134.528082,33.803177],[134.528154,33.803829],[134.528009,33.803887],[134.527868,33.803956],[134.527722,33.804036],[134.527387,33.804225],[134.526986,33.804435],[134.526777,33.804538],[134.526568,33.804634],[134.526363,33.804721],[134.526169,33.8048],[134.526126,33.804818],[134.525985,33.804878],[134.525818,33.804957],[134.525666,33.805044],[134.525533,33.805139],[134.525414,33.805244],[134.525302,33.805356],[134.525075,33.805596],[134.524948,33.80572],[134.524811,33.805845],[134.524667,33.805973],[134.52443,33.806181],[134.524256,33.806371],[134.524153,33.806474],[134.524055,33.806565],[134.52396,33.806642],[134.523869,33.806706],[134.52378,33.806758],[134.523688,33.806803],[134.523595,33.80684],[134.523395,33.806905],[134.523195,33.806967],[134.523099,33.807003],[134.523009,33.807044],[134.522923,33.807091],[134.522763,33.807194],[134.52261,33.807306],[134.52245,33.807419],[134.522364,33.807474],[134.522271,33.807527],[134.522171,33.807578],[134.522067,33.807623],[134.521968,33.80766],[134.521878,33.807688],[134.521804,33.807704],[134.521746,33.807707],[134.521696,33.807696],[134.521638,33.80767],[134.521445,33.807572],[134.521284,33.807501],[134.520869,33.807332],[134.520416,33.807156],[134.520006,33.807004],[134.519814,33.806936],[134.519433,33.806804],[134.519033,33.806672],[134.518634,33.80654],[134.518263,33.806415],[134.518044,33.806339],[134.51764,33.806238],[134.517467,33.806198],[134.517251,33.806144],[134.51706,33.8061],[134.516709,33.806025],[134.516343,33.805943],[134.516134,33.805889],[134.515693,33.805776],[134.515485,33.805727],[134.515299,33.805694],[134.515145,33.805677],[134.515016,33.805675],[134.514902,33.805684],[134.514681,33.805715],[134.514557,33.805728],[134.514419,33.805738],[134.514269,33.805745],[134.51393,33.805753],[134.513744,33.805754],[134.513354,33.805752],[134.512966,33.805745],[134.512611,33.805736],[134.512456,33.805739],[134.512322,33.805748],[134.512213,33.805768],[134.512132,33.8058],[134.512122,33.805808],[134.512074,33.805844],[134.512028,33.805897],[134.511946,33.806027],[134.511897,33.806098],[134.511841,33.806175],[134.51175,33.806286],[134.511641,33.806418],[134.511601,33.806479],[134.511502,33.806651],[134.51139,33.806836],[134.511258,33.807031],[134.511106,33.807228],[134.511023,33.807327],[134.510854,33.807522],[134.510688,33.807715],[134.51053,33.807915],[134.510362,33.80814],[134.510273,33.808269],[134.510081,33.808553],[134.509972,33.808714],[134.509896,33.808839],[134.50986,33.808921],[134.509791,33.809101],[134.509714,33.809303],[134.509666,33.809413],[134.509609,33.809531],[134.509474,33.809783],[134.509321,33.810059],[134.509159,33.810352],[134.508998,33.810641],[134.508894,33.810818],[134.508846,33.810901],[134.508771,33.811019],[134.508625,33.811249],[134.50847,33.811494],[134.508391,33.811626],[134.508236,33.811896],[134.508167,33.812031],[134.508103,33.812163],[134.508047,33.812291],[134.507997,33.812414],[134.507954,33.812533],[134.507884,33.81275],[134.507834,33.812944],[134.507817,33.813035],[134.507815,33.813045],[134.507804,33.813124],[134.507795,33.813212],[134.507791,33.813297],[134.50779,33.813379],[134.507795,33.813457],[134.507813,33.813597],[134.507844,33.81373],[134.50788,33.813889],[134.507912,33.814098],[134.507947,33.81434],[134.50799,33.814585],[134.508037,33.814815],[134.508082,33.815027],[134.508099,33.815126],[134.508131,33.815316],[134.508133,33.815332],[134.50816,33.81551],[134.508192,33.81572],[134.508228,33.815933],[134.508271,33.816131],[134.508296,33.816222],[134.508348,33.816392],[134.508404,33.816556],[134.508464,33.816714],[134.508519,33.816865],[134.508567,33.817007],[134.508613,33.817149],[134.508661,33.817301],[134.508712,33.817466],[134.508765,33.817627],[134.508791,33.817656],[134.508887,33.817735],[134.508969,33.817814],[134.509002,33.817854],[134.509029,33.817892],[134.509053,33.817932],[134.509072,33.817972],[134.5091,33.818054],[134.509121,33.818133],[134.509141,33.818201],[134.509153,33.81823],[134.50917,33.818257],[134.509192,33.818282],[134.509198,33.818287],[134.50922,33.818305],[134.509255,33.818327],[134.509298,33.818347],[134.509403,33.818385],[134.509526,33.818418],[134.509658,33.818447],[134.509788,33.818473],[134.509907,33.818496],[134.51002,33.818527],[134.510077,33.818548],[134.510088,33.818552],[134.510134,33.818573],[134.510191,33.818602],[134.510248,33.818634],[134.510301,33.818669],[134.510396,33.818739],[134.510474,33.818813],[134.510508,33.818853],[134.510539,33.818896],[134.510594,33.818987],[134.510643,33.81908],[134.510685,33.819161],[134.510725,33.81923],[134.51077,33.819298],[134.510824,33.819372],[134.510884,33.819449],[134.510949,33.819519],[134.511007,33.819582],[134.51103,33.819614],[134.511047,33.819648],[134.511056,33.819684],[134.511059,33.819723],[134.511056,33.819764],[134.511051,33.819791],[134.511044,33.819816],[134.51095,33.820015],[134.510905,33.820119],[134.510862,33.820217],[134.510822,33.820316],[134.510781,33.820423],[134.510737,33.820544],[134.510688,33.820677],[134.510636,33.820813],[134.510583,33.820942],[134.510529,33.821055],[134.510478,33.821158],[134.510435,33.821256],[134.510403,33.821356],[134.510378,33.821463],[134.510348,33.821585],[134.510305,33.82173],[134.510239,33.821899],[134.510162,33.822085],[134.510131,33.822171],[134.510092,33.822277],[134.510065,33.822371],[134.510043,33.822461],[134.51003,33.822549],[134.510025,33.822633],[134.510027,33.822714],[134.510037,33.822793],[134.510054,33.822869],[134.510079,33.822943],[134.510111,33.823014],[134.510141,33.823067],[134.51015,33.823082],[134.510193,33.823147],[134.510238,33.823208],[134.510327,33.823312],[134.510404,33.823391],[134.510469,33.823448],[134.510537,33.823497],[134.510627,33.823548],[134.510744,33.823613],[134.510871,33.82369],[134.51093,33.823731],[134.510981,33.823775],[134.511022,33.82382],[134.511048,33.823865],[134.511065,33.823911],[134.51109,33.824009],[134.511107,33.824063],[134.511132,33.824121],[134.511174,33.824184],[134.511232,33.824251],[134.511302,33.824322],[134.511304,33.824323],[134.511387,33.824398],[134.511561,33.824552],[134.511643,33.824628],[134.511715,33.824703],[134.511773,33.824774],[134.511819,33.824843],[134.511855,33.82491],[134.511882,33.824977],[134.511904,33.825043],[134.511938,33.825179],[134.511972,33.825321],[134.511994,33.825393],[134.512022,33.825463],[134.512057,33.825531],[134.5121,33.825595],[134.512155,33.825654],[134.512219,33.825707],[134.512292,33.825755],[134.512372,33.825799],[134.512529,33.825884],[134.512601,33.825927],[134.512665,33.825972],[134.512717,33.826019],[134.512759,33.82607],[134.512824,33.826174],[134.512883,33.82627],[134.512916,33.826313],[134.512953,33.826351],[134.512997,33.826385],[134.513095,33.826449],[134.5132,33.826521],[134.513254,33.826565],[134.513306,33.826615],[134.513357,33.826671],[134.513409,33.826734],[134.513461,33.826802],[134.513566,33.826949],[134.513675,33.827106],[134.513787,33.827268],[134.513898,33.827432],[134.514007,33.827595],[134.514108,33.827752],[134.51421,33.82791],[134.51432,33.828076],[134.514445,33.828257],[134.514585,33.828454],[134.514737,33.82866],[134.514819,33.82876],[134.514856,33.8288],[134.514882,33.828823],[134.514914,33.82884],[134.514947,33.82885],[134.514976,33.828853],[134.514986,33.828854],[134.515078,33.828851],[134.51519,33.828843],[134.51532,33.828841],[134.515456,33.828845],[134.515523,33.828849],[134.515654,33.828864],[134.515784,33.828886],[134.515911,33.828911],[134.515972,33.828924],[134.516034,33.828932],[134.516096,33.828937],[134.516155,33.828936],[134.516213,33.828929],[134.516269,33.828917],[134.516322,33.828902],[134.516373,33.828882],[134.516419,33.828857],[134.516533,33.828786],[134.516609,33.828734],[134.51666,33.828684],[134.516715,33.828636],[134.516767,33.828597],[134.516815,33.82857],[134.516862,33.828551],[134.516909,33.828543],[134.516956,33.828543],[134.517002,33.828551],[134.517043,33.828563],[134.517079,33.828579],[134.517112,33.8286],[134.517145,33.82863],[134.517183,33.828667],[134.517292,33.82878],[134.517345,33.828848],[134.517406,33.828927],[134.517471,33.829008],[134.517539,33.82909],[134.517605,33.829174],[134.517672,33.829258],[134.517736,33.829341],[134.517797,33.829417],[134.51783,33.829451],[134.517864,33.82948],[134.5179,33.829505],[134.517939,33.829524],[134.517982,33.829541],[134.518079,33.829568],[134.518134,33.829579],[134.518254,33.829601],[134.51832,33.829611],[134.518392,33.829612],[134.51856,33.829605],[134.518709,33.8296],[134.518783,33.829602],[134.518855,33.829607],[134.518924,33.829614],[134.519056,33.829637],[134.519173,33.829666],[134.519276,33.829698],[134.519321,33.829713],[134.519353,33.829726],[134.519362,33.82973],[134.519399,33.829749],[134.51943,33.829775],[134.519456,33.829809],[134.519475,33.829851],[134.519491,33.829902],[134.519512,33.830015],[134.519535,33.83013],[134.51955,33.830186],[134.519568,33.830241],[134.51959,33.830297],[134.519618,33.830353],[134.519686,33.83047],[134.519765,33.830588],[134.519838,33.830705],[134.519907,33.830817],[134.519979,33.830926],[134.520057,33.831033],[134.520093,33.831088],[134.520124,33.831143],[134.520146,33.831202],[134.520155,33.831261],[134.520155,33.831321],[134.520141,33.831433],[134.520127,33.831517],[134.520126,33.831575],[134.520134,33.831625],[134.520149,33.831679],[134.520163,33.831703],[134.520185,33.831722],[134.520218,33.831735],[134.52026,33.831736],[134.520311,33.831732],[134.520429,33.831717],[134.520492,33.831714],[134.520552,33.831717],[134.520611,33.831727],[134.520667,33.831741],[134.520773,33.831777],[134.520866,33.831813],[134.520907,33.831834],[134.520944,33.831858],[134.520978,33.831886],[134.521007,33.831919],[134.521059,33.831998],[134.521089,33.832041],[134.521124,33.832086],[134.521166,33.83213],[134.521213,33.832174],[134.52131,33.832254],[134.521391,33.832321],[134.521424,33.832348],[134.521457,33.83237],[134.521493,33.832389],[134.521535,33.832404],[134.521585,33.832414],[134.521704,33.832433],[134.521768,33.832446],[134.521833,33.832465],[134.521895,33.832492],[134.521954,33.832525],[134.522009,33.832562],[134.52206,33.8326],[134.522149,33.832676],[134.522187,33.832712],[134.522254,33.832788],[134.522285,33.832832],[134.522345,33.832934],[134.522417,33.833052],[134.522461,33.833114],[134.52251,33.833175],[134.522565,33.833235],[134.522574,33.833244],[134.522684,33.833353],[134.522802,33.833461],[134.522917,33.83356],[134.523036,33.833664],[134.52316,33.833779],[134.523282,33.833885],[134.523339,33.833929],[134.523434,33.83399],[134.523464,33.83401],[134.523474,33.834017],[134.523509,33.834049],[134.523542,33.834092],[134.523571,33.834148],[134.523597,33.834217],[134.523654,33.834388],[134.52372,33.834591],[134.523803,33.834806],[134.52385,33.834912],[134.523901,33.835012],[134.523954,33.835105],[134.524008,33.835191],[134.524118,33.83535],[134.524217,33.835499],[134.524261,33.835573],[134.524299,33.835646],[134.524334,33.83572],[134.524363,33.835794],[134.524406,33.835948],[134.524445,33.836119],[134.524494,33.836321],[134.524557,33.83654],[134.524597,33.836677],[134.524617,33.836746],[134.524664,33.836912],[134.524704,33.837045],[134.524749,33.83716],[134.524797,33.837267],[134.524838,33.837366],[134.524851,33.837411],[134.524866,33.8375],[134.524868,33.837583],[134.52486,33.837659],[134.524848,33.837733],[134.524814,33.837949],[134.524793,33.838067],[134.524777,33.83818],[134.524777,33.838237],[134.524782,33.838294],[134.524793,33.83835],[134.524808,33.838406],[134.524847,33.83851],[134.524887,33.838595],[134.524929,33.83867],[134.524974,33.838747],[134.52502,33.838829],[134.525058,33.83892],[134.525083,33.839018],[134.525103,33.839129],[134.525129,33.839255],[134.525159,33.839391],[134.525183,33.839522],[134.525192,33.839634],[134.52519,33.839742],[134.525181,33.839865],[134.525172,33.840007],[134.525165,33.840154],[134.525162,33.840294],[134.525158,33.840431],[134.525156,33.8405],[134.525142,33.840638],[134.525124,33.840777],[134.525105,33.840913],[134.525088,33.841049],[134.525074,33.841196],[134.525064,33.841359],[134.525059,33.841525],[134.525064,33.841679],[134.525073,33.841812],[134.525081,33.841933],[134.525079,33.842045],[134.525072,33.842149],[134.525065,33.842239],[134.525064,33.842248],[134.525065,33.842294],[134.52507,33.842337],[134.525084,33.842375],[134.525109,33.842409],[134.525126,33.842422],[134.525147,33.842437],[134.525193,33.842461],[134.525248,33.842483],[134.525263,33.842488],[134.525364,33.842525],[134.525473,33.842573],[134.525588,33.842629],[134.525718,33.842687],[134.525864,33.842748],[134.526012,33.842806],[134.526146,33.84286],[134.526273,33.842909],[134.526399,33.842952],[134.526525,33.84299],[134.526583,33.843007],[134.526648,33.843026],[134.526761,33.843062],[134.526879,33.843092],[134.526945,33.843101],[134.527016,33.843105],[134.527094,33.843106],[134.527261,33.843102],[134.527436,33.843101],[134.527524,33.843103],[134.527687,33.843115],[134.527761,33.843124],[134.527826,33.843135],[134.527885,33.843149],[134.527941,33.843168],[134.527995,33.843191],[134.528051,33.843223],[134.528108,33.843259],[134.528223,33.843344],[134.528321,33.843424],[134.528389,33.843482],[134.528418,33.843504],[134.528451,33.843523],[134.528492,33.843539],[134.528598,33.843567],[134.528656,33.843583],[134.52871,33.843601],[134.528741,33.843618],[134.528755,33.843625],[134.528787,33.843654],[134.528809,33.843689],[134.528826,33.843728],[134.528855,33.843819],[134.528874,33.843868],[134.528924,33.843974],[134.528977,33.844085],[134.529022,33.844196],[134.529061,33.844312],[134.5291,33.844435],[134.529142,33.844563],[134.52918,33.844691],[134.529225,33.844843],[134.529235,33.844882],[134.529276,33.84503],[134.529308,33.845139],[134.529331,33.845187],[134.529356,33.845235],[134.529385,33.845279],[134.529419,33.845322],[134.529496,33.845404],[134.529587,33.845487],[134.529685,33.845571],[134.52978,33.845652],[134.529864,33.845729],[134.529949,33.84581],[134.530044,33.845898],[134.530145,33.845997],[134.530192,33.846051],[134.530234,33.846106],[134.530267,33.84616],[134.530293,33.846216],[134.530327,33.846321],[134.530419,33.846703],[134.530448,33.846811],[134.530458,33.846876],[134.53046,33.846911],[134.530464,33.846928],[134.530492,33.846968],[134.530544,33.847015],[134.530579,33.847036],[134.530617,33.847052],[134.530657,33.847061],[134.530746,33.847072],[134.530793,33.847079],[134.53084,33.847091],[134.530887,33.84711],[134.530934,33.847137],[134.530981,33.847168],[134.531072,33.847245],[134.531159,33.847329],[134.531237,33.847409],[134.531302,33.847476],[134.531357,33.847531],[134.531415,33.847585],[134.531482,33.847649],[134.53156,33.847715],[134.531601,33.847745],[134.531642,33.847771],[134.531725,33.847815],[134.531812,33.847853],[134.531903,33.847889],[134.532,33.84792],[134.532052,33.847933],[134.532158,33.847951],[134.532264,33.847969],[134.532316,33.84798],[134.532365,33.847994],[134.532451,33.848028],[134.532484,33.848046],[134.532511,33.848064],[134.532528,33.848079],[134.532547,33.848108],[134.532566,33.848145],[134.5326,33.848196],[134.53265,33.848247],[134.532678,33.848269],[134.532707,33.848285],[134.532738,33.848296],[134.532808,33.848312],[134.532899,33.848326],[134.533007,33.848341],[134.533116,33.848355],[134.533216,33.848362],[134.533264,33.848367],[134.533311,33.848375],[134.533358,33.848387],[134.533405,33.848403],[134.533454,33.848425],[134.533551,33.848478],[134.533645,33.848539],[134.533733,33.8486],[134.533807,33.848658],[134.533861,33.848707],[134.533913,33.848751],[134.53398,33.848795],[134.534063,33.848842],[134.534143,33.848892],[134.534207,33.848946],[134.534233,33.848975],[134.53428,33.849042],[134.534327,33.849117],[134.534384,33.849199],[134.534419,33.84924],[134.534458,33.84928],[134.534549,33.849356],[134.534651,33.849442],[134.534765,33.849526],[134.534827,33.849564],[134.534886,33.849591],[134.53494,33.84961],[134.534991,33.849615],[134.535036,33.849608],[134.535078,33.849589],[134.535163,33.849544],[134.535211,33.849529],[134.535264,33.849526],[134.535322,33.849531],[134.535444,33.849557],[134.535559,33.849578],[134.535612,33.849582],[134.535665,33.849583],[134.535717,33.849577],[134.535772,33.849567],[134.535889,33.849537],[134.535949,33.849524],[134.53601,33.849519],[134.536068,33.849525],[134.536123,33.849546],[134.536177,33.849578],[134.536281,33.849651],[134.536335,33.849682],[134.536388,33.849704],[134.536444,33.849716],[134.536504,33.84972],[134.536567,33.849718],[134.536635,33.84971],[134.536783,33.84969],[134.536859,33.849684],[134.536932,33.849689],[134.537002,33.849707],[134.537063,33.849742],[134.537118,33.849791],[134.537169,33.84985],[134.53726,33.849983],[134.537346,33.850118],[134.537438,33.850252],[134.537547,33.850394],[134.537609,33.850469],[134.537745,33.850623],[134.537895,33.850779],[134.538052,33.850932],[134.538203,33.851069],[134.538293,33.851145],[134.538341,33.851185],[134.538473,33.851288],[134.538608,33.851392],[134.538746,33.8515],[134.538872,33.851608],[134.538977,33.85171],[134.539023,33.85176],[134.539112,33.851857],[134.539195,33.851953],[134.539233,33.852003],[134.539264,33.852055],[134.539287,33.852111],[134.5393,33.852169],[134.539313,33.852284],[134.539322,33.852333],[134.539341,33.852373],[134.53937,33.852399],[134.539373,33.8524],[134.539412,33.852413],[134.53946,33.852418],[134.539514,33.852416],[134.539573,33.85241],[134.539631,33.8524],[134.539746,33.852381],[134.539803,33.852375],[134.53986,33.852373],[134.539914,33.852375],[134.539968,33.852382],[134.540024,33.852392],[134.540152,33.852413],[134.540303,33.852426],[134.540383,33.852429],[134.540463,33.852428],[134.540541,33.852425],[134.540678,33.852407],[134.540797,33.85238],[134.54085,33.852365],[134.540949,33.852329],[134.541043,33.852285],[134.541088,33.852259],[134.541132,33.852228],[134.541233,33.852159],[134.541295,33.852126],[134.541369,33.852095],[134.541456,33.852067],[134.541553,33.852044],[134.541753,33.852008],[134.541923,33.851982],[134.542055,33.851961],[134.542178,33.851939],[134.542316,33.851909],[134.542391,33.851897],[134.542469,33.85189],[134.542551,33.851892],[134.542633,33.851902],[134.542714,33.85192],[134.542863,33.851954],[134.542899,33.85196],[134.542925,33.851964],[134.542973,33.851963],[134.543012,33.851952],[134.543043,33.851937],[134.543069,33.851918],[134.543111,33.851879],[134.543135,33.851864],[134.543165,33.85185],[134.543204,33.85184],[134.543257,33.851833],[134.543324,33.851829],[134.543488,33.851832],[134.543574,33.851839],[134.543656,33.85185],[134.543728,33.851864],[134.543793,33.851881],[134.543853,33.8519],[134.543966,33.851944],[134.544081,33.851991],[134.544143,33.852013],[134.544276,33.85205],[134.544348,33.852062],[134.544421,33.852069],[134.544495,33.852073],[134.544567,33.852073],[134.544636,33.852067],[134.544699,33.852058],[134.544758,33.852045],[134.544815,33.852028],[134.544932,33.85199],[134.545055,33.851945],[134.545115,33.85192],[134.545173,33.851891],[134.545226,33.851859],[134.54527,33.851821],[134.54535,33.851749],[134.545393,33.851722],[134.545442,33.851706],[134.545501,33.851703],[134.545565,33.851712],[134.545626,33.851728],[134.545629,33.851729],[134.545688,33.851753],[134.545739,33.851779],[134.545775,33.851806],[134.545801,33.851834],[134.545818,33.851863],[134.545832,33.851894],[134.545857,33.851964],[134.545876,33.852002],[134.5459,33.852041],[134.545932,33.852076],[134.545975,33.85211],[134.546027,33.852139],[134.546087,33.852163],[134.546212,33.852206],[134.546324,33.852245],[134.546417,33.852282],[134.546464,33.852297],[134.546517,33.852309],[134.546577,33.852316],[134.546712,33.852328],[134.546782,33.85234],[134.546853,33.852361],[134.546919,33.85239],[134.546982,33.852427],[134.54704,33.852471],[134.547093,33.852516],[134.547139,33.852562],[134.547177,33.852605],[134.547244,33.852683],[134.54728,33.852719],[134.54732,33.852753],[134.547367,33.852785],[134.547478,33.852844],[134.547536,33.852869],[134.547644,33.852908],[134.547752,33.852941],[134.547889,33.852985],[134.548074,33.853048],[134.548269,33.853119],[134.548425,33.853178],[134.548536,33.853224],[134.548586,33.853249],[134.548698,33.853313],[134.548826,33.853395],[134.54895,33.85348],[134.549051,33.853551],[134.549146,33.853611],[134.549197,33.853639],[134.549311,33.853688],[134.549434,33.853728],[134.549549,33.853756],[134.549602,33.853764],[134.549654,33.853769],[134.549708,33.853768],[134.549764,33.853763],[134.549886,33.853739],[134.550012,33.853713],[134.550072,33.853706],[134.550127,33.853705],[134.550179,33.853712],[134.550228,33.853728],[134.550274,33.853753],[134.550317,33.853791],[134.550358,33.853839],[134.550398,33.853896],[134.550433,33.853955],[134.550463,33.854014],[134.550506,33.854112],[134.550532,33.854184],[134.550555,33.85425],[134.550588,33.854329],[134.550633,33.854417],[134.55069,33.85451],[134.550723,33.854554],[134.55076,33.854596],[134.550799,33.854633],[134.550843,33.854666],[134.550889,33.854692],[134.550939,33.854714],[134.551037,33.854757],[134.551085,33.854773],[134.551168,33.854788],[134.551253,33.854794],[134.551338,33.854794],[134.551421,33.854783],[134.551504,33.854766],[134.55166,33.854721],[134.551796,33.85468],[134.551924,33.854645],[134.552071,33.854606],[134.552253,33.854551],[134.552435,33.854495],[134.55257,33.854452],[134.552648,33.854425],[134.552708,33.854397],[134.552778,33.854357],[134.552825,33.854336],[134.552882,33.854321],[134.552953,33.85431],[134.553036,33.854307],[134.553131,33.85431],[134.553335,33.854331],[134.553529,33.854357],[134.55371,33.854378],[134.553802,33.854385],[134.553898,33.854389],[134.554109,33.854385],[134.554331,33.854378],[134.554548,33.854378],[134.554748,33.854388],[134.554927,33.854405],[134.555085,33.85442],[134.555159,33.854425],[134.555231,33.854424],[134.555303,33.854419],[134.555375,33.854406],[134.555448,33.854388],[134.55552,33.854367],[134.555662,33.854318],[134.555796,33.854272],[134.555924,33.854226],[134.555986,33.854202],[134.556098,33.854153],[134.556147,33.854136],[134.556189,33.854127],[134.556223,33.854133],[134.556233,33.854142],[134.556246,33.854154],[134.556261,33.854189],[134.556269,33.854234],[134.556273,33.854286],[134.556272,33.854398],[134.556273,33.854509],[134.556276,33.854563],[134.556284,33.854616],[134.556295,33.854666],[134.556313,33.854717],[134.556336,33.854765],[134.556366,33.854814],[134.556401,33.854863],[134.556484,33.854961],[134.556523,33.855011],[134.556557,33.855061],[134.556583,33.855112],[134.556601,33.855154],[134.556678,33.855406],[134.556666,33.855496],[134.556668,33.856183],[134.556128,33.857614],[134.556065,33.858114],[134.555628,33.860497],[134.555806,33.862303],[134.555903,33.862721],[134.55624,33.863163],[134.556515,33.863988],[134.556365,33.864605],[134.556214,33.865035],[134.555528,33.865713],[134.555728,33.866896],[134.555815,33.867979],[134.55619,33.868521],[134.556215,33.868854],[134.556065,33.869146],[134.555415,33.869412],[134.554528,33.869362],[134.55234,33.869096],[134.55179,33.868896],[134.551478,33.868746],[134.550628,33.868562],[134.548903,33.868462],[134.548278,33.868679],[134.547616,33.869062],[134.547153,33.868996],[134.546479,33.868712],[134.546366,33.868729],[134.546354,33.868746],[134.545766,33.868862],[134.544841,33.869162],[134.543454,33.869879],[134.542804,33.870429],[134.542029,33.871412],[134.541841,33.871628],[134.540556,33.873363],[134.540257,33.873496],[134.540076,33.873508],[134.538184,33.873407],[134.537882,33.873421],[134.537592,33.87362],[134.536617,33.87352],[134.535904,33.873545],[134.534355,33.873487],[134.533792,33.87352],[134.533617,33.873487],[134.533555,33.873245],[134.533442,33.87307],[134.533055,33.873162],[134.532567,33.873145],[134.53173,33.873187],[134.531117,33.873087],[134.530743,33.873245],[134.530243,33.873603],[134.52958,33.873737],[134.528518,33.873445],[134.527482,33.873067],[134.527468,33.873062],[134.52744,33.873049],[134.527168,33.872928],[134.526443,33.87277],[134.525443,33.872837],[134.525256,33.87287],[134.524356,33.87292],[134.523356,33.872887],[134.522531,33.872987],[134.522043,33.87327],[134.521481,33.873911],[134.520969,33.874236],[134.520706,33.874253],[134.519995,33.874138],[134.519931,33.874128],[134.519494,33.87377],[134.519427,33.873524]]]},"properties":{"code":"36368","name":"那賀町"}}]}