{"type":"FeatureCollection","features":[{"type":"Feature","geometry":{"type":"Polygon","coordinates":[[[134.535809,34.134272],[134.535743,34.134246],[134.535445,34.134177],[134.534993,34.134083],[134.534622,34.133997],[134.534378,34.133941],[134.533965,34.133833],[134.533965,34.133832],[134.533933,34.133824],[134.533759,34.13379],[134.533578,34.133761],[134.533458,34.133744],[134.533457,34.133744],[134.533355,34.13373],[134.533263,34.133722],[134.533182,34.133722],[134.533123,34.133494],[134.532722,34.133755],[134.532684,34.133751],[134.532438,34.133727],[134.532375,34.133716],[134.532376,34.133715],[134.532335,34.133708],[134.532319,34.133705],[134.532313,34.133704],[134.532309,34.133703],[134.532308,34.133703],[134.532299,34.133701],[134.532033,34.133656],[134.53182,34.133608],[134.531773,34.133581],[134.531718,34.133549],[134.531669,34.13349],[134.531648,34.133466],[134.531598,34.13337],[134.531532,34.133209],[134.531461,34.133015],[134.531442,34.132961],[134.531437,34.132948],[134.531418,34.132894],[134.5314,34.132843],[134.531364,34.132739],[134.531358,34.132723],[134.531348,34.132699],[134.531308,34.132608],[134.531277,34.132538],[134.531265,34.132511],[134.531259,34.132498],[134.531223,34.132431],[134.531206,34.132398],[134.531205,34.132397],[134.531142,34.132281],[134.531138,34.132274],[134.530911,34.131999],[134.530866,34.131961],[134.530809,34.131928],[134.530735,34.131884],[134.530652,34.131838],[134.530497,34.131714],[134.530445,34.131663],[134.53033,34.131536],[134.53021,34.131408],[134.530142,34.131315],[134.530036,34.131108],[134.529966,34.130927],[134.529925,34.130867],[134.529889,34.130813],[134.529859,34.130776],[134.529681,34.130556],[134.529348,34.130249],[134.529135,34.130065],[134.529111,34.130049],[134.529004,34.129975],[134.529206,34.129761],[134.529866,34.129152],[134.529403,34.128714],[134.529233,34.128531],[134.528758,34.128029],[134.528482,34.127429],[134.528414,34.127283],[134.528358,34.127159],[134.528092,34.126693],[134.52793,34.126394],[134.527709,34.12622],[134.527676,34.126157],[134.527775,34.126031],[134.527968,34.12584],[134.528072,34.125743],[134.528319,34.125519],[134.528423,34.125261],[134.528463,34.125163],[134.528534,34.1249],[134.528617,34.124845],[134.528728,34.12486],[134.528943,34.12492],[134.529148,34.124672],[134.529413,34.124727],[134.529426,34.12473],[134.52958,34.124762],[134.530224,34.124845],[134.532134,34.125275],[134.53452,34.124488],[134.535763,34.121521],[134.536026,34.120894],[134.53609,34.120741],[134.536193,34.120743],[134.535982,34.119636],[134.535999,34.119448],[134.5361,34.118922],[134.536105,34.118779],[134.536029,34.118352],[134.535991,34.118081],[134.536004,34.117925],[134.536159,34.117718],[134.536209,34.117629],[134.536309,34.117413],[134.536382,34.117244],[134.536449,34.117099],[134.536507,34.116928],[134.536595,34.116729],[134.536752,34.116502],[134.536974,34.116145],[134.537372,34.115766],[134.537667,34.115551],[134.537806,34.115462],[134.537911,34.115368],[134.538833,34.114639],[134.538471,34.114066],[134.538186,34.113692],[134.538185,34.113691],[134.54037,34.112913],[134.541131,34.112642],[134.541843,34.112444],[134.542042,34.112405],[134.542668,34.112284],[134.54275,34.112262],[134.542904,34.11224],[134.543124,34.112192],[134.543662,34.112075],[134.54379,34.112047],[134.543946,34.112029],[134.543978,34.112025],[134.544301,34.111986],[134.544634,34.111924],[134.544824,34.111885],[134.545026,34.111837],[134.545338,34.11176],[134.545525,34.111711],[134.5456,34.111691],[134.545765,34.111648],[134.545966,34.111596],[134.546473,34.111452],[134.54661,34.111413],[134.547372,34.111193],[134.547565,34.111145],[134.548094,34.111013],[134.548158,34.110996],[134.54832,34.11097],[134.548528,34.110926],[134.5487,34.110911],[134.548742,34.110907],[134.548864,34.110902],[134.548931,34.110912],[134.549129,34.110942],[134.549291,34.11094],[134.549545,34.110913],[134.549723,34.110882],[134.549855,34.110864],[134.549898,34.110857],[134.550007,34.110841],[134.5502,34.110801],[134.550631,34.110718],[134.551037,34.110651],[134.551204,34.110624],[134.551544,34.110536],[134.551788,34.110492],[134.55195,34.110457],[134.552209,34.110421],[134.552366,34.110403],[134.552427,34.110394],[134.552454,34.110378],[134.55246,34.110374],[134.552445,34.109741],[134.552421,34.108641],[134.553678,34.10862],[134.555365,34.108618],[134.556258,34.108596],[134.556604,34.108606],[134.556199,34.109396],[134.556181,34.10965],[134.556222,34.109669],[134.556289,34.1097],[134.556459,34.109783],[134.556617,34.10986],[134.556692,34.109896],[134.557051,34.11007],[134.557359,34.110238],[134.557653,34.110385],[134.558022,34.110565],[134.55844,34.112278],[134.55839,34.112993],[134.558292,34.112993],[134.558163,34.112977],[134.557999,34.112948],[134.557795,34.112919],[134.557555,34.112877],[134.55739,34.112849],[134.557272,34.112832],[134.557181,34.113024],[134.557102,34.113164],[134.557041,34.113262],[134.556817,34.113702],[134.55666,34.114013],[134.5564,34.114457],[134.556261,34.114706],[134.556256,34.114715],[134.555204,34.116167],[134.555469,34.11674],[134.555535,34.116848],[134.556098,34.117865],[134.556104,34.117875],[134.556195,34.118015],[134.556934,34.119048],[134.557213,34.119434],[134.55764,34.120054],[134.557461,34.121439],[134.557451,34.121513],[134.557377,34.12204],[134.558224,34.122074],[134.559413,34.121451],[134.559702,34.1213],[134.560149,34.120933],[134.560345,34.120845],[134.561649,34.121698],[134.561683,34.121717],[134.562242,34.122054],[134.562197,34.122434],[134.562171,34.12266],[134.562129,34.122743],[134.561996,34.12288],[134.561905,34.123041],[134.561903,34.123438],[134.561901,34.123835],[134.561785,34.124008],[134.561761,34.124044],[134.562054,34.124119],[134.562958,34.124274],[134.564588,34.124538],[134.56546,34.124673],[134.565533,34.124702],[134.565628,34.12474],[134.566032,34.125074],[134.566422,34.125462],[134.566461,34.125502],[134.566697,34.125719],[134.566932,34.125914],[134.567624,34.126637],[134.568012,34.127007],[134.568624,34.127591],[134.568692,34.127655],[134.569966,34.128631],[134.570004,34.12866],[134.57001,34.128665],[134.570881,34.129215],[134.571654,34.129539],[134.572797,34.129837],[134.573657,34.130009],[134.573813,34.130032],[134.575804,34.130324],[134.575726,34.130901],[134.57401,34.130949],[134.573962,34.130949],[134.573223,34.130955],[134.572455,34.130982],[134.572227,34.130971],[134.571734,34.130994],[134.570488,34.131005],[134.569967,34.130998],[134.569927,34.130997],[134.569889,34.130997],[134.568603,34.130996],[134.568559,34.131013],[134.568521,34.131029],[134.568416,34.131093],[134.56814,34.13126],[134.567921,34.131314],[134.567398,34.131443],[134.567238,34.131471],[134.567085,34.131498],[134.56697,34.131509],[134.566936,34.131512],[134.56678,34.131559],[134.566577,34.131619],[134.566302,34.131767],[134.566254,34.131785],[134.565701,34.13207],[134.565529,34.132149],[134.565435,34.132176],[134.565266,34.132373],[134.56508,34.132609],[134.564926,34.132767],[134.564883,34.132989],[134.564881,34.132995],[134.564844,34.13315],[134.564808,34.133321],[134.564714,34.13374],[134.564975,34.133907],[134.565225,34.134139],[134.565415,34.134326],[134.565677,34.134519],[134.565811,34.134636],[134.565993,34.134751],[134.565804,34.134968],[134.567253,34.136493],[134.567467,34.136786],[134.567483,34.136807],[134.567774,34.137176],[134.568298,34.137183],[134.568631,34.137174],[134.568931,34.137172],[134.56892,34.137377],[134.568925,34.137661],[134.568898,34.138231],[134.568897,34.138245],[134.568917,34.138208],[134.568901,34.138519],[134.56888,34.139087],[134.568895,34.139095],[134.568872,34.139385],[134.568871,34.139919],[134.568889,34.140093],[134.567652,34.140469],[134.567409,34.140527],[134.567267,34.140562],[134.566721,34.140746],[134.565753,34.14105],[134.564535,34.141458],[134.563352,34.141878],[134.562692,34.142134],[134.562173,34.142305],[134.561605,34.142503],[134.561423,34.142564],[134.561197,34.142641],[134.561043,34.142689],[134.560993,34.14274],[134.560956,34.14282],[134.561,34.142995],[134.560729,34.143098],[134.559938,34.143389],[134.559576,34.143534],[134.559489,34.143361],[134.559476,34.143279],[134.559415,34.1432],[134.559307,34.143074],[134.559074,34.142878],[134.558799,34.142656],[134.558481,34.14239],[134.55794,34.14197],[134.557705,34.141734],[134.557401,34.14144],[134.557147,34.141179],[134.556783,34.140807],[134.556751,34.140759],[134.556737,34.140733],[134.556679,34.140629],[134.556672,34.140524],[134.5567,34.140379],[134.556762,34.140186],[134.555627,34.140527],[134.555564,34.140389],[134.555111,34.140506],[134.555226,34.140708],[134.554385,34.140924],[134.554164,34.140941],[134.553684,34.141088],[134.553199,34.141203],[134.552808,34.141264],[134.552754,34.141273],[134.552416,34.141318],[134.552159,34.141335],[134.551884,34.141342],[134.551924,34.140772],[134.551916,34.140739],[134.551632,34.140751],[134.551318,34.140765],[134.551297,34.140766],[134.551263,34.140768],[134.551234,34.140769],[134.551214,34.14077],[134.551193,34.140771],[134.551169,34.140772],[134.551148,34.140773],[134.551109,34.140774],[134.551043,34.140777],[134.550947,34.140782],[134.550768,34.14079],[134.550677,34.140794],[134.550264,34.140812],[134.550251,34.140702],[134.550087,34.140688],[134.550083,34.140687],[134.55008,34.140687],[134.549944,34.140677],[134.549927,34.140676],[134.549926,34.140676],[134.549834,34.140671],[134.549812,34.140669],[134.549806,34.140669],[134.549805,34.140669],[134.549803,34.140669],[134.549798,34.140669],[134.549685,34.140663],[134.549669,34.140662],[134.549663,34.140662],[134.549659,34.140662],[134.549627,34.140661],[134.549607,34.14066],[134.549585,34.140659],[134.549561,34.140659],[134.549445,34.140658],[134.54914,34.140669],[134.548465,34.140711],[134.548207,34.140718],[134.547581,34.140716],[134.54759,34.140031],[134.547234,34.140021],[134.54693,34.139981],[134.546636,34.139929],[134.546172,34.139835],[134.546087,34.139832],[134.545415,34.139938],[134.545031,34.139935],[134.544462,34.13993],[134.543627,34.139922],[134.542309,34.139823],[134.542124,34.139806],[134.542031,34.139818],[134.540866,34.139972],[134.540741,34.139781],[134.540164,34.139102],[134.539803,34.138706],[134.539722,34.138616],[134.539267,34.138107],[134.539177,34.138005],[134.539137,34.13792],[134.539106,34.137831],[134.539065,34.137647],[134.53904,34.137474],[134.53893,34.137296],[134.538492,34.13657],[134.538349,34.136366],[134.538237,34.136238],[134.538149,34.136023],[134.538087,34.135892],[134.537952,34.135646],[134.537928,34.135613],[134.537845,34.1355],[134.537737,34.135323],[134.537452,34.135086],[134.537204,34.134894],[134.537064,34.134814],[134.536325,34.134336],[134.536212,34.134448],[134.536159,34.134425],[134.536123,34.134409],[134.53612,34.134408],[134.536085,34.134392],[134.535946,34.13433],[134.535919,34.134318],[134.535918,34.134318],[134.53591,34.134315],[134.5359,34.13431],[134.535876,34.1343],[134.535872,34.134298],[134.535863,34.134295],[134.535834,34.134282],[134.53583,34.134281],[134.535825,34.134279],[134.535824,34.134278],[134.535809,34.134272]]]},"properties":{"code":"36402","name":"北島町"}}]}