{"type":"FeatureCollection","features":[{"type":"Feature","geometry":{"type":"Polygon","coordinates":[[[134.428923,34.129245],[134.428998,34.129067],[134.429058,34.128928],[134.429112,34.128802],[134.429149,34.128674],[134.42931,34.128349],[134.429349,34.128164],[134.429373,34.127874],[134.429416,34.127771],[134.429451,34.127694],[134.429518,34.127498],[134.42955,34.12738],[134.429624,34.127091],[134.429631,34.127085],[134.429761,34.126995],[134.430223,34.126637],[134.430429,34.126492],[134.431066,34.126103],[134.431329,34.125974],[134.431755,34.12581],[134.432004,34.12572],[134.432374,34.125574],[134.432523,34.125526],[134.432912,34.125505],[134.432873,34.125297],[134.432762,34.124496],[134.432912,34.124443],[134.433332,34.124306],[134.433486,34.124252],[134.433441,34.124039],[134.433445,34.123769],[134.433416,34.123568],[134.433475,34.123552],[134.433536,34.123536],[134.433712,34.123499],[134.434138,34.123449],[134.434461,34.123434],[134.434881,34.123402],[134.435047,34.123403],[134.435662,34.123458],[134.435678,34.12346],[134.436184,34.123483],[134.436352,34.123487],[134.436345,34.123249],[134.436327,34.123142],[134.43624,34.122963],[134.436231,34.122903],[134.436247,34.122826],[134.436349,34.122705],[134.43638,34.122651],[134.436489,34.122378],[134.436574,34.122389],[134.436744,34.122376],[134.436854,34.122352],[134.437044,34.122253],[134.437121,34.122182],[134.437155,34.122055],[134.437161,34.121975],[134.43714,34.121919],[134.437089,34.121879],[134.43695,34.1218],[134.436912,34.121761],[134.436912,34.121611],[134.43699,34.121374],[134.437007,34.12124],[134.437004,34.121093],[134.436978,34.12088],[134.436943,34.120757],[134.436908,34.120683],[134.436897,34.120635],[134.43688,34.120506],[134.436893,34.120445],[134.436919,34.120419],[134.436955,34.120403],[134.437089,34.120391],[134.437204,34.120377],[134.437377,34.120339],[134.437499,34.1203],[134.437792,34.120177],[134.437965,34.120128],[134.438368,34.120057],[134.438534,34.120009],[134.438602,34.119978],[134.438751,34.119857],[134.438798,34.119824],[134.438855,34.119804],[134.43907,34.119811],[134.439284,34.11981],[134.439532,34.119841],[134.43977,34.11986],[134.439864,34.119857],[134.439935,34.119837],[134.439979,34.119802],[134.44001,34.119753],[134.44007,34.119707],[134.440127,34.119687],[134.440225,34.119682],[134.440297,34.119672],[134.440438,34.119651],[134.440527,34.119654],[134.440634,34.119681],[134.44093,34.119826],[134.441005,34.119899],[134.441045,34.119896],[134.441135,34.11933],[134.441144,34.119243],[134.441195,34.11871],[134.441255,34.118712],[134.441287,34.118356],[134.441189,34.118341],[134.44122,34.118013],[134.441315,34.117222],[134.441359,34.116806],[134.441391,34.116271],[134.441424,34.11565],[134.441395,34.115647],[134.441254,34.115635],[134.441156,34.115627],[134.441162,34.115567],[134.441175,34.115446],[134.441188,34.115317],[134.441195,34.115253],[134.441197,34.115234],[134.441206,34.115175],[134.44122,34.115083],[134.441232,34.115004],[134.441247,34.114903],[134.44126,34.114817],[134.441269,34.11476],[134.44128,34.114685],[134.441288,34.114628],[134.441304,34.114528],[134.44132,34.114419],[134.441336,34.114313],[134.441347,34.114237],[134.441356,34.114182],[134.441514,34.114204],[134.441646,34.114219],[134.442039,34.11427],[134.442679,34.114337],[134.443286,34.114413],[134.443842,34.114506],[134.444112,34.114537],[134.444612,34.114578],[134.444999,34.114611],[134.445103,34.114623],[134.445232,34.114638],[134.446509,34.114765],[134.447121,34.114866],[134.447543,34.11493],[134.447802,34.114967],[134.447973,34.114994],[134.448038,34.115004],[134.448319,34.115045],[134.450845,34.115494],[134.452852,34.115755],[134.454791,34.11609],[134.455591,34.116228],[134.455643,34.116237],[134.455987,34.116297],[134.456716,34.116407],[134.457089,34.116463],[134.457139,34.116471],[134.457454,34.116518],[134.457727,34.116561],[134.457786,34.11657],[134.459322,34.116849],[134.461634,34.117233],[134.46413,34.117709],[134.466044,34.118036],[134.466577,34.118123],[134.469847,34.118658],[134.47118,34.118808],[134.471162,34.119011],[134.471088,34.120098],[134.471074,34.120298],[134.471072,34.120327],[134.470786,34.122556],[134.470761,34.122887],[134.470749,34.123039],[134.470493,34.126392],[134.470403,34.128504],[134.470391,34.129201],[134.470375,34.129503],[134.472945,34.129825],[134.473983,34.129956],[134.474034,34.129964],[134.475965,34.130268],[134.47661,34.130518],[134.476593,34.130679],[134.477112,34.130708],[134.477455,34.132562],[134.477599,34.133227],[134.477774,34.134402],[134.47792,34.135541],[134.477924,34.135573],[134.478181,34.137229],[134.477196,34.137556],[134.477202,34.137595],[134.477342,34.138564],[134.477375,34.138897],[134.47744,34.139565],[134.477478,34.139649],[134.477834,34.139998],[134.47831,34.140552],[134.478689,34.140869],[134.479248,34.141283],[134.480447,34.142066],[134.481319,34.142592],[134.481873,34.142916],[134.48195,34.142848],[134.482239,34.14303],[134.481963,34.143446],[134.482036,34.143494],[134.482137,34.143558],[134.482216,34.143621],[134.482329,34.143712],[134.482544,34.143928],[134.482908,34.144259],[134.483203,34.144602],[134.483263,34.144673],[134.483482,34.144887],[134.483668,34.145069],[134.48367,34.145071],[134.48369,34.145092],[134.483881,34.145296],[134.484022,34.145436],[134.484137,34.145557],[134.48425,34.145675],[134.484458,34.145937],[134.484769,34.14632],[134.484939,34.146562],[134.485273,34.146942],[134.485593,34.14727],[134.48591,34.147485],[134.486216,34.147669],[134.486491,34.147817],[134.486527,34.147832],[134.486855,34.147969],[134.486897,34.147983],[134.486963,34.147999],[134.486614,34.148375],[134.486513,34.1484],[134.486498,34.148403],[134.486439,34.148401],[134.48636,34.148336],[134.486278,34.148323],[134.486184,34.148332],[134.486152,34.148335],[134.486109,34.148338],[134.48607,34.148346],[134.486026,34.148365],[134.485982,34.148391],[134.485981,34.148392],[134.485979,34.148393],[134.485973,34.148397],[134.485969,34.148399],[134.485959,34.148405],[134.485938,34.148418],[134.48591,34.148436],[134.485878,34.14845],[134.485852,34.148457],[134.485811,34.148459],[134.485732,34.148459],[134.485697,34.148466],[134.485662,34.148485],[134.485651,34.148502],[134.485648,34.148533],[134.485655,34.148602],[134.485667,34.148688],[134.485682,34.148748],[134.485699,34.148795],[134.485701,34.148801],[134.485703,34.148807],[134.485711,34.148828],[134.485715,34.148838],[134.485717,34.148842],[134.485734,34.148882],[134.485735,34.148884],[134.48575,34.148926],[134.485756,34.148958],[134.485755,34.148985],[134.48574,34.149023],[134.485735,34.14903],[134.485724,34.149044],[134.485719,34.149051],[134.485709,34.149063],[134.485708,34.149064],[134.485705,34.149069],[134.485697,34.149078],[134.48569,34.149087],[134.48567,34.149114],[134.485664,34.149123],[134.485642,34.149165],[134.485623,34.149224],[134.485613,34.149262],[134.485615,34.149281],[134.485636,34.149325],[134.485689,34.149398],[134.485689,34.149399],[134.485735,34.149459],[134.485762,34.149489],[134.485778,34.149506],[134.485791,34.149512],[134.485816,34.149523],[134.485844,34.149525],[134.485848,34.149539],[134.485847,34.149564],[134.485844,34.149641],[134.485837,34.149814],[134.485835,34.149864],[134.485834,34.14989],[134.485833,34.149911],[134.485831,34.149945],[134.485831,34.149961],[134.485831,34.149962],[134.48583,34.149979],[134.485826,34.150087],[134.485823,34.150147],[134.485827,34.150383],[134.485844,34.150419],[134.485899,34.150408],[134.485948,34.150422],[134.486057,34.150547],[134.486109,34.150619],[134.486176,34.150713],[134.486247,34.150811],[134.486318,34.1509],[134.486308,34.150931],[134.486151,34.151067],[134.485999,34.151208],[134.485855,34.151367],[134.485783,34.151467],[134.485735,34.151552],[134.485708,34.151621],[134.485685,34.151687],[134.485674,34.15173],[134.485705,34.151824],[134.48579,34.151898],[134.486061,34.152018],[134.486201,34.152146],[134.486323,34.152337],[134.48651,34.152571],[134.48656,34.15271],[134.486609,34.153194],[134.486595,34.153341],[134.486522,34.153442],[134.486039,34.15383],[134.485995,34.153913],[134.485996,34.154028],[134.486084,34.154321],[134.486111,34.154496],[134.486035,34.154634],[134.485877,34.154722],[134.485722,34.154759],[134.485311,34.154729],[134.485191,34.154768],[134.48506,34.154839],[134.484681,34.154989],[134.484516,34.155108],[134.484431,34.155281],[134.484326,34.155516],[134.484213,34.155878],[134.484212,34.156153],[134.484245,34.15639],[134.484337,34.156591],[134.484519,34.157465],[134.484286,34.158032],[134.484097,34.158174],[134.483971,34.158269],[134.483852,34.15837],[134.483873,34.158624],[134.483951,34.159096],[134.483908,34.15951],[134.484086,34.16044],[134.484203,34.161423],[134.484423,34.162334],[134.484398,34.162722],[134.484513,34.163093],[134.484504,34.163362],[134.484393,34.163572],[134.48428,34.163677],[134.483514,34.164351],[134.483429,34.164519],[134.483409,34.164818],[134.483352,34.165082],[134.483122,34.165388],[134.483034,34.165563],[134.48306,34.165762],[134.483158,34.165936],[134.48348,34.166322],[134.483471,34.166581],[134.483353,34.166752],[134.482777,34.167239],[134.482647,34.1674],[134.482445,34.167798],[134.482092,34.168127],[134.481939,34.168362],[134.481893,34.168542],[134.481866,34.169073],[134.481701,34.169333],[134.481386,34.169555],[134.480786,34.169781],[134.480536,34.169943],[134.480353,34.170198],[134.479855,34.17149],[134.479827,34.171665],[134.479858,34.171779],[134.480726,34.172619],[134.480481,34.172983],[134.480359,34.173307],[134.480338,34.173582],[134.48038,34.173868],[134.480472,34.174475],[134.480288,34.175865],[134.47865,34.178548],[134.478472,34.178709],[134.478281,34.17879],[134.477569,34.17894],[134.4771,34.179106],[134.476873,34.179127],[134.47656,34.17902],[134.474507,34.17789],[134.474219,34.177843],[134.473851,34.177903],[134.472778,34.17847],[134.472454,34.178502],[134.472252,34.178421],[134.469901,34.177354],[134.469338,34.177226],[134.467799,34.177171],[134.467498,34.177084],[134.467161,34.176917],[134.467028,34.176878],[134.466824,34.17688],[134.466369,34.176914],[134.466159,34.17688],[134.465253,34.176419],[134.465,34.176311],[134.464682,34.176309],[134.464585,34.176339],[134.464348,34.176411],[134.46292,34.177449],[134.462634,34.177611],[134.46236,34.177802],[134.461341,34.178906],[134.460639,34.17944],[134.460152,34.179803],[134.459514,34.180141],[134.459324,34.180312],[134.459278,34.180502],[134.459278,34.181085],[134.459221,34.181305],[134.458973,34.181645],[134.458533,34.182027],[134.458309,34.182348],[134.457693,34.183594],[134.45741,34.184044],[134.457197,34.184285],[134.456363,34.1848],[134.456014,34.185176],[134.455543,34.186017],[134.455009,34.187052],[134.454892,34.187362],[134.454944,34.187671],[134.455086,34.187881],[134.455256,34.188221],[134.455315,34.188381],[134.455473,34.189256],[134.455773,34.190131],[134.456167,34.190805],[134.456238,34.190952],[134.456233,34.191076],[134.456139,34.191211],[134.455886,34.191372],[134.455498,34.191618],[134.455314,34.191749],[134.455201,34.191874],[134.455011,34.192256],[134.454806,34.192455],[134.454693,34.192503],[134.454511,34.192547],[134.454108,34.192503],[134.453696,34.192449],[134.453291,34.192435],[134.452278,34.192467],[134.451947,34.192445],[134.451088,34.192327],[134.450756,34.192367],[134.450447,34.192422],[134.450241,34.192476],[134.450033,34.192375],[134.449659,34.192184],[134.449484,34.192135],[134.44934,34.192111],[134.449107,34.192158],[134.448406,34.192525],[134.448212,34.192613],[134.448022,34.192527],[134.447194,34.192237],[134.446929,34.192195],[134.446434,34.192136],[134.446008,34.19211],[134.445182,34.192004],[134.444704,34.191975],[134.444197,34.191956],[134.443975,34.191978],[134.442222,34.192109],[134.44182,34.192092],[134.441219,34.191957],[134.439384,34.191221],[134.439096,34.191208],[134.439049,34.190938],[134.43891,34.19082],[134.438882,34.190783],[134.438851,34.190468],[134.438834,34.190413],[134.438744,34.190317],[134.438524,34.190106],[134.438479,34.190042],[134.43846,34.189781],[134.438431,34.189708],[134.438231,34.189536],[134.438021,34.189297],[134.437849,34.189207],[134.4378,34.189193],[134.437137,34.189107],[134.436661,34.18901],[134.436595,34.188983],[134.436477,34.1888],[134.436321,34.188637],[134.436138,34.188552],[134.43604,34.188493],[134.435804,34.188294],[134.43547,34.188045],[134.435242,34.187885],[134.435097,34.187791],[134.435022,34.187757],[134.434776,34.187681],[134.434482,34.187617],[134.43445,34.187584],[134.434201,34.187331],[134.434132,34.187308],[134.434028,34.187303],[134.433729,34.187326],[134.433458,34.187331],[134.433288,34.18726],[134.432888,34.186997],[134.4325,34.18673],[134.432138,34.186588],[134.431838,34.186522],[134.4311,34.185355],[134.430825,34.185155],[134.430413,34.184947],[134.430213,34.184772],[134.429913,34.183622],[134.429313,34.183397],[134.429176,34.183147],[134.429151,34.18283],[134.429226,34.182447],[134.429338,34.181705],[134.429451,34.181431],[134.429638,34.181164],[134.429678,34.181081],[134.429826,34.18078],[134.429938,34.180422],[134.430101,34.180131],[134.430326,34.179289],[134.430576,34.178956],[134.43085,34.178889],[134.43225,34.178822],[134.432738,34.178772],[134.4331,34.178797],[134.433213,34.178839],[134.43345,34.178864],[134.43365,34.178681],[134.433863,34.178072],[134.4337,34.177148],[134.433788,34.176364],[134.433838,34.176223],[134.433925,34.175681],[134.434138,34.175098],[134.434138,34.174764],[134.434063,34.174489],[134.433813,34.174314],[134.433475,34.174156],[134.4331,34.173589],[134.432788,34.173231],[134.432738,34.172939],[134.432925,34.172664],[134.433225,34.172415],[134.433475,34.172106],[134.433775,34.170956],[134.433938,34.169965],[134.43385,34.16969],[134.43385,34.169581],[134.433675,34.16929],[134.433438,34.169065],[134.433366,34.168942],[134.433383,34.168721],[134.433448,34.168357],[134.433366,34.168221],[134.433113,34.167989],[134.432701,34.167768],[134.432095,34.167573],[134.431952,34.167598],[134.43177,34.167774],[134.431681,34.167908],[134.43159,34.167975],[134.431466,34.167992],[134.431063,34.167924],[134.430917,34.16789],[134.430776,34.167631],[134.430672,34.167397],[134.430465,34.167267],[134.430126,34.16725],[134.429709,34.167305],[134.429204,34.167429],[134.428792,34.167525],[134.42817,34.167469],[134.42796,34.167395],[134.427829,34.167249],[134.42763,34.167073],[134.427324,34.166749],[134.42715,34.166437],[134.427074,34.166192],[134.426559,34.166025],[134.425841,34.165796],[134.425494,34.165748],[134.425441,34.165682],[134.42533,34.165544],[134.425136,34.165331],[134.424822,34.164841],[134.424557,34.164423],[134.424132,34.163976],[134.423669,34.163537],[134.423293,34.163056],[134.422641,34.162367],[134.422334,34.161965],[134.422164,34.161568],[134.422104,34.161184],[134.4221,34.160827],[134.421948,34.160521],[134.421691,34.160318],[134.421289,34.160079],[134.42101,34.15985],[134.420945,34.159718],[134.420883,34.15959],[134.420696,34.159465],[134.42031,34.159347],[134.419986,34.159191],[134.419912,34.158889],[134.419937,34.158522],[134.419817,34.158168],[134.419557,34.157763],[134.419472,34.157669],[134.419379,34.157628],[134.419019,34.157578],[134.418553,34.157604],[134.418274,34.157575],[134.417997,34.15754],[134.417544,34.157435],[134.417261,34.157402],[134.41697,34.157376],[134.41634,34.157352],[134.416279,34.157341],[134.415779,34.15718],[134.415351,34.157004],[134.415176,34.156996],[134.414901,34.156981],[134.414686,34.156948],[134.414326,34.156845],[134.414127,34.156839],[134.413576,34.156888],[134.413134,34.156904],[134.412893,34.156951],[134.413539,34.156611],[134.413673,34.156513],[134.414026,34.156182],[134.414274,34.155948],[134.414864,34.155518],[134.415021,34.155395],[134.415489,34.155083],[134.415705,34.154808],[134.415812,34.154555],[134.415964,34.154164],[134.416089,34.154037],[134.416802,34.15359],[134.416911,34.153484],[134.417127,34.153195],[134.417192,34.152977],[134.417428,34.152502],[134.417669,34.152213],[134.417936,34.151902],[134.41817,34.151648],[134.418303,34.151486],[134.418356,34.151278],[134.418337,34.151089],[134.418292,34.150823],[134.41819,34.150575],[134.41799,34.1499],[134.418052,34.149517],[134.418458,34.149223],[134.418511,34.149159],[134.418585,34.149018],[134.418913,34.148723],[134.419303,34.148497],[134.419438,34.148308],[134.419608,34.148089],[134.419771,34.147934],[134.419825,34.147813],[134.419842,34.147476],[134.419973,34.147186],[134.420163,34.146933],[134.420434,34.14675],[134.4206,34.146674],[134.420807,34.14658],[134.420908,34.146551],[134.421246,34.146512],[134.42139,34.146465],[134.421528,34.14641],[134.421729,34.146335],[134.422047,34.146222],[134.422623,34.146118],[134.422982,34.145948],[134.423221,34.145809],[134.423237,34.1458],[134.423522,34.145431],[134.424177,34.145193],[134.424439,34.145197],[134.424839,34.145194],[134.425141,34.14519],[134.425358,34.145152],[134.425624,34.144995],[134.426227,34.144542],[134.426615,34.144216],[134.427037,34.143798],[134.427307,34.143491],[134.427341,34.143448],[134.427479,34.143278],[134.427488,34.143097],[134.427369,34.142971],[134.427256,34.142863],[134.427033,34.14238],[134.427004,34.142215],[134.426968,34.142015],[134.426957,34.141935],[134.426935,34.141801],[134.426966,34.141701],[134.427084,34.141514],[134.427111,34.141269],[134.42711,34.141179],[134.427021,34.14102],[134.426853,34.140768],[134.426771,34.140569],[134.426674,34.140424],[134.426089,34.139414],[134.425814,34.138843],[134.425696,34.138552],[134.425699,34.13847],[134.425757,34.138406],[134.425922,34.138275],[134.426143,34.138077],[134.426214,34.137975],[134.426251,34.137869],[134.426262,34.137837],[134.426247,34.137712],[134.426202,34.137545],[134.426114,34.137426],[134.425988,34.137295],[134.425954,34.13719],[134.42598,34.137049],[134.426063,34.136884],[134.426165,34.136778],[134.426331,34.136663],[134.426426,34.136613],[134.426564,34.136576],[134.426746,34.136558],[134.427004,34.136566],[134.4273,34.136615],[134.427443,34.13666],[134.427711,34.136207],[134.427814,34.135974],[134.42781,34.135535],[134.427803,34.135297],[134.427789,34.134827],[134.427883,34.13425],[134.427903,34.134134],[134.42799,34.13362],[134.428188,34.133232],[134.428245,34.133121],[134.42832,34.133115],[134.428446,34.133093],[134.428446,34.133054],[134.428447,34.133021],[134.428448,34.132938],[134.428442,34.132474],[134.428458,34.131682],[134.428424,34.131213],[134.428439,34.130895],[134.428421,34.130858],[134.428397,34.130807],[134.428456,34.130353],[134.42851,34.130046],[134.428514,34.130021],[134.428645,34.129775],[134.428777,34.129534],[134.428923,34.129245]]]},"properties":{"code":"36404","name":"板野町"}}]}