{"type":"FeatureCollection","features":[{"type":"Feature","geometry":{"type":"Polygon","coordinates":[[[134.568889,34.140093],[134.568871,34.139919],[134.568872,34.139385],[134.568895,34.139095],[134.56888,34.139087],[134.568901,34.138519],[134.568917,34.138208],[134.568897,34.138245],[134.568898,34.138231],[134.568925,34.137661],[134.56892,34.137377],[134.568931,34.137172],[134.568631,34.137174],[134.568298,34.137183],[134.567774,34.137176],[134.567483,34.136807],[134.567467,34.136786],[134.567253,34.136493],[134.565804,34.134968],[134.565993,34.134751],[134.565811,34.134636],[134.565677,34.134519],[134.565415,34.134326],[134.565225,34.134139],[134.564975,34.133907],[134.564714,34.13374],[134.564808,34.133321],[134.564844,34.13315],[134.564881,34.132995],[134.564883,34.132989],[134.564926,34.132767],[134.56508,34.132609],[134.565266,34.132373],[134.565435,34.132176],[134.565529,34.132149],[134.565701,34.13207],[134.566254,34.131785],[134.566302,34.131767],[134.566577,34.131619],[134.56678,34.131559],[134.566936,34.131512],[134.56697,34.131509],[134.567085,34.131498],[134.567238,34.131471],[134.567398,34.131443],[134.567921,34.131314],[134.56814,34.13126],[134.568416,34.131093],[134.568521,34.131029],[134.568559,34.131013],[134.568603,34.130996],[134.569889,34.130997],[134.569927,34.130997],[134.569967,34.130998],[134.570488,34.131005],[134.571734,34.130994],[134.572227,34.130971],[134.572455,34.130982],[134.573223,34.130955],[134.573962,34.130949],[134.57401,34.130949],[134.575726,34.130901],[134.575804,34.130324],[134.576055,34.130309],[134.576629,34.130361],[134.576725,34.130349],[134.576779,34.130342],[134.57695,34.13032],[134.577317,34.130317],[134.578814,34.130062],[134.578858,34.130054],[134.57989,34.129888],[134.580303,34.129822],[134.580336,34.129816],[134.580754,34.1297],[134.580982,34.129637],[134.581866,34.129393],[134.582325,34.129187],[134.582956,34.128906],[134.583882,34.128365],[134.584524,34.12795],[134.585221,34.127436],[134.585792,34.126975],[134.586125,34.126706],[134.586912,34.12608],[134.586963,34.126039],[134.586972,34.126032],[134.58803,34.125147],[134.588147,34.125056],[134.588912,34.124462],[134.589859,34.123497],[134.590566,34.122722],[134.591219,34.121911],[134.591806,34.121029],[134.592513,34.120028],[134.593187,34.119046],[134.593222,34.118995],[134.594035,34.117803],[134.594829,34.116695],[134.59559,34.115668],[134.596014,34.114965],[134.596339,34.113965],[134.596762,34.112821],[134.597131,34.111551],[134.597226,34.111169],[134.597304,34.110858],[134.597509,34.110011],[134.597824,34.109111],[134.598433,34.111291],[134.598432,34.111231],[134.598437,34.111205],[134.59845,34.111174],[134.598433,34.111167],[134.598467,34.111079],[134.59859,34.110905],[134.59871,34.110748],[134.598899,34.110508],[134.599018,34.110371],[134.599274,34.110185],[134.599308,34.109936],[134.599339,34.109693],[134.599359,34.109518],[134.599395,34.109409],[134.599554,34.109189],[134.599636,34.109075],[134.599651,34.108874],[134.599662,34.108809],[134.599667,34.108801],[134.599715,34.108719],[134.600084,34.108236],[134.600206,34.108049],[134.600391,34.107798],[134.60047,34.10769],[134.600781,34.107387],[134.601012,34.107295],[134.601004,34.107279],[134.601072,34.107257],[134.601127,34.107253],[134.601209,34.107276],[134.601326,34.107345],[134.601357,34.107357],[134.601379,34.10734],[134.60141,34.107329],[134.601472,34.107315],[134.601552,34.107306],[134.601956,34.106916],[134.602825,34.106232],[134.602914,34.106166],[134.602999,34.106102],[134.603123,34.106011],[134.603232,34.105939],[134.603338,34.105855],[134.603464,34.105756],[134.603594,34.105655],[134.603729,34.105554],[134.603853,34.105467],[134.603958,34.105397],[134.60405,34.105342],[134.604138,34.105295],[134.604225,34.105252],[134.604305,34.105214],[134.604376,34.105179],[134.604455,34.105145],[134.604558,34.10511],[134.604689,34.105071],[134.604835,34.105031],[134.605371,34.104877],[134.606121,34.104656],[134.607322,34.104317],[134.608415,34.104012],[134.60843,34.104009],[134.609432,34.103969],[134.609434,34.104002],[134.608436,34.104041],[134.608414,34.104046],[134.607335,34.104348],[134.606134,34.104686],[134.605385,34.104907],[134.604847,34.105062],[134.604702,34.105101],[134.604572,34.105139],[134.604473,34.105173],[134.604396,34.105207],[134.604325,34.105242],[134.604245,34.10528],[134.604158,34.105322],[134.604073,34.105368],[134.603982,34.105423],[134.603878,34.105492],[134.603754,34.105579],[134.603621,34.105679],[134.60349,34.10578],[134.603365,34.105879],[134.603261,34.105962],[134.603197,34.106023],[134.603068,34.106129],[134.602991,34.106188],[134.602915,34.106247],[134.602868,34.106281],[134.602166,34.106842],[134.602088,34.106914],[134.60208,34.106921],[134.601546,34.107454],[134.601528,34.107466],[134.60159,34.107524],[134.601619,34.107498],[134.601623,34.107494],[134.601627,34.107492],[134.601631,34.107492],[134.601635,34.107494],[134.601638,34.107498],[134.601646,34.107509],[134.601669,34.107534],[134.601745,34.107637],[134.601793,34.10774],[134.601804,34.107872],[134.601816,34.10792],[134.601843,34.108021],[134.601865,34.108062],[134.601902,34.108134],[134.601931,34.108184],[134.601958,34.10824],[134.601968,34.108261],[134.601991,34.108307],[134.602005,34.108347],[134.602018,34.10849],[134.602032,34.108711],[134.602077,34.108922],[134.602126,34.10905],[134.602223,34.109214],[134.602344,34.109417],[134.602402,34.109535],[134.602423,34.109587],[134.602454,34.109662],[134.602516,34.10985],[134.602564,34.110039],[134.602605,34.110215],[134.602605,34.110258],[134.602609,34.110447],[134.602597,34.11055],[134.602584,34.110648],[134.602579,34.110728],[134.602578,34.110821],[134.602577,34.110879],[134.602576,34.110923],[134.602585,34.110962],[134.602607,34.111058],[134.602636,34.111184],[134.60268,34.111373],[134.602713,34.111579],[134.602775,34.111982],[134.602822,34.112284],[134.602855,34.112345],[134.602908,34.112413],[134.60295,34.112446],[134.603011,34.112475],[134.603077,34.112485],[134.603148,34.11249],[134.60319,34.112495],[134.603241,34.112505],[134.603259,34.112513],[134.603267,34.112535],[134.603255,34.112566],[134.603231,34.112595],[134.603202,34.112606],[134.60306,34.112634],[134.603036,34.112641],[134.602998,34.112656],[134.602956,34.112695],[134.60291,34.112736],[134.602992,34.113414],[134.603017,34.113649],[134.603061,34.113714],[134.603101,34.113755],[134.603191,34.113818],[134.60325,34.113857],[134.603255,34.113907],[134.603174,34.114004],[134.603063,34.114055],[134.603025,34.1141],[134.603029,34.114153],[134.603084,34.114719],[134.603164,34.115304],[134.603224,34.115673],[134.603327,34.116252],[134.603344,34.116353],[134.603451,34.116434],[134.603539,34.116532],[134.603626,34.116741],[134.603661,34.11683],[134.603633,34.116899],[134.603656,34.116965],[134.603692,34.11701],[134.603739,34.117072],[134.60377,34.117122],[134.603836,34.117165],[134.603885,34.117213],[134.603911,34.117261],[134.604001,34.117323],[134.604029,34.117345],[134.604073,34.11739],[134.604133,34.117467],[134.604148,34.117511],[134.604167,34.117564],[134.60419,34.117599],[134.604202,34.117649],[134.604216,34.117725],[134.60422,34.11776],[134.604225,34.117795],[134.604231,34.117855],[134.604212,34.117896],[134.604187,34.117951],[134.604185,34.117976],[134.604196,34.118025],[134.604205,34.118043],[134.60423,34.118079],[134.604256,34.118133],[134.604264,34.118162],[134.604264,34.118211],[134.604258,34.118243],[134.604262,34.118261],[134.604298,34.118326],[134.604353,34.11842],[134.604364,34.11844],[134.604392,34.118492],[134.604417,34.118542],[134.604432,34.118579],[134.604429,34.118602],[134.604425,34.118616],[134.604437,34.118667],[134.604451,34.118692],[134.604487,34.11873],[134.604518,34.118754],[134.604534,34.118774],[134.604538,34.118799],[134.604527,34.118833],[134.604512,34.11889],[134.604514,34.11899],[134.604529,34.119089],[134.604571,34.119246],[134.604598,34.119408],[134.604611,34.119532],[134.604619,34.119638],[134.60462,34.119639],[134.604621,34.11964],[134.604624,34.119647],[134.604638,34.119677],[134.604648,34.119706],[134.604665,34.119764],[134.604684,34.119821],[134.604707,34.119873],[134.604737,34.119918],[134.60477,34.119958],[134.604804,34.119994],[134.604841,34.120025],[134.604879,34.120054],[134.604916,34.12008],[134.604954,34.120103],[134.604988,34.120124],[134.605011,34.120148],[134.605017,34.120177],[134.605014,34.120206],[134.60501,34.120233],[134.605009,34.120259],[134.605013,34.120287],[134.605017,34.120323],[134.605022,34.120367],[134.605029,34.120413],[134.605032,34.120459],[134.605034,34.120508],[134.605029,34.120559],[134.605024,34.120606],[134.605021,34.120646],[134.605022,34.120682],[134.60503,34.120725],[134.605044,34.12078],[134.605063,34.120841],[134.605088,34.120894],[134.605116,34.120938],[134.605133,34.120955],[134.605171,34.120984],[134.605216,34.121006],[134.605254,34.121025],[134.605258,34.121026],[134.605289,34.121051],[134.605315,34.121081],[134.605337,34.121115],[134.605355,34.121153],[134.605365,34.12119],[134.605365,34.121207],[134.605363,34.12124],[134.605366,34.121268],[134.605377,34.121291],[134.605391,34.121312],[134.605399,34.121334],[134.605399,34.12136],[134.605392,34.121391],[134.605382,34.121426],[134.60537,34.121467],[134.605353,34.12151],[134.605335,34.121554],[134.605315,34.121599],[134.605309,34.121588],[134.605266,34.121509],[134.605194,34.121528],[134.605237,34.121607],[134.605282,34.121689],[134.605375,34.12186],[134.605454,34.122018],[134.605489,34.122098],[134.605533,34.122192],[134.605585,34.122304],[134.605619,34.122373],[134.605642,34.122252],[134.6057,34.122286],[134.605704,34.122284],[134.605744,34.122312],[134.605788,34.122364],[134.605818,34.122438],[134.605833,34.122491],[134.605837,34.122509],[134.605847,34.122601],[134.605853,34.122659],[134.605866,34.122701],[134.605916,34.122783],[134.605957,34.122825],[134.60601,34.12287],[134.606131,34.122973],[134.606187,34.123026],[134.6065,34.123678],[134.607649,34.125283],[134.607671,34.125275],[134.608461,34.12497],[134.6089,34.124743],[134.608915,34.124738],[134.6099,34.124286],[134.6103,34.1241],[134.610647,34.123943],[134.610967,34.123825],[134.611271,34.123752],[134.611569,34.123713],[134.611806,34.123704],[134.61204,34.123721],[134.612283,34.123765],[134.612238,34.123927],[134.612219,34.124067],[134.612073,34.124553],[134.612159,34.124575],[134.612155,34.124678],[134.612162,34.124827],[134.612458,34.125925],[134.612469,34.125965],[134.612513,34.126103],[134.612581,34.126237],[134.61264,34.12631],[134.612776,34.126419],[134.612894,34.126467],[134.613148,34.126542],[134.613148,34.126632],[134.613263,34.126618],[134.61328,34.126558],[134.613588,34.126619],[134.613889,34.126677],[134.614126,34.126675],[134.614595,34.126596],[134.614636,34.126668],[134.615394,34.126516],[134.615534,34.126495],[134.615704,34.126467],[134.615989,34.127549],[134.615991,34.12755],[134.615911,34.127592],[134.616114,34.128341],[134.61613,34.128519],[134.616154,34.128607],[134.616201,34.128782],[134.621397,34.127795],[134.621492,34.127752],[134.621558,34.127767],[134.623252,34.128151],[134.623257,34.128156],[134.624026,34.131049],[134.622744,34.132005],[134.620499,34.132408],[134.621814,34.137206],[134.61752,34.138011],[134.617622,34.138148],[134.617741,34.138298],[134.617924,34.138544],[134.618053,34.13872],[134.618146,34.138844],[134.61822,34.138938],[134.618371,34.139131],[134.618416,34.139192],[134.618451,34.139242],[134.618482,34.139287],[134.618522,34.139342],[134.618578,34.139415],[134.618642,34.139496],[134.618698,34.139566],[134.618742,34.139624],[134.618781,34.139678],[134.61882,34.139742],[134.618868,34.139822],[134.618934,34.139925],[134.61901,34.140042],[134.619083,34.140151],[134.619137,34.140232],[134.619183,34.140302],[134.619233,34.140379],[134.619289,34.140469],[134.619329,34.14053],[134.619348,34.140557],[134.619404,34.140634],[134.619462,34.140703],[134.619525,34.140769],[134.619593,34.140836],[134.619628,34.140869],[134.619719,34.140959],[134.619887,34.141335],[134.621077,34.141589],[134.622268,34.14184],[134.622282,34.141906],[134.62225,34.141979],[134.62065,34.14162],[134.619624,34.141395],[134.619548,34.141379],[134.619094,34.141282],[134.61892,34.141244],[134.618753,34.141207],[134.618599,34.141173],[134.618458,34.141142],[134.618332,34.141117],[134.618224,34.141094],[134.61814,34.141075],[134.618083,34.141058],[134.618057,34.141047],[134.617902,34.14111],[134.616195,34.141814],[134.614323,34.142693],[134.614278,34.142714],[134.614237,34.142741],[134.614197,34.142774],[134.614157,34.142822],[134.614146,34.142837],[134.609807,34.144412],[134.605613,34.146064],[134.605037,34.14629],[134.603075,34.147061],[134.602101,34.147456],[134.601499,34.147701],[134.601494,34.147702],[134.601477,34.147689],[134.600517,34.146847],[134.599933,34.146335],[134.599495,34.14671],[134.598687,34.147402],[134.598581,34.147492],[134.597588,34.146629],[134.597119,34.14658],[134.596804,34.146547],[134.596417,34.146508],[134.596122,34.146461],[134.595841,34.146384],[134.595602,34.146301],[134.594915,34.146128],[134.594616,34.146053],[134.594067,34.145914],[134.593779,34.145801],[134.593546,34.145709],[134.593473,34.145679],[134.59338,34.145641],[134.592288,34.145206],[134.591784,34.145008],[134.591537,34.144907],[134.591403,34.145381],[134.59132,34.145677],[134.591062,34.146567],[134.591001,34.146581],[134.589264,34.146974],[134.588838,34.147069],[134.588388,34.147169],[134.588303,34.147188],[134.587607,34.147361],[134.587186,34.147442],[134.587051,34.147477],[134.586917,34.147534],[134.586755,34.147603],[134.586506,34.147727],[134.586235,34.147892],[134.586151,34.147973],[134.586105,34.148017],[134.585579,34.14862],[134.585402,34.148816],[134.585273,34.149041],[134.585235,34.149172],[134.58515,34.149474],[134.585122,34.149693],[134.58512,34.149706],[134.585092,34.149973],[134.58499,34.15039],[134.584823,34.15074],[134.58462,34.151248],[134.584326,34.151816],[134.584072,34.152149],[134.583857,34.152456],[134.583649,34.152685],[134.583228,34.152903],[134.582762,34.153122],[134.582406,34.15326],[134.581904,34.153376],[134.581824,34.153416],[134.581662,34.153498],[134.581383,34.153598],[134.580942,34.153734],[134.580228,34.154018],[134.579603,34.154334],[134.57957,34.154345],[134.57956,34.154349],[134.57877,34.154719],[134.57821,34.154968],[134.578042,34.15504],[134.577552,34.155154],[134.577008,34.155178],[134.576912,34.155161],[134.576771,34.155122],[134.576195,34.154969],[134.575393,34.154571],[134.574493,34.154299],[134.573819,34.154183],[134.573506,34.154172],[134.573479,34.154171],[134.573114,34.154192],[134.572761,34.15426],[134.572171,34.154407],[134.571784,34.154454],[134.571418,34.154526],[134.571205,34.154618],[134.570827,34.15481],[134.570442,34.154945],[134.570148,34.155034],[134.569915,34.155042],[134.569727,34.155034],[134.569512,34.154972],[134.569382,34.154881],[134.569327,34.154661],[134.569318,34.154228],[134.569286,34.154074],[134.569268,34.153856],[134.569254,34.153694],[134.569275,34.153426],[134.569494,34.15293],[134.5696,34.152563],[134.569658,34.152329],[134.569778,34.152066],[134.570059,34.151567],[134.570148,34.151253],[134.570174,34.150971],[134.570178,34.150577],[134.570147,34.150182],[134.570104,34.149974],[134.569978,34.14979],[134.569972,34.149782],[134.569793,34.149603],[134.569446,34.149366],[134.569297,34.149306],[134.569036,34.149303],[134.5688,34.149323],[134.568617,34.149342],[134.568327,34.149434],[134.567562,34.149738],[134.567106,34.149902],[134.566218,34.150272],[134.566148,34.150302],[134.566078,34.150333],[134.565628,34.150541],[134.565352,34.150662],[134.565049,34.150806],[134.564581,34.151055],[134.564056,34.151429],[134.564094,34.151339],[134.564123,34.151277],[134.564125,34.15119],[134.564109,34.151078],[134.564071,34.150946],[134.563982,34.150785],[134.563632,34.149911],[134.563552,34.149802],[134.561833,34.14747],[134.56142,34.14686],[134.561034,34.146213],[134.560787,34.145837],[134.560544,34.145458],[134.56041,34.145222],[134.560093,34.144554],[134.560056,34.144512],[134.559955,34.144298],[134.55979,34.143962],[134.559576,34.143534],[134.559938,34.143389],[134.560729,34.143098],[134.561,34.142995],[134.560956,34.14282],[134.560993,34.14274],[134.561043,34.142689],[134.561197,34.142641],[134.561423,34.142564],[134.561605,34.142503],[134.562173,34.142305],[134.562692,34.142134],[134.563352,34.141878],[134.564535,34.141458],[134.565753,34.14105],[134.566721,34.140746],[134.567267,34.140562],[134.567409,34.140527],[134.567652,34.140469],[134.568889,34.140093]]]},"properties":{"code":"36401","name":"松茂町"}}]}