{"type":"FeatureCollection","features":[{"type":"Feature","geometry":{"type":"Polygon","coordinates":[[[134.546622,34.131515],[134.546191,34.131369],[134.545778,34.131294],[134.545925,34.131702],[134.546025,34.132083],[134.545999,34.132559],[134.545935,34.132918],[134.545882,34.133257],[134.545844,34.133543],[134.545739,34.133966],[134.545611,34.134528],[134.545475,34.135149],[134.545349,34.135569],[134.545273,34.13588],[134.545835,34.136559],[134.546578,34.137284],[134.546954,34.1376],[134.547158,34.137741],[134.547346,34.137826],[134.54757,34.137854],[134.547752,34.137844],[134.547916,34.13808],[134.548058,34.138294],[134.548333,34.138932],[134.548625,34.139647],[134.548661,34.140061],[134.548355,34.140008],[134.548095,34.139977],[134.54759,34.140031],[134.547234,34.140021],[134.54693,34.139981],[134.546636,34.139929],[134.546172,34.139835],[134.546087,34.139832],[134.545415,34.139938],[134.545031,34.139935],[134.544462,34.13993],[134.543627,34.139922],[134.542309,34.139823],[134.542124,34.139806],[134.542031,34.139818],[134.540866,34.139972],[134.540741,34.139781],[134.540164,34.139102],[134.539803,34.138706],[134.539722,34.138616],[134.539267,34.138107],[134.539177,34.138005],[134.539137,34.13792],[134.539106,34.137831],[134.539065,34.137647],[134.53904,34.137474],[134.53893,34.137296],[134.538492,34.13657],[134.538349,34.136366],[134.538237,34.136238],[134.538149,34.136023],[134.538087,34.135892],[134.537952,34.135646],[134.537928,34.135613],[134.537845,34.1355],[134.537737,34.135323],[134.537452,34.135086],[134.537204,34.134894],[134.537064,34.134814],[134.536325,34.134336],[134.536212,34.134448],[134.536159,34.134425],[134.536123,34.134409],[134.53612,34.134408],[134.536085,34.134392],[134.535946,34.13433],[134.535919,34.134318],[134.535918,34.134318],[134.53591,34.134315],[134.5359,34.13431],[134.535876,34.1343],[134.535872,34.134298],[134.535863,34.134295],[134.535834,34.134282],[134.53583,34.134281],[134.535825,34.134279],[134.535824,34.134278],[134.535809,34.134272],[134.537218,34.133134],[134.538148,34.132352],[134.538761,34.131838],[134.539206,34.131561],[134.539538,34.131387],[134.540224,34.130985],[134.540768,34.130683],[134.541288,34.130349],[134.54176,34.130009],[134.541879,34.129925],[134.542295,34.129608],[134.54272,34.129315],[134.543045,34.129063],[134.543263,34.128907],[134.54342,34.128801],[134.543841,34.128517],[134.543706,34.128355],[134.544174,34.128063],[134.544601,34.127831],[134.544874,34.127666],[134.545078,34.127536],[134.545319,34.127328],[134.545502,34.127071],[134.545587,34.1269],[134.545652,34.126693],[134.545709,34.126428],[134.545806,34.126296],[134.545928,34.126011],[134.546006,34.125898],[134.54609,34.125835],[134.546247,34.125745],[134.546479,34.125634],[134.546582,34.12559],[134.546708,34.125578],[134.546811,34.125639],[134.546973,34.125897],[134.547008,34.126037],[134.547026,34.12617],[134.547028,34.126192],[134.547067,34.126351],[134.547127,34.126929],[134.547146,34.127681],[134.547127,34.127845],[134.547044,34.128675],[134.546914,34.129819],[134.546622,34.131515]]]},"properties":{"S_NAME":"新喜来","HCODE":8101}},{"type":"Feature","geometry":{"type":"Polygon","coordinates":[[[134.559738,34.13799],[134.559902,34.13869],[134.558972,34.138872],[134.558602,34.137543],[134.558568,34.137156],[134.557403,34.137333],[134.55732,34.136939],[134.557259,34.13656],[134.557501,34.136411],[134.557893,34.136261],[134.558489,34.136186],[134.55859,34.136227],[134.558646,34.136687],[134.559475,34.136506],[134.560188,34.136367],[134.561045,34.136209],[134.561174,34.136758],[134.560513,34.136808],[134.560034,34.136829],[134.559447,34.136946],[134.559738,34.13799]]]},"properties":{"S_NAME":"太郎八須","HCODE":8101}},{"type":"Feature","geometry":{"type":"Polygon","coordinates":[[[134.552808,34.141264],[134.55259,34.139941],[134.551914,34.139984],[134.551055,34.139926],[134.551011,34.139821],[134.550946,34.139587],[134.550883,34.139498],[134.550751,34.139349],[134.55099,34.139228],[134.551209,34.139137],[134.551507,34.139059],[134.551918,34.138995],[134.552363,34.138902],[134.553067,34.138821],[134.553659,34.138745],[134.553789,34.138721],[134.553935,34.138471],[134.554129,34.138601],[134.554258,34.138878],[134.554372,34.139281],[134.55434,34.139399],[134.55414,34.139443],[134.554294,34.139713],[134.55437,34.139768],[134.554996,34.140291],[134.555111,34.140506],[134.555226,34.140708],[134.554385,34.140924],[134.554164,34.140941],[134.553684,34.141088],[134.553199,34.141203],[134.552808,34.141264]]]},"properties":{"S_NAME":"太郎八須","HCODE":8101}},{"type":"Feature","geometry":{"type":"Polygon","coordinates":[[[134.564883,34.132989],[134.564881,34.132995],[134.564844,34.13315],[134.564808,34.133321],[134.564714,34.13374],[134.564975,34.133907],[134.565225,34.134139],[134.565415,34.134326],[134.565677,34.134519],[134.565811,34.134636],[134.565993,34.134751],[134.565804,34.134968],[134.567253,34.136493],[134.567467,34.136786],[134.567483,34.136807],[134.567774,34.137176],[134.568298,34.137183],[134.568631,34.137174],[134.568931,34.137172],[134.56892,34.137377],[134.568925,34.137661],[134.568898,34.138231],[134.568897,34.138245],[134.568917,34.138208],[134.568901,34.138519],[134.56888,34.139087],[134.568895,34.139095],[134.568872,34.139385],[134.568871,34.139919],[134.568889,34.140093],[134.567652,34.140469],[134.567409,34.140527],[134.567267,34.140562],[134.566721,34.140746],[134.565753,34.14105],[134.564535,34.141458],[134.563352,34.141878],[134.562692,34.142134],[134.562173,34.142305],[134.561605,34.142503],[134.561423,34.142564],[134.561314,34.142003],[134.56128,34.141453],[134.560693,34.140976],[134.560705,34.140874],[134.560698,34.14028],[134.560431,34.139452],[134.560612,34.139343],[134.561154,34.138963],[134.561778,34.13866],[134.562114,34.138478],[134.562476,34.138272],[134.56269,34.138136],[134.5632,34.137862],[134.563494,34.137624],[134.563695,34.137465],[134.563829,34.137352],[134.563663,34.137028],[134.562355,34.137275],[134.562129,34.136457],[134.562574,34.136397],[134.562936,34.136229],[134.562997,34.136175],[134.562991,34.136103],[134.56292,34.135979],[134.562744,34.135947],[134.562367,34.136006],[134.562106,34.136045],[134.562079,34.135963],[134.562089,34.135861],[134.562108,34.135753],[134.562231,34.135441],[134.561989,34.135533],[134.561734,34.135625],[134.561425,34.135807],[134.561355,34.1357],[134.561132,34.135058],[134.55944,34.135034],[134.559408,34.135139],[134.559359,34.135272],[134.559315,34.135545],[134.558414,34.135559],[134.557079,34.13564],[134.557011,34.135233],[134.556004,34.135255],[134.556034,34.134983],[134.556056,34.134759],[134.556071,34.134578],[134.556793,34.134523],[134.55675,34.133763],[134.557237,34.133786],[134.557301,34.134205],[134.557633,34.134205],[134.55875,34.134203],[134.559506,34.134217],[134.559476,34.133861],[134.559462,34.133322],[134.559448,34.132299],[134.559909,34.132319],[134.560088,34.132564],[134.560294,34.132821],[134.560459,34.133021],[134.560582,34.133177],[134.560795,34.133243],[134.560894,34.133286],[134.561057,34.133397],[134.561247,34.133407],[134.561407,34.133293],[134.561607,34.133034],[134.562133,34.133029],[134.562777,34.133036],[134.562876,34.133034],[134.563357,34.132977],[134.563491,34.133018],[134.563697,34.133076],[134.564016,34.133056],[134.564366,34.133019],[134.564736,34.132982],[134.564883,34.132989]]]},"properties":{"S_NAME":"太郎八須","HCODE":8101}},{"type":"Feature","geometry":{"type":"Polygon","coordinates":[[[134.559448,34.132299],[134.559462,34.133322],[134.559476,34.133861],[134.559506,34.134217],[134.55875,34.134203],[134.557633,34.134205],[134.557301,34.134205],[134.557237,34.133786],[134.55675,34.133763],[134.556793,34.134523],[134.556071,34.134578],[134.556056,34.134759],[134.556034,34.134983],[134.556004,34.135255],[134.557011,34.135233],[134.557079,34.13564],[134.558414,34.135559],[134.559315,34.135545],[134.559359,34.135272],[134.559408,34.135139],[134.55944,34.135034],[134.561132,34.135058],[134.561355,34.1357],[134.561425,34.135807],[134.561734,34.135625],[134.561989,34.135533],[134.562231,34.135441],[134.562108,34.135753],[134.562089,34.135861],[134.562079,34.135963],[134.562106,34.136045],[134.562367,34.136006],[134.562744,34.135947],[134.56292,34.135979],[134.562991,34.136103],[134.562997,34.136175],[134.562936,34.136229],[134.562574,34.136397],[134.562129,34.136457],[134.562355,34.137275],[134.563663,34.137028],[134.563829,34.137352],[134.563695,34.137465],[134.563494,34.137624],[134.5632,34.137862],[134.56269,34.138136],[134.562476,34.138272],[134.562114,34.138478],[134.561778,34.13866],[134.561154,34.138963],[134.560612,34.139343],[134.560431,34.139452],[134.560698,34.14028],[134.560705,34.140874],[134.560693,34.140976],[134.56128,34.141453],[134.561314,34.142003],[134.561423,34.142564],[134.561197,34.142641],[134.561043,34.142689],[134.560993,34.14274],[134.560956,34.14282],[134.561,34.142995],[134.560729,34.143098],[134.559938,34.143389],[134.559576,34.143534],[134.559489,34.143361],[134.559476,34.143279],[134.559415,34.1432],[134.559307,34.143074],[134.559074,34.142878],[134.558799,34.142656],[134.558481,34.14239],[134.55794,34.14197],[134.557705,34.141734],[134.557401,34.14144],[134.557147,34.141179],[134.556783,34.140807],[134.556751,34.140759],[134.556737,34.140733],[134.556679,34.140629],[134.556672,34.140524],[134.5567,34.140379],[134.556762,34.140186],[134.555627,34.140527],[134.555564,34.140389],[134.555111,34.140506],[134.554996,34.140291],[134.55437,34.139768],[134.554294,34.139713],[134.55414,34.139443],[134.55434,34.139399],[134.554372,34.139281],[134.554258,34.138878],[134.554129,34.138601],[134.553935,34.138471],[134.553789,34.138721],[134.553659,34.138745],[134.553067,34.138821],[134.552363,34.138902],[134.551918,34.138995],[134.551507,34.139059],[134.551209,34.139137],[134.55099,34.139228],[134.550751,34.139349],[134.550883,34.139498],[134.550946,34.139587],[134.551011,34.139821],[134.551055,34.139926],[134.551914,34.139984],[134.55259,34.139941],[134.552808,34.141264],[134.552754,34.141273],[134.552416,34.141318],[134.552159,34.141335],[134.551884,34.141342],[134.551924,34.140772],[134.551916,34.140739],[134.551632,34.140751],[134.551318,34.140765],[134.551297,34.140766],[134.551263,34.140768],[134.551234,34.140769],[134.551214,34.14077],[134.551193,34.140771],[134.551169,34.140772],[134.551148,34.140773],[134.551109,34.140774],[134.551043,34.140777],[134.550947,34.140782],[134.550768,34.14079],[134.550677,34.140794],[134.550264,34.140812],[134.550251,34.140702],[134.550087,34.140688],[134.550083,34.140687],[134.55008,34.140687],[134.549944,34.140677],[134.549927,34.140676],[134.549926,34.140676],[134.549834,34.140671],[134.549812,34.140669],[134.549806,34.140669],[134.549805,34.140669],[134.549803,34.140669],[134.549798,34.140669],[134.549685,34.140663],[134.549669,34.140662],[134.549663,34.140662],[134.549659,34.140662],[134.549627,34.140661],[134.549607,34.14066],[134.549585,34.140659],[134.549561,34.140659],[134.549445,34.140658],[134.54914,34.140669],[134.548465,34.140711],[134.548207,34.140718],[134.547581,34.140716],[134.54759,34.140031],[134.548095,34.139977],[134.548355,34.140008],[134.548661,34.140061],[134.548625,34.139647],[134.548333,34.138932],[134.548058,34.138294],[134.547916,34.13808],[134.547752,34.137844],[134.54757,34.137854],[134.547346,34.137826],[134.547158,34.137741],[134.546954,34.1376],[134.546578,34.137284],[134.545835,34.136559],[134.545273,34.13588],[134.545349,34.135569],[134.545475,34.135149],[134.545611,34.134528],[134.545739,34.133966],[134.545844,34.133543],[134.545882,34.133257],[134.545935,34.132918],[134.545999,34.132559],[134.546025,34.132083],[134.545925,34.131702],[134.545778,34.131294],[134.546191,34.131369],[134.546622,34.131515],[134.546868,34.13163],[134.547917,34.131835],[134.548012,34.131863],[134.547984,34.13199],[134.548048,34.131991],[134.548416,34.131945],[134.550021,34.131797],[134.550392,34.131758],[134.550756,34.131746],[134.551683,34.131745],[134.551849,34.13173],[134.553155,34.131721],[134.553327,34.131681],[134.554116,34.131647],[134.555165,34.13161],[134.555425,34.131648],[134.555904,34.131624],[134.556374,34.131599],[134.556701,34.131562],[134.557103,34.131495],[134.558378,34.131331],[134.559007,34.131291],[134.558985,34.131528],[134.558963,34.131759],[134.558948,34.13194],[134.558925,34.132094],[134.558935,34.132219],[134.559053,34.132274],[134.559196,34.13228],[134.559448,34.132299]],[[134.559738,34.13799],[134.559447,34.136946],[134.560034,34.136829],[134.560513,34.136808],[134.561174,34.136758],[134.561045,34.136209],[134.560188,34.136367],[134.559475,34.136506],[134.558646,34.136687],[134.55859,34.136227],[134.558489,34.136186],[134.557893,34.136261],[134.557501,34.136411],[134.557259,34.13656],[134.55732,34.136939],[134.557403,34.137333],[134.558568,34.137156],[134.558602,34.137543],[134.558972,34.138872],[134.559902,34.13869],[134.559738,34.13799]]]},"properties":{"S_NAME":"北村","HCODE":8101}},{"type":"Feature","geometry":{"type":"Polygon","coordinates":[[[134.535801,34.132526],[134.535704,34.13233],[134.535657,34.132204],[134.535627,34.132091],[134.535535,34.131826],[134.535471,34.131701],[134.534642,34.131121],[134.535282,34.130488],[134.536049,34.129725],[134.53662,34.129058],[134.537226,34.128341],[134.538221,34.127119],[134.538586,34.12768],[134.539099,34.128751],[134.539597,34.130188],[134.539431,34.130245],[134.53907,34.130344],[134.538422,34.130446],[134.537855,34.130606],[134.537898,34.13089],[134.537956,34.131259],[134.538043,34.131827],[134.537549,34.132119],[134.537311,34.131641],[134.535801,34.132526]]]},"properties":{"S_NAME":"中村","HCODE":8101}},{"type":"Feature","geometry":{"type":"Polygon","coordinates":[[[134.564883,34.132989],[134.564736,34.132982],[134.564366,34.133019],[134.564016,34.133056],[134.563697,34.133076],[134.563491,34.133018],[134.563357,34.132977],[134.562876,34.133034],[134.562777,34.133036],[134.562133,34.133029],[134.561607,34.133034],[134.561407,34.133293],[134.561247,34.133407],[134.561057,34.133397],[134.560894,34.133286],[134.560795,34.133243],[134.560582,34.133177],[134.560459,34.133021],[134.560294,34.132821],[134.560088,34.132564],[134.559909,34.132319],[134.559448,34.132299],[134.559196,34.13228],[134.559053,34.132274],[134.558935,34.132219],[134.558925,34.132094],[134.558948,34.13194],[134.558963,34.131759],[134.558985,34.131528],[134.559007,34.131291],[134.558378,34.131331],[134.557103,34.131495],[134.556701,34.131562],[134.556374,34.131599],[134.555904,34.131624],[134.555425,34.131648],[134.555165,34.13161],[134.554116,34.131647],[134.553327,34.131681],[134.553155,34.131721],[134.551849,34.13173],[134.551683,34.131745],[134.550756,34.131746],[134.550392,34.131758],[134.550021,34.131797],[134.548416,34.131945],[134.548048,34.131991],[134.547984,34.13199],[134.548012,34.131863],[134.547917,34.131835],[134.546868,34.13163],[134.546622,34.131515],[134.546914,34.129819],[134.547044,34.128675],[134.547127,34.127845],[134.547146,34.127681],[134.547127,34.126929],[134.547067,34.126351],[134.547028,34.126192],[134.547026,34.12617],[134.547008,34.126037],[134.546973,34.125897],[134.546811,34.125639],[134.546708,34.125578],[134.546582,34.12559],[134.546479,34.125634],[134.546247,34.125745],[134.54609,34.125835],[134.546006,34.125898],[134.545928,34.126011],[134.545806,34.126296],[134.545798,34.125698],[134.545768,34.125159],[134.545715,34.124676],[134.545679,34.124099],[134.545626,34.123961],[134.54545,34.123643],[134.545253,34.123284],[134.544644,34.123246],[134.544184,34.123217],[134.544183,34.122876],[134.54366,34.122866],[134.54353,34.122614],[134.543313,34.122683],[134.543113,34.122804],[134.543155,34.122913],[134.542082,34.123461],[134.542094,34.123543],[134.542055,34.123619],[134.541794,34.123879],[134.541578,34.124096],[134.54126,34.124361],[134.540942,34.124636],[134.540584,34.124992],[134.540289,34.125228],[134.540106,34.125325],[134.540205,34.125627],[134.540301,34.126008],[134.540037,34.12603],[134.539602,34.126157],[134.539156,34.126333],[134.538711,34.126556],[134.538609,34.125756],[134.538485,34.124733],[134.538437,34.124325],[134.540389,34.124304],[134.540373,34.124255],[134.54013,34.123509],[134.539993,34.12306],[134.539856,34.122645],[134.540227,34.12257],[134.540574,34.122513],[134.540982,34.122516],[134.541726,34.122507],[134.542147,34.12249],[134.542303,34.122481],[134.542609,34.122486],[134.542921,34.122578],[134.543181,34.122579],[134.543358,34.122568],[134.54353,34.122535],[134.543534,34.122216],[134.543963,34.122212],[134.544215,34.122229],[134.544126,34.122359],[134.544298,34.122485],[134.544535,34.122493],[134.544764,34.122491],[134.544949,34.122561],[134.545113,34.122644],[134.545334,34.12278],[134.545505,34.12279],[134.545896,34.122811],[134.546401,34.122805],[134.546688,34.1228],[134.546826,34.122798],[134.546867,34.122808],[134.547215,34.122895],[134.54788,34.123027],[134.548142,34.123104],[134.548469,34.123211],[134.548812,34.123362],[134.54913,34.123491],[134.549488,34.123643],[134.549758,34.123774],[134.549852,34.123826],[134.54994,34.123853],[134.550417,34.123615],[134.550711,34.123488],[134.551072,34.123414],[134.551417,34.123384],[134.551806,34.123368],[134.552063,34.123451],[134.552577,34.123587],[134.552957,34.123647],[134.553316,34.123678],[134.553547,34.123693],[134.554244,34.123738],[134.554664,34.123696],[134.55503,34.123767],[134.556503,34.124088],[134.557488,34.124269],[134.558386,34.124373],[134.558334,34.125045],[134.558294,34.125674],[134.558299,34.126048],[134.558313,34.126227],[134.558843,34.127152],[134.559093,34.127424],[134.559451,34.127814],[134.560059,34.128337],[134.560397,34.128484],[134.560608,34.128666],[134.560838,34.128441],[134.560304,34.127844],[134.559928,34.127383],[134.559841,34.12718],[134.559792,34.126996],[134.559778,34.126842],[134.559717,34.126788],[134.559725,34.126424],[134.559696,34.126071],[134.559705,34.125812],[134.559673,34.125637],[134.559601,34.125411],[134.559456,34.125066],[134.559185,34.124451],[134.559105,34.124292],[134.559053,34.124038],[134.559027,34.123859],[134.559104,34.122461],[134.559413,34.121451],[134.559702,34.1213],[134.560149,34.120933],[134.560345,34.120845],[134.561649,34.121698],[134.561683,34.121717],[134.562242,34.122054],[134.562197,34.122434],[134.562171,34.12266],[134.562129,34.122743],[134.561996,34.12288],[134.561905,34.123041],[134.561903,34.123438],[134.561901,34.123835],[134.561785,34.124008],[134.561761,34.124044],[134.562054,34.124119],[134.562958,34.124274],[134.564588,34.124538],[134.56546,34.124673],[134.565533,34.124702],[134.565628,34.12474],[134.566032,34.125074],[134.566422,34.125462],[134.566461,34.125502],[134.566697,34.125719],[134.566932,34.125914],[134.567624,34.126637],[134.568012,34.127007],[134.568624,34.127591],[134.568692,34.127655],[134.569966,34.128631],[134.570004,34.12866],[134.57001,34.128665],[134.570881,34.129215],[134.571654,34.129539],[134.572797,34.129837],[134.573657,34.130009],[134.573813,34.130032],[134.575804,34.130324],[134.575726,34.130901],[134.57401,34.130949],[134.573962,34.130949],[134.573223,34.130955],[134.572455,34.130982],[134.572227,34.130971],[134.571734,34.130994],[134.570488,34.131005],[134.569967,34.130998],[134.569927,34.130997],[134.569889,34.130997],[134.568603,34.130996],[134.568559,34.131013],[134.568521,34.131029],[134.568416,34.131093],[134.56814,34.13126],[134.567921,34.131314],[134.567398,34.131443],[134.567238,34.131471],[134.567085,34.131498],[134.56697,34.131509],[134.566936,34.131512],[134.56678,34.131559],[134.566577,34.131619],[134.566302,34.131767],[134.566254,34.131785],[134.565701,34.13207],[134.565529,34.132149],[134.565435,34.132176],[134.565266,34.132373],[134.56508,34.132609],[134.564926,34.132767],[134.564883,34.132989]]]},"properties":{"S_NAME":"中村","HCODE":8101}},{"type":"Feature","geometry":{"type":"Polygon","coordinates":[[[134.535809,34.134272],[134.535743,34.134246],[134.535445,34.134177],[134.534993,34.134083],[134.534622,34.133997],[134.534378,34.133941],[134.533965,34.133833],[134.533965,34.133832],[134.533933,34.133824],[134.533759,34.13379],[134.533578,34.133761],[134.533458,34.133744],[134.533457,34.133744],[134.533355,34.13373],[134.533263,34.133722],[134.533182,34.133722],[134.533123,34.133494],[134.532722,34.133755],[134.532684,34.133751],[134.532438,34.133727],[134.532375,34.133716],[134.532376,34.133715],[134.532335,34.133708],[134.532319,34.133705],[134.532313,34.133704],[134.532309,34.133703],[134.532308,34.133703],[134.532299,34.133701],[134.532033,34.133656],[134.53182,34.133608],[134.531773,34.133581],[134.531718,34.133549],[134.531669,34.13349],[134.531648,34.133466],[134.531598,34.13337],[134.531532,34.133209],[134.531461,34.133015],[134.531442,34.132961],[134.531437,34.132948],[134.531418,34.132894],[134.5314,34.132843],[134.531364,34.132739],[134.531358,34.132723],[134.531348,34.132699],[134.531308,34.132608],[134.531277,34.132538],[134.531265,34.132511],[134.531259,34.132498],[134.531223,34.132431],[134.531206,34.132398],[134.531205,34.132397],[134.531142,34.132281],[134.531138,34.132274],[134.530911,34.131999],[134.530866,34.131961],[134.530809,34.131928],[134.530735,34.131884],[134.530652,34.131838],[134.530497,34.131714],[134.530445,34.131663],[134.53033,34.131536],[134.53021,34.131408],[134.530142,34.131315],[134.530036,34.131108],[134.529966,34.130927],[134.529925,34.130867],[134.529889,34.130813],[134.529859,34.130776],[134.529681,34.130556],[134.529348,34.130249],[134.529135,34.130065],[134.529111,34.130049],[134.529004,34.129975],[134.529206,34.129761],[134.529866,34.129152],[134.529403,34.128714],[134.529233,34.128531],[134.528758,34.128029],[134.528482,34.127429],[134.528414,34.127283],[134.528358,34.127159],[134.528092,34.126693],[134.52793,34.126394],[134.527709,34.12622],[134.527676,34.126157],[134.527775,34.126031],[134.527968,34.12584],[134.528072,34.125743],[134.528319,34.125519],[134.528423,34.125261],[134.528463,34.125163],[134.528534,34.1249],[134.528617,34.124845],[134.528728,34.12486],[134.528943,34.12492],[134.529148,34.124672],[134.529413,34.124727],[134.529426,34.12473],[134.52958,34.124762],[134.530224,34.124845],[134.532134,34.125275],[134.53452,34.124488],[134.535763,34.121521],[134.536026,34.120894],[134.53609,34.120741],[134.536193,34.120743],[134.535982,34.119636],[134.535999,34.119448],[134.5361,34.118922],[134.536105,34.118779],[134.536029,34.118352],[134.535991,34.118081],[134.536004,34.117925],[134.536159,34.117718],[134.536209,34.117629],[134.536309,34.117413],[134.536382,34.117244],[134.536449,34.117099],[134.536507,34.116928],[134.536595,34.116729],[134.536752,34.116502],[134.536974,34.116145],[134.537372,34.115766],[134.537667,34.115551],[134.537806,34.115462],[134.537911,34.115368],[134.538833,34.114639],[134.538471,34.114066],[134.538186,34.113692],[134.538185,34.113691],[134.54037,34.112913],[134.540336,34.113749],[134.540324,34.11394],[134.540291,34.115306],[134.540319,34.115786],[134.540324,34.116215],[134.540312,34.116456],[134.540258,34.116893],[134.539862,34.118523],[134.539763,34.118846],[134.540346,34.119415],[134.540121,34.119594],[134.539858,34.119821],[134.53968,34.120039],[134.539682,34.120205],[134.539774,34.120287],[134.540004,34.120327],[134.539987,34.120585],[134.539837,34.120595],[134.539658,34.120629],[134.539589,34.121133],[134.539665,34.121657],[134.539782,34.122213],[134.539856,34.122645],[134.539993,34.12306],[134.54013,34.123509],[134.540373,34.124255],[134.540389,34.124304],[134.538437,34.124325],[134.538485,34.124733],[134.538609,34.125756],[134.538711,34.126556],[134.539156,34.126333],[134.539602,34.126157],[134.540037,34.12603],[134.540301,34.126008],[134.540205,34.125627],[134.540106,34.125325],[134.540289,34.125228],[134.540584,34.124992],[134.540942,34.124636],[134.54126,34.124361],[134.541578,34.124096],[134.541794,34.123879],[134.542055,34.123619],[134.542094,34.123543],[134.542082,34.123461],[134.543155,34.122913],[134.543113,34.122804],[134.543313,34.122683],[134.54353,34.122614],[134.54366,34.122866],[134.544183,34.122876],[134.544184,34.123217],[134.544644,34.123246],[134.545253,34.123284],[134.54545,34.123643],[134.545626,34.123961],[134.545679,34.124099],[134.545715,34.124676],[134.545768,34.125159],[134.545798,34.125698],[134.545806,34.126296],[134.545709,34.126428],[134.545652,34.126693],[134.545587,34.1269],[134.545502,34.127071],[134.545319,34.127328],[134.545078,34.127536],[134.544874,34.127666],[134.544601,34.127831],[134.544174,34.128063],[134.543706,34.128355],[134.543841,34.128517],[134.54342,34.128801],[134.543263,34.128907],[134.543045,34.129063],[134.54272,34.129315],[134.542295,34.129608],[134.541879,34.129925],[134.54176,34.130009],[134.541288,34.130349],[134.540768,34.130683],[134.540224,34.130985],[134.539538,34.131387],[134.539206,34.131561],[134.538761,34.131838],[134.538148,34.132352],[134.537218,34.133134],[134.535809,34.134272]],[[134.535801,34.132526],[134.537311,34.131641],[134.537549,34.132119],[134.538043,34.131827],[134.537956,34.131259],[134.537898,34.13089],[134.537855,34.130606],[134.538422,34.130446],[134.53907,34.130344],[134.539431,34.130245],[134.539597,34.130188],[134.539099,34.128751],[134.538586,34.12768],[134.538221,34.127119],[134.537226,34.128341],[134.53662,34.129058],[134.536049,34.129725],[134.535282,34.130488],[134.534642,34.131121],[134.535471,34.131701],[134.535535,34.131826],[134.535627,34.132091],[134.535657,34.132204],[134.535704,34.13233],[134.535801,34.132526]]]},"properties":{"S_NAME":"高房","HCODE":8101}},{"type":"Feature","geometry":{"type":"Polygon","coordinates":[[[134.559413,34.121451],[134.559104,34.122461],[134.559027,34.123859],[134.559053,34.124038],[134.559105,34.124292],[134.559185,34.124451],[134.559456,34.125066],[134.559601,34.125411],[134.559673,34.125637],[134.559705,34.125812],[134.559696,34.126071],[134.559725,34.126424],[134.559717,34.126788],[134.559778,34.126842],[134.559792,34.126996],[134.559841,34.12718],[134.559928,34.127383],[134.560304,34.127844],[134.560838,34.128441],[134.560608,34.128666],[134.560397,34.128484],[134.560059,34.128337],[134.559451,34.127814],[134.559093,34.127424],[134.558843,34.127152],[134.558313,34.126227],[134.558299,34.126048],[134.558294,34.125674],[134.558334,34.125045],[134.558386,34.124373],[134.557488,34.124269],[134.556503,34.124088],[134.55503,34.123767],[134.554664,34.123696],[134.554244,34.123738],[134.553547,34.123693],[134.553316,34.123678],[134.552957,34.123647],[134.552577,34.123587],[134.552063,34.123451],[134.551806,34.123368],[134.551417,34.123384],[134.551072,34.123414],[134.550711,34.123488],[134.550417,34.123615],[134.54994,34.123853],[134.549852,34.123826],[134.549758,34.123774],[134.549488,34.123643],[134.54913,34.123491],[134.548812,34.123362],[134.548469,34.123211],[134.548142,34.123104],[134.54788,34.123027],[134.547215,34.122895],[134.546867,34.122808],[134.546826,34.122798],[134.546688,34.1228],[134.546401,34.122805],[134.545896,34.122811],[134.545505,34.12279],[134.545334,34.12278],[134.545113,34.122644],[134.544949,34.122561],[134.544764,34.122491],[134.544535,34.122493],[134.544298,34.122485],[134.544126,34.122359],[134.544215,34.122229],[134.543963,34.122212],[134.543534,34.122216],[134.54353,34.122535],[134.543358,34.122568],[134.543181,34.122579],[134.542921,34.122578],[134.542609,34.122486],[134.542303,34.122481],[134.542147,34.12249],[134.541726,34.122507],[134.540982,34.122516],[134.540574,34.122513],[134.540227,34.12257],[134.539856,34.122645],[134.539782,34.122213],[134.539665,34.121657],[134.539589,34.121133],[134.539658,34.120629],[134.539837,34.120595],[134.539987,34.120585],[134.540004,34.120327],[134.539774,34.120287],[134.539682,34.120205],[134.53968,34.120039],[134.539858,34.119821],[134.540121,34.119594],[134.540346,34.119415],[134.541188,34.118894],[134.541133,34.118512],[134.542031,34.118363],[134.542144,34.118466],[134.542558,34.118859],[134.542906,34.118799],[134.54422,34.118604],[134.544317,34.118934],[134.544433,34.119225],[134.544439,34.119256],[134.54595,34.118999],[134.546253,34.118887],[134.547125,34.118893],[134.54711,34.118522],[134.547268,34.118512],[134.548158,34.118833],[134.549404,34.119234],[134.549981,34.119366],[134.550275,34.119393],[134.550566,34.119417],[134.550728,34.119439],[134.551044,34.11947],[134.551294,34.119509],[134.55145,34.11952],[134.55182,34.11954],[134.552182,34.119839],[134.552734,34.120288],[134.553142,34.120557],[134.553545,34.120839],[134.553904,34.121068],[134.554092,34.121141],[134.554179,34.121153],[134.555187,34.120654],[134.555709,34.120421],[134.556281,34.120355],[134.55635,34.12043],[134.556471,34.120547],[134.556739,34.120909],[134.556998,34.12112],[134.557253,34.121312],[134.557461,34.121439],[134.557451,34.121513],[134.557377,34.12204],[134.558224,34.122074],[134.559413,34.121451]]]},"properties":{"S_NAME":"江尻","HCODE":8101}},{"type":"Feature","geometry":{"type":"Polygon","coordinates":[[[134.557461,34.121439],[134.557253,34.121312],[134.556998,34.12112],[134.556739,34.120909],[134.556471,34.120547],[134.55635,34.12043],[134.556281,34.120355],[134.555709,34.120421],[134.555187,34.120654],[134.554179,34.121153],[134.554092,34.121141],[134.553904,34.121068],[134.553545,34.120839],[134.553142,34.120557],[134.552734,34.120288],[134.552182,34.119839],[134.55182,34.11954],[134.55145,34.11952],[134.551294,34.119509],[134.551044,34.11947],[134.550728,34.119439],[134.550566,34.119417],[134.550275,34.119393],[134.549981,34.119366],[134.549404,34.119234],[134.548158,34.118833],[134.547268,34.118512],[134.54711,34.118522],[134.547125,34.118893],[134.546253,34.118887],[134.54595,34.118999],[134.544439,34.119256],[134.544433,34.119225],[134.544317,34.118934],[134.54422,34.118604],[134.542906,34.118799],[134.542558,34.118859],[134.542144,34.118466],[134.542031,34.118363],[134.541133,34.118512],[134.541188,34.118894],[134.540346,34.119415],[134.539763,34.118846],[134.539862,34.118523],[134.540258,34.116893],[134.540312,34.116456],[134.540324,34.116215],[134.540319,34.115786],[134.540291,34.115306],[134.540324,34.11394],[134.540336,34.113749],[134.54037,34.112913],[134.541131,34.112642],[134.541843,34.112444],[134.542042,34.112405],[134.542668,34.112284],[134.54275,34.112262],[134.542904,34.11224],[134.543124,34.112192],[134.543662,34.112075],[134.54379,34.112047],[134.543946,34.112029],[134.543978,34.112025],[134.544301,34.111986],[134.544634,34.111924],[134.544824,34.111885],[134.545026,34.111837],[134.545338,34.11176],[134.545525,34.111711],[134.5456,34.111691],[134.545765,34.111648],[134.545966,34.111596],[134.546473,34.111452],[134.54661,34.111413],[134.547372,34.111193],[134.547565,34.111145],[134.548094,34.111013],[134.548158,34.110996],[134.54832,34.11097],[134.548528,34.110926],[134.5487,34.110911],[134.548742,34.110907],[134.548864,34.110902],[134.548931,34.110912],[134.549129,34.110942],[134.549291,34.11094],[134.549545,34.110913],[134.549723,34.110882],[134.549855,34.110864],[134.549898,34.110857],[134.550007,34.110841],[134.5502,34.110801],[134.550631,34.110718],[134.551037,34.110651],[134.551204,34.110624],[134.551544,34.110536],[134.551788,34.110492],[134.55195,34.110457],[134.552209,34.110421],[134.552366,34.110403],[134.552427,34.110394],[134.552454,34.110378],[134.55246,34.110374],[134.552445,34.109741],[134.552421,34.108641],[134.553678,34.10862],[134.555365,34.108618],[134.556258,34.108596],[134.556604,34.108606],[134.556199,34.109396],[134.556181,34.10965],[134.556222,34.109669],[134.556289,34.1097],[134.556459,34.109783],[134.556617,34.10986],[134.556692,34.109896],[134.557051,34.11007],[134.557359,34.110238],[134.557653,34.110385],[134.558022,34.110565],[134.55844,34.112278],[134.55839,34.112993],[134.558292,34.112993],[134.558163,34.112977],[134.557999,34.112948],[134.557795,34.112919],[134.557555,34.112877],[134.55739,34.112849],[134.557272,34.112832],[134.557181,34.113024],[134.557102,34.113164],[134.557041,34.113262],[134.556817,34.113702],[134.55666,34.114013],[134.5564,34.114457],[134.556261,34.114706],[134.556256,34.114715],[134.555204,34.116167],[134.555469,34.11674],[134.555535,34.116848],[134.556098,34.117865],[134.556104,34.117875],[134.556195,34.118015],[134.556934,34.119048],[134.557213,34.119434],[134.55764,34.120054],[134.557461,34.121439]]]},"properties":{"S_NAME":"鯛浜","HCODE":8101}}]}