{"type":"FeatureCollection","features":[{"type":"Feature","geometry":{"type":"Polygon","coordinates":[[[134.454742,34.155356],[134.45463,34.155623],[134.454493,34.155953],[134.454359,34.156258],[134.45419,34.156622],[134.454025,34.156885],[134.453847,34.157024],[134.4536,34.157166],[134.453413,34.157306],[134.453301,34.157437],[134.453032,34.157913],[134.452981,34.157938],[134.4529,34.157948],[134.45283,34.157984],[134.452751,34.158101],[134.45256,34.158399],[134.452435,34.158622],[134.452349,34.15872],[134.452259,34.158787],[134.452137,34.158858],[134.451916,34.158961],[134.451186,34.159253],[134.45063,34.159512],[134.450312,34.159673],[134.450063,34.15985],[134.449763,34.160095],[134.449567,34.160285],[134.449243,34.160653],[134.449118,34.160855],[134.449064,34.161084],[134.44905,34.161362],[134.449088,34.161679],[134.44901,34.162037],[134.448993,34.162327],[134.449022,34.162749],[134.449163,34.16319],[134.449376,34.163625],[134.449408,34.163733],[134.449228,34.163734],[134.449138,34.163718],[134.449007,34.163653],[134.448479,34.163255],[134.448147,34.163025],[134.447671,34.162892],[134.447222,34.162887],[134.446724,34.162999],[134.446291,34.16316],[134.445553,34.163493],[134.445326,34.163497],[134.444825,34.163378],[134.444449,34.163286],[134.444094,34.163291],[134.443856,34.163397],[134.443655,34.163599],[134.443439,34.163922],[134.44328,34.164049],[134.442524,34.164437],[134.44227,34.164651],[134.441701,34.165573],[134.441547,34.165734],[134.441125,34.165898],[134.440852,34.165891],[134.440361,34.165813],[134.439829,34.1657],[134.439297,34.165577],[134.438659,34.165431],[134.438112,34.165341],[134.437429,34.165214],[134.437066,34.165161],[134.437168,34.164906],[134.437253,34.164557],[134.437249,34.164174],[134.43723,34.163337],[134.437346,34.163079],[134.437304,34.1629],[134.437327,34.162804],[134.437285,34.162634],[134.437356,34.162378],[134.43727,34.161872],[134.437249,34.161769],[134.437288,34.161676],[134.437358,34.161448],[134.437964,34.160761],[134.438597,34.160326],[134.438841,34.160085],[134.439258,34.159629],[134.440394,34.158551],[134.440454,34.158312],[134.440538,34.158215],[134.440814,34.158053],[134.441068,34.157896],[134.441228,34.157677],[134.441296,34.157503],[134.441326,34.157406],[134.441425,34.157277],[134.441509,34.157199],[134.441531,34.157122],[134.441757,34.156198],[134.442017,34.155881],[134.442101,34.155842],[134.442171,34.155816],[134.442186,34.155764],[134.442177,34.155687],[134.442199,34.155616],[134.442268,34.155545],[134.442353,34.155493],[134.442452,34.155415],[134.442547,34.155218],[134.442544,34.154894],[134.442529,34.154617],[134.442715,34.153961],[134.442889,34.153587],[134.443002,34.153374],[134.443352,34.152569],[134.443386,34.152176],[134.443493,34.151924],[134.443681,34.151775],[134.444142,34.151541],[134.444491,34.151302],[134.444645,34.151144],[134.444797,34.150817],[134.444872,34.150583],[134.444916,34.150352],[134.444927,34.150134],[134.444882,34.149986],[134.444807,34.14986],[134.444608,34.149626],[134.444343,34.149263],[134.444237,34.149013],[134.444213,34.14882],[134.444215,34.148639],[134.444225,34.148277],[134.444181,34.148099],[134.444174,34.147967],[134.444206,34.147808],[134.4441,34.147174],[134.444094,34.146917],[134.443902,34.14665],[134.443886,34.146421],[134.443902,34.146228],[134.443895,34.145572],[134.443875,34.145392],[134.443833,34.145273],[134.443485,34.144875],[134.443438,34.144609],[134.443375,34.144461],[134.442911,34.143994],[134.442787,34.143909],[134.442386,34.143719],[134.442499,34.143572],[134.442688,34.143312],[134.442834,34.142992],[134.442881,34.142889],[134.442865,34.141877],[134.442973,34.141428],[134.443063,34.141166],[134.443059,34.14112],[134.443004,34.140941],[134.443,34.140764],[134.443013,34.140715],[134.443052,34.140662],[134.443108,34.14064],[134.443327,34.14066],[134.443343,34.140646],[134.44343,34.140306],[134.443469,34.140237],[134.443497,34.140113],[134.443536,34.140025],[134.443414,34.139856],[134.443338,34.13973],[134.443197,34.139397],[134.443326,34.139382],[134.443451,34.139096],[134.443533,34.138882],[134.443623,34.138533],[134.443671,34.13844],[134.443761,34.138271],[134.44379,34.138216],[134.443865,34.137847],[134.443955,34.137494],[134.443988,34.137411],[134.444021,34.137357],[134.444077,34.137307],[134.444197,34.137232],[134.444304,34.137159],[134.444358,34.137062],[134.444421,34.13689],[134.444491,34.13667],[134.44454,34.136466],[134.444482,34.136431],[134.444283,34.136332],[134.444212,34.136298],[134.444202,34.136273],[134.444212,34.13624],[134.444324,34.136028],[134.44452,34.1355],[134.444553,34.135235],[134.444699,34.13524],[134.444781,34.135226],[134.444797,34.135194],[134.444888,34.135013],[134.44499,34.134948],[134.44511,34.135024],[134.445247,34.135069],[134.44546,34.135126],[134.445581,34.135165],[134.445618,34.135206],[134.445624,34.135286],[134.445567,34.13566],[134.445506,34.136306],[134.445688,34.136336],[134.446021,34.136406],[134.446132,34.136181],[134.446693,34.136324],[134.447117,34.13643],[134.447638,34.136549],[134.448155,34.136673],[134.448737,34.136809],[134.44896,34.136851],[134.449336,34.1369],[134.449756,34.136991],[134.450861,34.137272],[134.451555,34.137442],[134.452012,34.137551],[134.452794,34.137713],[134.453033,34.137798],[134.453214,34.137829],[134.453539,34.137824],[134.453653,34.137826],[134.453814,34.137829],[134.45476,34.137712],[134.454761,34.137711],[134.455797,34.137664],[134.456334,34.137626],[134.456663,34.137569],[134.457018,34.13747],[134.457451,34.137316],[134.457764,34.137194],[134.45814,34.13822],[134.458226,34.138511],[134.458262,34.138726],[134.458288,34.138843],[134.458301,34.138975],[134.458271,34.139143],[134.458199,34.139464],[134.458082,34.139925],[134.457175,34.140397],[134.456783,34.140663],[134.456517,34.14085],[134.456326,34.140987],[134.455879,34.141401],[134.455978,34.141435],[134.456076,34.141496],[134.456111,34.14152],[134.456322,34.141693],[134.456363,34.141749],[134.456383,34.141812],[134.45635,34.141909],[134.45631,34.141975],[134.456195,34.142129],[134.456089,34.142234],[134.455938,34.142346],[134.455701,34.142357],[134.455176,34.142294],[134.454952,34.142316],[134.454695,34.142329],[134.454451,34.142428],[134.454309,34.142451],[134.454003,34.142476],[134.453483,34.142469],[134.453235,34.142484],[134.453038,34.142529],[134.452925,34.142571],[134.452843,34.142633],[134.452833,34.142699],[134.452875,34.142756],[134.452936,34.142812],[134.452992,34.14291],[134.45305,34.143003],[134.453195,34.1434],[134.453245,34.143546],[134.453258,34.143677],[134.453246,34.143917],[134.453278,34.144053],[134.453376,34.14419],[134.453581,34.144387],[134.45383,34.144611],[134.453988,34.144782],[134.454114,34.144942],[134.454198,34.145059],[134.454308,34.145193],[134.454602,34.145907],[134.454708,34.146159],[134.454857,34.146506],[134.454929,34.146669],[134.455058,34.14694],[134.455384,34.147732],[134.455441,34.147948],[134.455444,34.148225],[134.455318,34.148626],[134.455159,34.148853],[134.45501,34.14903],[134.45453,34.149358],[134.45394,34.149708],[134.45377,34.149851],[134.453673,34.150008],[134.453631,34.150151],[134.453595,34.150404],[134.453549,34.150714],[134.453542,34.150983],[134.453596,34.151407],[134.453608,34.151578],[134.453629,34.1517],[134.45371,34.151911],[134.453967,34.152331],[134.454095,34.153166],[134.453936,34.153436],[134.453586,34.153755],[134.453043,34.154074],[134.452869,34.154215],[134.452762,34.154361],[134.452705,34.154519],[134.452704,34.154617],[134.453037,34.154752],[134.453451,34.15482],[134.453845,34.154872],[134.454403,34.15519],[134.454742,34.155356]]]},"properties":{"S_NAME":"犬伏","HCODE":8101}},{"type":"Feature","geometry":{"type":"Polygon","coordinates":[[[134.44499,34.134948],[134.444888,34.135013],[134.444797,34.135194],[134.444781,34.135226],[134.444699,34.13524],[134.444553,34.135235],[134.44452,34.1355],[134.444324,34.136028],[134.444212,34.13624],[134.444202,34.136273],[134.444212,34.136298],[134.444283,34.136332],[134.444482,34.136431],[134.44454,34.136466],[134.444491,34.13667],[134.444421,34.13689],[134.444358,34.137062],[134.444304,34.137159],[134.444197,34.137232],[134.444077,34.137307],[134.444021,34.137357],[134.443988,34.137411],[134.443955,34.137494],[134.443865,34.137847],[134.44379,34.138216],[134.443761,34.138271],[134.443671,34.13844],[134.443623,34.138533],[134.443533,34.138882],[134.443451,34.139096],[134.443326,34.139382],[134.443197,34.139397],[134.443338,34.13973],[134.443414,34.139856],[134.443536,34.140025],[134.443497,34.140113],[134.443469,34.140237],[134.44343,34.140306],[134.443343,34.140646],[134.443327,34.14066],[134.443108,34.14064],[134.443052,34.140662],[134.443013,34.140715],[134.443,34.140764],[134.443004,34.140941],[134.443059,34.14112],[134.443063,34.141166],[134.442973,34.141428],[134.442865,34.141877],[134.442881,34.142889],[134.442834,34.142992],[134.442688,34.143312],[134.442499,34.143572],[134.442386,34.143719],[134.442304,34.143825],[134.442068,34.144386],[134.441923,34.144479],[134.441844,34.144503],[134.441714,34.144425],[134.441527,34.144333],[134.441386,34.144231],[134.441305,34.14415],[134.441264,34.144047],[134.441241,34.143981],[134.441035,34.143816],[134.44091,34.143699],[134.440846,34.143597],[134.44077,34.143534],[134.440645,34.143491],[134.440592,34.143469],[134.440444,34.143199],[134.440314,34.143045],[134.440264,34.142983],[134.440268,34.142924],[134.440325,34.142868],[134.440585,34.142626],[134.440606,34.142578],[134.44059,34.142506],[134.440463,34.142279],[134.440409,34.142205],[134.440088,34.141904],[134.439806,34.141662],[134.439754,34.141591],[134.439624,34.141448],[134.439561,34.141411],[134.439436,34.141342],[134.439384,34.141297],[134.439259,34.141184],[134.439131,34.141087],[134.439021,34.140958],[134.43894,34.140853],[134.438815,34.140739],[134.43873,34.140648],[134.438705,34.140591],[134.438705,34.14055],[134.43875,34.140486],[134.438867,34.140372],[134.438897,34.140345],[134.438947,34.140222],[134.438885,34.139932],[134.438877,34.139908],[134.438849,34.139811],[134.438856,34.13972],[134.439027,34.139553],[134.43907,34.139499],[134.439076,34.139452],[134.439001,34.139191],[134.438994,34.139103],[134.439006,34.139026],[134.439034,34.138941],[134.439108,34.138761],[134.43906,34.13876],[134.438955,34.138759],[134.438771,34.138734],[134.438482,34.138731],[134.438433,34.138714],[134.438405,34.138679],[134.438349,34.138534],[134.438296,34.138439],[134.43821,34.138383],[134.438055,34.138345],[134.437865,34.138316],[134.4378,34.138412],[134.43772,34.138533],[134.43767,34.138618],[134.437376,34.138748],[134.437276,34.138801],[134.437229,34.139003],[134.437066,34.139136],[134.436837,34.139264],[134.436541,34.139332],[134.436472,34.139456],[134.436401,34.139615],[134.436356,34.139644],[134.436138,34.139714],[134.43594,34.1398],[134.435724,34.139918],[134.435562,34.140036],[134.43539,34.140236],[134.435313,34.14029],[134.435198,34.140336],[134.435091,34.140347],[134.435032,34.140337],[134.434937,34.140282],[134.43489,34.140239],[134.434812,34.140213],[134.434731,34.140206],[134.434511,34.140206],[134.434194,34.140231],[134.434026,34.140231],[134.433938,34.140251],[134.433831,34.140297],[134.433528,34.140375],[134.433479,34.140374],[134.433392,34.140355],[134.433333,34.140329],[134.433263,34.140316],[134.433121,34.14031],[134.432922,34.140312],[134.432805,34.140283],[134.432682,34.140094],[134.432658,34.140036],[134.432696,34.13988],[134.432751,34.139759],[134.432832,34.139653],[134.432947,34.139593],[134.433124,34.139571],[134.433325,34.139595],[134.433378,34.139572],[134.433408,34.139513],[134.43341,34.139364],[134.433367,34.139237],[134.433299,34.139162],[134.433238,34.139077],[134.433213,34.139013],[134.433216,34.138905],[134.433264,34.138814],[134.433435,34.138572],[134.433512,34.138494],[134.433666,34.13838],[134.434023,34.138169],[134.434393,34.137849],[134.43478,34.137541],[134.435032,34.137393],[134.435129,34.137328],[134.435212,34.137213],[134.435298,34.137094],[134.435408,34.136993],[134.435474,34.136885],[134.435509,34.136838],[134.435625,34.13651],[134.435728,34.136103],[134.435777,34.135767],[134.435926,34.135267],[134.436056,34.134979],[134.436244,34.134579],[134.436496,34.13408],[134.436548,34.133907],[134.436585,34.133688],[134.43663,34.133534],[134.436907,34.133039],[134.43706,34.132785],[134.43716,34.132603],[134.437202,34.132457],[134.437239,34.132199],[134.437282,34.131701],[134.437337,34.13144],[134.437397,34.131235],[134.437483,34.131048],[134.437629,34.130831],[134.437846,34.130537],[134.437948,34.130411],[134.438065,34.130276],[134.438186,34.130112],[134.438296,34.130158],[134.438507,34.130166],[134.438657,34.130179],[134.439089,34.13028],[134.439699,34.130407],[134.439996,34.130478],[134.440906,34.130475],[134.44149,34.130477],[134.441716,34.130395],[134.441954,34.130404],[134.442476,34.130405],[134.442788,34.130416],[134.443067,34.13042],[134.443223,34.130429],[134.443358,34.130448],[134.443451,34.130476],[134.443608,34.130542],[134.443791,34.130675],[134.44387,34.130716],[134.445117,34.131855],[134.445226,34.131956],[134.4453,34.132048],[134.445392,34.132209],[134.445426,34.132317],[134.44544,34.132405],[134.445442,34.132528],[134.445427,34.132657],[134.445401,34.132766],[134.445305,34.133157],[134.445173,34.133743],[134.444999,34.134525],[134.444947,34.134745],[134.444953,34.13487],[134.44499,34.134948]]]},"properties":{"S_NAME":"那東","HCODE":8101}},{"type":"Feature","geometry":{"type":"Polygon","coordinates":[[[134.434393,34.137849],[134.433927,34.137882],[134.433659,34.137894],[134.433429,34.137928],[134.433151,34.138053],[134.433024,34.138112],[134.432906,34.138143],[134.43263,34.138162],[134.432343,34.138136],[134.432015,34.138128],[134.431838,34.138189],[134.431781,34.138239],[134.431728,34.138357],[134.431664,34.138394],[134.428565,34.13971],[134.426674,34.140424],[134.426089,34.139414],[134.425814,34.138843],[134.425696,34.138552],[134.425699,34.13847],[134.425757,34.138406],[134.425922,34.138275],[134.426143,34.138077],[134.426214,34.137975],[134.426251,34.137869],[134.426262,34.137837],[134.426247,34.137712],[134.426202,34.137545],[134.426114,34.137426],[134.425988,34.137295],[134.425954,34.13719],[134.42598,34.137049],[134.426063,34.136884],[134.426165,34.136778],[134.426331,34.136663],[134.426426,34.136613],[134.426564,34.136576],[134.426746,34.136558],[134.427004,34.136566],[134.4273,34.136615],[134.427443,34.13666],[134.427711,34.136207],[134.427814,34.135974],[134.42781,34.135535],[134.427803,34.135297],[134.427789,34.134827],[134.427883,34.13425],[134.427903,34.134134],[134.42799,34.13362],[134.428188,34.133232],[134.428245,34.133121],[134.42832,34.133115],[134.428446,34.133093],[134.428446,34.133054],[134.428447,34.133021],[134.428448,34.132938],[134.428442,34.132474],[134.428458,34.131682],[134.428424,34.131213],[134.428439,34.130895],[134.428421,34.130858],[134.428397,34.130807],[134.428456,34.130353],[134.42851,34.130046],[134.428514,34.130021],[134.428645,34.129775],[134.428777,34.129534],[134.428923,34.129245],[134.429209,34.129313],[134.429689,34.129412],[134.429836,34.129434],[134.430011,34.129514],[134.430249,34.129564],[134.430402,34.129597],[134.430813,34.129722],[134.430988,34.129779],[134.431138,34.12982],[134.431204,34.129583],[134.431288,34.129376],[134.431475,34.12905],[134.431763,34.129064],[134.432015,34.129073],[134.432149,34.129083],[134.432387,34.129159],[134.432502,34.129229],[134.43269,34.129417],[134.432764,34.129451],[134.433019,34.129523],[134.433179,34.129572],[134.433384,34.129653],[134.433624,34.129686],[134.433392,34.130546],[134.433233,34.131314],[134.434025,34.131449],[134.434044,34.131567],[134.433995,34.131898],[134.434034,34.132004],[134.434089,34.132058],[134.43428,34.132135],[134.434409,34.132203],[134.434454,34.132273],[134.43446,34.132352],[134.434369,34.132661],[134.436907,34.133039],[134.43663,34.133534],[134.436585,34.133688],[134.436548,34.133907],[134.436496,34.13408],[134.436244,34.134579],[134.436056,34.134979],[134.435926,34.135267],[134.435777,34.135767],[134.435728,34.136103],[134.435625,34.13651],[134.435509,34.136838],[134.435474,34.136885],[134.435408,34.136993],[134.435298,34.137094],[134.435212,34.137213],[134.435129,34.137328],[134.435032,34.137393],[134.43478,34.137541],[134.434393,34.137849]]]},"properties":{"S_NAME":"羅漢","HCODE":8101}},{"type":"Feature","geometry":{"type":"Polygon","coordinates":[[[134.441716,34.130395],[134.44149,34.130477],[134.440906,34.130475],[134.439996,34.130478],[134.439699,34.130407],[134.439089,34.13028],[134.438657,34.130179],[134.438507,34.130166],[134.438296,34.130158],[134.438186,34.130112],[134.438065,34.130276],[134.437948,34.130411],[134.437846,34.130537],[134.437629,34.130831],[134.437483,34.131048],[134.437397,34.131235],[134.437337,34.13144],[134.437282,34.131701],[134.437239,34.132199],[134.437202,34.132457],[134.43716,34.132603],[134.43706,34.132785],[134.436907,34.133039],[134.434369,34.132661],[134.43446,34.132352],[134.434454,34.132273],[134.434409,34.132203],[134.43428,34.132135],[134.434089,34.132058],[134.434034,34.132004],[134.433995,34.131898],[134.434044,34.131567],[134.434025,34.131449],[134.433233,34.131314],[134.433392,34.130546],[134.433624,34.129686],[134.433384,34.129653],[134.433179,34.129572],[134.433019,34.129523],[134.432764,34.129451],[134.43269,34.129417],[134.432502,34.129229],[134.432387,34.129159],[134.432149,34.129083],[134.432015,34.129073],[134.431763,34.129064],[134.431475,34.12905],[134.431288,34.129376],[134.431204,34.129583],[134.431138,34.12982],[134.430988,34.129779],[134.430813,34.129722],[134.430402,34.129597],[134.430249,34.129564],[134.430011,34.129514],[134.429836,34.129434],[134.429689,34.129412],[134.429209,34.129313],[134.428923,34.129245],[134.428998,34.129067],[134.429058,34.128928],[134.429112,34.128802],[134.429149,34.128674],[134.42931,34.128349],[134.429349,34.128164],[134.429373,34.127874],[134.429416,34.127771],[134.429451,34.127694],[134.429518,34.127498],[134.42955,34.12738],[134.429624,34.127091],[134.429631,34.127085],[134.429761,34.126995],[134.430223,34.126637],[134.430429,34.126492],[134.431066,34.126103],[134.431329,34.125974],[134.431755,34.12581],[134.432004,34.12572],[134.432374,34.125574],[134.432523,34.125526],[134.432912,34.125505],[134.432873,34.125297],[134.432762,34.124496],[134.432912,34.124443],[134.433332,34.124306],[134.433486,34.124252],[134.433441,34.124039],[134.433445,34.123769],[134.433416,34.123568],[134.433475,34.123552],[134.433536,34.123536],[134.433712,34.123499],[134.434138,34.123449],[134.434461,34.123434],[134.434881,34.123402],[134.435047,34.123403],[134.435662,34.123458],[134.435678,34.12346],[134.436184,34.123483],[134.436352,34.123487],[134.436345,34.123249],[134.436327,34.123142],[134.43624,34.122963],[134.436231,34.122903],[134.436247,34.122826],[134.436349,34.122705],[134.43638,34.122651],[134.436489,34.122378],[134.436574,34.122389],[134.436744,34.122376],[134.436854,34.122352],[134.437044,34.122253],[134.437121,34.122182],[134.437155,34.122055],[134.437161,34.121975],[134.43714,34.121919],[134.437089,34.121879],[134.43695,34.1218],[134.436912,34.121761],[134.436912,34.121611],[134.43699,34.121374],[134.437007,34.12124],[134.437004,34.121093],[134.436978,34.12088],[134.436943,34.120757],[134.436908,34.120683],[134.436897,34.120635],[134.43688,34.120506],[134.436893,34.120445],[134.436919,34.120419],[134.436955,34.120403],[134.437089,34.120391],[134.437204,34.120377],[134.437377,34.120339],[134.437499,34.1203],[134.437792,34.120177],[134.437965,34.120128],[134.438368,34.120057],[134.438534,34.120009],[134.438602,34.119978],[134.438751,34.119857],[134.438798,34.119824],[134.438855,34.119804],[134.43907,34.119811],[134.439284,34.11981],[134.439532,34.119841],[134.43977,34.11986],[134.439864,34.119857],[134.439935,34.119837],[134.439979,34.119802],[134.44001,34.119753],[134.44007,34.119707],[134.440127,34.119687],[134.440225,34.119682],[134.440297,34.119672],[134.440438,34.119651],[134.440527,34.119654],[134.440634,34.119681],[134.44093,34.119826],[134.441005,34.119899],[134.441011,34.119926],[134.441015,34.120004],[134.441016,34.120096],[134.441045,34.120172],[134.441096,34.120268],[134.441097,34.120354],[134.441059,34.120412],[134.440964,34.120489],[134.440822,34.120525],[134.440678,34.120534],[134.440621,34.120541],[134.440575,34.12057],[134.440549,34.120609],[134.44055,34.120682],[134.440598,34.12088],[134.440625,34.120915],[134.440679,34.120936],[134.440827,34.120946],[134.440866,34.120962],[134.440885,34.12101],[134.440906,34.121156],[134.440919,34.12123],[134.440954,34.121284],[134.441029,34.121371],[134.441107,34.121434],[134.441165,34.121459],[134.441276,34.121474],[134.441453,34.121492],[134.441623,34.121558],[134.441752,34.121648],[134.441869,34.121727],[134.441949,34.121745],[134.442041,34.121728],[134.442202,34.121647],[134.442264,34.121607],[134.442251,34.121551],[134.442168,34.121412],[134.442156,34.121354],[134.442179,34.12129],[134.442224,34.121261],[134.442301,34.121254],[134.442382,34.121285],[134.442455,34.121341],[134.442457,34.121465],[134.442461,34.12165],[134.442467,34.121846],[134.442477,34.122125],[134.442497,34.122514],[134.442517,34.122841],[134.442539,34.12321],[134.442544,34.123328],[134.442349,34.123581],[134.442152,34.123835],[134.441961,34.124081],[134.441969,34.124603],[134.441972,34.124827],[134.441973,34.124963],[134.441979,34.125414],[134.441986,34.125932],[134.441987,34.126036],[134.441898,34.126034],[134.441849,34.126034],[134.441792,34.126038],[134.4417,34.126054],[134.441555,34.126089],[134.441468,34.126114],[134.441396,34.126136],[134.441443,34.126363],[134.441481,34.126551],[134.441505,34.126665],[134.441525,34.126765],[134.441552,34.126897],[134.441568,34.126969],[134.441597,34.127078],[134.441622,34.127184],[134.441639,34.127229],[134.441656,34.127263],[134.441679,34.127293],[134.441722,34.127342],[134.441777,34.127397],[134.441794,34.127568],[134.4418,34.127639],[134.441806,34.127671],[134.44186,34.127688],[134.441851,34.127727],[134.441813,34.128259],[134.441744,34.129614],[134.441716,34.130395]]]},"properties":{"S_NAME":"矢武","HCODE":8101}},{"type":"Feature","geometry":{"type":"Polygon","coordinates":[[[134.437066,34.165161],[134.436425,34.165593],[134.435839,34.165892],[134.435042,34.166319],[134.434455,34.166659],[134.434228,34.166827],[134.433998,34.16703],[134.433695,34.167345],[134.433506,34.167568],[134.433113,34.167989],[134.432701,34.167768],[134.432095,34.167573],[134.431952,34.167598],[134.43177,34.167774],[134.431681,34.167908],[134.43159,34.167975],[134.431466,34.167992],[134.431063,34.167924],[134.430917,34.16789],[134.430776,34.167631],[134.430672,34.167397],[134.430465,34.167267],[134.430126,34.16725],[134.429709,34.167305],[134.429204,34.167429],[134.428792,34.167525],[134.42817,34.167469],[134.42796,34.167395],[134.427829,34.167249],[134.42763,34.167073],[134.427324,34.166749],[134.42715,34.166437],[134.427074,34.166192],[134.426559,34.166025],[134.425841,34.165796],[134.425494,34.165748],[134.425441,34.165682],[134.42533,34.165544],[134.425136,34.165331],[134.424822,34.164841],[134.424557,34.164423],[134.424132,34.163976],[134.423669,34.163537],[134.423293,34.163056],[134.422641,34.162367],[134.422334,34.161965],[134.422164,34.161568],[134.422104,34.161184],[134.4221,34.160827],[134.421948,34.160521],[134.421691,34.160318],[134.421289,34.160079],[134.42101,34.15985],[134.420945,34.159718],[134.420883,34.15959],[134.420696,34.159465],[134.42031,34.159347],[134.419986,34.159191],[134.419912,34.158889],[134.419937,34.158522],[134.419817,34.158168],[134.419557,34.157763],[134.419472,34.157669],[134.419379,34.157628],[134.419019,34.157578],[134.418553,34.157604],[134.418274,34.157575],[134.417997,34.15754],[134.417544,34.157435],[134.417261,34.157402],[134.41697,34.157376],[134.41634,34.157352],[134.416279,34.157341],[134.415779,34.15718],[134.415351,34.157004],[134.415176,34.156996],[134.414901,34.156981],[134.414686,34.156948],[134.414326,34.156845],[134.414127,34.156839],[134.413576,34.156888],[134.413134,34.156904],[134.412893,34.156951],[134.413539,34.156611],[134.413673,34.156513],[134.414026,34.156182],[134.414274,34.155948],[134.414864,34.155518],[134.415021,34.155395],[134.415489,34.155083],[134.415705,34.154808],[134.415812,34.154555],[134.415964,34.154164],[134.416089,34.154037],[134.416802,34.15359],[134.416911,34.153484],[134.417127,34.153195],[134.417192,34.152977],[134.417428,34.152502],[134.417669,34.152213],[134.417936,34.151902],[134.41817,34.151648],[134.418303,34.151486],[134.418356,34.151278],[134.418337,34.151089],[134.418292,34.150823],[134.41819,34.150575],[134.41799,34.1499],[134.418052,34.149517],[134.418458,34.149223],[134.418511,34.149159],[134.418585,34.149018],[134.418913,34.148723],[134.419303,34.148497],[134.419438,34.148308],[134.419608,34.148089],[134.419771,34.147934],[134.419825,34.147813],[134.419842,34.147476],[134.419973,34.147186],[134.420163,34.146933],[134.420434,34.14675],[134.4206,34.146674],[134.420807,34.14658],[134.420908,34.146551],[134.421246,34.146512],[134.42139,34.146465],[134.421528,34.14641],[134.421729,34.146335],[134.422047,34.146222],[134.422623,34.146118],[134.422982,34.145948],[134.423221,34.145809],[134.423237,34.1458],[134.423522,34.145431],[134.424177,34.145193],[134.424439,34.145197],[134.424839,34.145194],[134.425141,34.14519],[134.425358,34.145152],[134.425624,34.144995],[134.426227,34.144542],[134.426615,34.144216],[134.427037,34.143798],[134.427307,34.143491],[134.427341,34.143448],[134.427479,34.143278],[134.427488,34.143097],[134.427369,34.142971],[134.427256,34.142863],[134.427033,34.14238],[134.427004,34.142215],[134.426968,34.142015],[134.426957,34.141935],[134.426935,34.141801],[134.426966,34.141701],[134.427084,34.141514],[134.427111,34.141269],[134.42711,34.141179],[134.427021,34.14102],[134.426853,34.140768],[134.426771,34.140569],[134.426674,34.140424],[134.428565,34.13971],[134.431664,34.138394],[134.431728,34.138357],[134.431781,34.138239],[134.431838,34.138189],[134.432015,34.138128],[134.432343,34.138136],[134.43263,34.138162],[134.432906,34.138143],[134.433024,34.138112],[134.433151,34.138053],[134.433429,34.137928],[134.433659,34.137894],[134.433927,34.137882],[134.434393,34.137849],[134.434023,34.138169],[134.433666,34.13838],[134.433512,34.138494],[134.433435,34.138572],[134.433264,34.138814],[134.433216,34.138905],[134.433213,34.139013],[134.433238,34.139077],[134.433299,34.139162],[134.433367,34.139237],[134.43341,34.139364],[134.433408,34.139513],[134.433378,34.139572],[134.433325,34.139595],[134.433124,34.139571],[134.432947,34.139593],[134.432832,34.139653],[134.432751,34.139759],[134.432696,34.13988],[134.432658,34.140036],[134.432682,34.140094],[134.432805,34.140283],[134.432956,34.140726],[134.432934,34.140828],[134.432859,34.140921],[134.432594,34.141311],[134.432557,34.1418],[134.432527,34.141862],[134.432309,34.141995],[134.432139,34.142096],[134.432006,34.142219],[134.431943,34.142456],[134.431855,34.142563],[134.431795,34.142607],[134.431592,34.14276],[134.431492,34.14286],[134.431319,34.1429],[134.431527,34.143172],[134.431543,34.143271],[134.431358,34.143425],[134.43131,34.143503],[134.431323,34.143781],[134.431187,34.143999],[134.431191,34.144039],[134.431333,34.144192],[134.431444,34.144314],[134.431956,34.144141],[134.432128,34.144103],[134.43225,34.144112],[134.432407,34.144183],[134.432507,34.144294],[134.432563,34.144433],[134.43261,34.144667],[134.432634,34.144875],[134.432869,34.145557],[134.43306,34.145985],[134.433189,34.146115],[134.433506,34.146468],[134.433691,34.146626],[134.434184,34.14709],[134.43451,34.147345],[134.434675,34.147542],[134.434901,34.147877],[134.434947,34.147994],[134.435009,34.148229],[134.43496,34.148483],[134.434903,34.148737],[134.43492,34.14891],[134.434959,34.149071],[134.435098,34.149215],[134.435191,34.149334],[134.435308,34.149509],[134.435346,34.14958],[134.435507,34.149683],[134.435609,34.149748],[134.43564,34.1498],[134.435753,34.150152],[134.435813,34.150207],[134.435939,34.150315],[134.436071,34.15044],[134.436117,34.150526],[134.436136,34.150675],[134.436044,34.151049],[134.43609,34.151098],[134.436356,34.151329],[134.436462,34.151309],[134.436524,34.15129],[134.436584,34.151292],[134.436914,34.151435],[134.437131,34.151541],[134.437245,34.151604],[134.437339,34.151681],[134.437471,34.151847],[134.437563,34.151922],[134.437756,34.152072],[134.438159,34.152503],[134.438201,34.152587],[134.438194,34.152739],[134.4382,34.152785],[134.438235,34.15283],[134.438371,34.152915],[134.438564,34.153084],[134.438668,34.153164],[134.438795,34.153237],[134.438833,34.153277],[134.438889,34.153418],[134.438952,34.153504],[134.439027,34.153571],[134.439136,34.153784],[134.439191,34.153848],[134.43926,34.153904],[134.439353,34.154015],[134.439367,34.154237],[134.439402,34.154309],[134.439502,34.154436],[134.439538,34.154504],[134.43949,34.154643],[134.439488,34.154681],[134.439566,34.154825],[134.439665,34.154968],[134.439764,34.155067],[134.43974,34.15515],[134.439641,34.155487],[134.439605,34.155919],[134.439501,34.156238],[134.4394,34.156405],[134.439276,34.156605],[134.439175,34.156817],[134.439043,34.157037],[134.438916,34.157276],[134.438755,34.157538],[134.43848,34.157821],[134.437615,34.15842],[134.437319,34.158676],[134.437291,34.158831],[134.437321,34.15889],[134.437607,34.159084],[134.438309,34.159554],[134.438524,34.159749],[134.438841,34.160085],[134.438597,34.160326],[134.437964,34.160761],[134.437358,34.161448],[134.437288,34.161676],[134.437249,34.161769],[134.43727,34.161872],[134.437356,34.162378],[134.437285,34.162634],[134.437327,34.162804],[134.437304,34.1629],[134.437346,34.163079],[134.43723,34.163337],[134.437249,34.164174],[134.437253,34.164557],[134.437168,34.164906],[134.437066,34.165161]]]},"properties":{"S_NAME":"黒谷","HCODE":8101}},{"type":"Feature","geometry":{"type":"Polygon","coordinates":[[[134.442386,34.143719],[134.442787,34.143909],[134.442911,34.143994],[134.443375,34.144461],[134.443438,34.144609],[134.443485,34.144875],[134.443833,34.145273],[134.443875,34.145392],[134.443895,34.145572],[134.443902,34.146228],[134.443886,34.146421],[134.443902,34.14665],[134.444094,34.146917],[134.4441,34.147174],[134.444206,34.147808],[134.444174,34.147967],[134.444181,34.148099],[134.444225,34.148277],[134.444215,34.148639],[134.444213,34.14882],[134.444237,34.149013],[134.444343,34.149263],[134.444608,34.149626],[134.444807,34.14986],[134.444882,34.149986],[134.444927,34.150134],[134.444916,34.150352],[134.444872,34.150583],[134.444797,34.150817],[134.444645,34.151144],[134.444491,34.151302],[134.444142,34.151541],[134.443681,34.151775],[134.443493,34.151924],[134.443386,34.152176],[134.443352,34.152569],[134.443002,34.153374],[134.442889,34.153587],[134.442715,34.153961],[134.442529,34.154617],[134.442544,34.154894],[134.442547,34.155218],[134.442452,34.155415],[134.442353,34.155493],[134.442268,34.155545],[134.442199,34.155616],[134.442177,34.155687],[134.442186,34.155764],[134.442171,34.155816],[134.442101,34.155842],[134.442017,34.155881],[134.441757,34.156198],[134.441531,34.157122],[134.441509,34.157199],[134.441425,34.157277],[134.441326,34.157406],[134.441296,34.157503],[134.441228,34.157677],[134.441068,34.157896],[134.440814,34.158053],[134.440538,34.158215],[134.440454,34.158312],[134.440394,34.158551],[134.439258,34.159629],[134.438841,34.160085],[134.438524,34.159749],[134.438309,34.159554],[134.437607,34.159084],[134.437321,34.15889],[134.437291,34.158831],[134.437319,34.158676],[134.437615,34.15842],[134.43848,34.157821],[134.438755,34.157538],[134.438916,34.157276],[134.439043,34.157037],[134.439175,34.156817],[134.439276,34.156605],[134.4394,34.156405],[134.439501,34.156238],[134.439605,34.155919],[134.439641,34.155487],[134.43974,34.15515],[134.439764,34.155067],[134.439665,34.154968],[134.439566,34.154825],[134.439488,34.154681],[134.43949,34.154643],[134.439538,34.154504],[134.439502,34.154436],[134.439402,34.154309],[134.439367,34.154237],[134.439353,34.154015],[134.43926,34.153904],[134.439191,34.153848],[134.439136,34.153784],[134.439027,34.153571],[134.438952,34.153504],[134.438889,34.153418],[134.438833,34.153277],[134.438795,34.153237],[134.438668,34.153164],[134.438564,34.153084],[134.438371,34.152915],[134.438235,34.15283],[134.4382,34.152785],[134.438194,34.152739],[134.438201,34.152587],[134.438159,34.152503],[134.437756,34.152072],[134.437563,34.151922],[134.437471,34.151847],[134.437339,34.151681],[134.437245,34.151604],[134.437131,34.151541],[134.436914,34.151435],[134.436584,34.151292],[134.436524,34.15129],[134.436462,34.151309],[134.436356,34.151329],[134.43609,34.151098],[134.436044,34.151049],[134.436136,34.150675],[134.436117,34.150526],[134.436071,34.15044],[134.435939,34.150315],[134.435813,34.150207],[134.435753,34.150152],[134.43564,34.1498],[134.435609,34.149748],[134.435507,34.149683],[134.435346,34.14958],[134.435308,34.149509],[134.435191,34.149334],[134.435098,34.149215],[134.434959,34.149071],[134.43492,34.14891],[134.434903,34.148737],[134.43496,34.148483],[134.435009,34.148229],[134.434947,34.147994],[134.434901,34.147877],[134.434675,34.147542],[134.43451,34.147345],[134.434184,34.14709],[134.433691,34.146626],[134.433506,34.146468],[134.433189,34.146115],[134.43306,34.145985],[134.432869,34.145557],[134.432634,34.144875],[134.43261,34.144667],[134.432563,34.144433],[134.432507,34.144294],[134.432407,34.144183],[134.43225,34.144112],[134.432128,34.144103],[134.431956,34.144141],[134.431444,34.144314],[134.431333,34.144192],[134.431191,34.144039],[134.431187,34.143999],[134.431323,34.143781],[134.43131,34.143503],[134.431358,34.143425],[134.431543,34.143271],[134.431527,34.143172],[134.431319,34.1429],[134.431492,34.14286],[134.431592,34.14276],[134.431795,34.142607],[134.431855,34.142563],[134.431943,34.142456],[134.432006,34.142219],[134.432139,34.142096],[134.432309,34.141995],[134.432527,34.141862],[134.432557,34.1418],[134.432594,34.141311],[134.432859,34.140921],[134.432934,34.140828],[134.432956,34.140726],[134.432805,34.140283],[134.432922,34.140312],[134.433121,34.14031],[134.433263,34.140316],[134.433333,34.140329],[134.433392,34.140355],[134.433479,34.140374],[134.433528,34.140375],[134.433831,34.140297],[134.433938,34.140251],[134.434026,34.140231],[134.434194,34.140231],[134.434511,34.140206],[134.434731,34.140206],[134.434812,34.140213],[134.43489,34.140239],[134.434937,34.140282],[134.435032,34.140337],[134.435091,34.140347],[134.435198,34.140336],[134.435313,34.14029],[134.43539,34.140236],[134.435562,34.140036],[134.435724,34.139918],[134.43594,34.1398],[134.436138,34.139714],[134.436356,34.139644],[134.436401,34.139615],[134.436472,34.139456],[134.436541,34.139332],[134.436837,34.139264],[134.437066,34.139136],[134.437229,34.139003],[134.437276,34.138801],[134.437376,34.138748],[134.43767,34.138618],[134.43772,34.138533],[134.4378,34.138412],[134.437865,34.138316],[134.438055,34.138345],[134.43821,34.138383],[134.438296,34.138439],[134.438349,34.138534],[134.438405,34.138679],[134.438433,34.138714],[134.438482,34.138731],[134.438771,34.138734],[134.438955,34.138759],[134.43906,34.13876],[134.439108,34.138761],[134.439034,34.138941],[134.439006,34.139026],[134.438994,34.139103],[134.439001,34.139191],[134.439076,34.139452],[134.43907,34.139499],[134.439027,34.139553],[134.438856,34.13972],[134.438849,34.139811],[134.438877,34.139908],[134.438885,34.139932],[134.438947,34.140222],[134.438897,34.140345],[134.438867,34.140372],[134.43875,34.140486],[134.438705,34.14055],[134.438705,34.140591],[134.43873,34.140648],[134.438815,34.140739],[134.43894,34.140853],[134.439021,34.140958],[134.439131,34.141087],[134.439259,34.141184],[134.439384,34.141297],[134.439436,34.141342],[134.439561,34.141411],[134.439624,34.141448],[134.439754,34.141591],[134.439806,34.141662],[134.440088,34.141904],[134.440409,34.142205],[134.440463,34.142279],[134.44059,34.142506],[134.440606,34.142578],[134.440585,34.142626],[134.440325,34.142868],[134.440268,34.142924],[134.440264,34.142983],[134.440314,34.143045],[134.440444,34.143199],[134.440592,34.143469],[134.440645,34.143491],[134.44077,34.143534],[134.440846,34.143597],[134.44091,34.143699],[134.441035,34.143816],[134.441241,34.143981],[134.441264,34.144047],[134.441305,34.14415],[134.441386,34.144231],[134.441527,34.144333],[134.441714,34.144425],[134.441844,34.144503],[134.441923,34.144479],[134.442068,34.144386],[134.442304,34.143825],[134.442386,34.143719]]]},"properties":{"S_NAME":"松谷","HCODE":8101}},{"type":"Feature","geometry":{"type":"Polygon","coordinates":[[[134.464585,34.176339],[134.464348,34.176411],[134.46292,34.177449],[134.462634,34.177611],[134.46236,34.177802],[134.461341,34.178906],[134.460639,34.17944],[134.460152,34.179803],[134.459514,34.180141],[134.459324,34.180312],[134.459278,34.180502],[134.459278,34.181085],[134.459221,34.181305],[134.458973,34.181645],[134.458533,34.182027],[134.458309,34.182348],[134.457693,34.183594],[134.45741,34.184044],[134.457197,34.184285],[134.456363,34.1848],[134.456014,34.185176],[134.455543,34.186017],[134.455009,34.187052],[134.454892,34.187362],[134.454944,34.187671],[134.455086,34.187881],[134.455256,34.188221],[134.455315,34.188381],[134.455473,34.189256],[134.455773,34.190131],[134.456167,34.190805],[134.456238,34.190952],[134.456233,34.191076],[134.456139,34.191211],[134.455886,34.191372],[134.455498,34.191618],[134.455314,34.191749],[134.455201,34.191874],[134.455011,34.192256],[134.454806,34.192455],[134.454693,34.192503],[134.454511,34.192547],[134.454108,34.192503],[134.453696,34.192449],[134.453291,34.192435],[134.452278,34.192467],[134.451947,34.192445],[134.451088,34.192327],[134.450756,34.192367],[134.450447,34.192422],[134.450241,34.192476],[134.450033,34.192375],[134.449659,34.192184],[134.449484,34.192135],[134.44934,34.192111],[134.449107,34.192158],[134.448406,34.192525],[134.448212,34.192613],[134.448022,34.192527],[134.447194,34.192237],[134.446929,34.192195],[134.446434,34.192136],[134.446008,34.19211],[134.445182,34.192004],[134.444704,34.191975],[134.444197,34.191956],[134.443975,34.191978],[134.442222,34.192109],[134.44182,34.192092],[134.441219,34.191957],[134.439384,34.191221],[134.439096,34.191208],[134.439049,34.190938],[134.43891,34.19082],[134.438882,34.190783],[134.438851,34.190468],[134.438834,34.190413],[134.438744,34.190317],[134.438524,34.190106],[134.438479,34.190042],[134.43846,34.189781],[134.438431,34.189708],[134.438231,34.189536],[134.438021,34.189297],[134.437849,34.189207],[134.4378,34.189193],[134.437137,34.189107],[134.436661,34.18901],[134.436595,34.188983],[134.436477,34.1888],[134.436321,34.188637],[134.436138,34.188552],[134.43604,34.188493],[134.435804,34.188294],[134.43547,34.188045],[134.435242,34.187885],[134.435097,34.187791],[134.435022,34.187757],[134.434776,34.187681],[134.434482,34.187617],[134.43445,34.187584],[134.434201,34.187331],[134.434132,34.187308],[134.434028,34.187303],[134.433729,34.187326],[134.433458,34.187331],[134.433288,34.18726],[134.432888,34.186997],[134.4325,34.18673],[134.432138,34.186588],[134.431838,34.186522],[134.4311,34.185355],[134.430825,34.185155],[134.430413,34.184947],[134.430213,34.184772],[134.429913,34.183622],[134.429313,34.183397],[134.429176,34.183147],[134.429151,34.18283],[134.429226,34.182447],[134.429338,34.181705],[134.429451,34.181431],[134.429638,34.181164],[134.429678,34.181081],[134.429826,34.18078],[134.429938,34.180422],[134.430101,34.180131],[134.430326,34.179289],[134.430576,34.178956],[134.43085,34.178889],[134.43225,34.178822],[134.432738,34.178772],[134.4331,34.178797],[134.433213,34.178839],[134.43345,34.178864],[134.43365,34.178681],[134.433863,34.178072],[134.4337,34.177148],[134.433788,34.176364],[134.433838,34.176223],[134.433925,34.175681],[134.434138,34.175098],[134.434138,34.174764],[134.434063,34.174489],[134.433813,34.174314],[134.433475,34.174156],[134.4331,34.173589],[134.432788,34.173231],[134.432738,34.172939],[134.432925,34.172664],[134.433225,34.172415],[134.433475,34.172106],[134.433775,34.170956],[134.433938,34.169965],[134.43385,34.16969],[134.43385,34.169581],[134.433675,34.16929],[134.433438,34.169065],[134.433366,34.168942],[134.433383,34.168721],[134.433448,34.168357],[134.433366,34.168221],[134.433113,34.167989],[134.433506,34.167568],[134.433695,34.167345],[134.433998,34.16703],[134.434228,34.166827],[134.434455,34.166659],[134.435042,34.166319],[134.435839,34.165892],[134.436425,34.165593],[134.437066,34.165161],[134.437429,34.165214],[134.438112,34.165341],[134.438659,34.165431],[134.439297,34.165577],[134.439829,34.1657],[134.440361,34.165813],[134.440852,34.165891],[134.441125,34.165898],[134.441547,34.165734],[134.441701,34.165573],[134.44227,34.164651],[134.442524,34.164437],[134.44328,34.164049],[134.443439,34.163922],[134.443655,34.163599],[134.443856,34.163397],[134.444094,34.163291],[134.444449,34.163286],[134.444825,34.163378],[134.445326,34.163497],[134.445553,34.163493],[134.446291,34.16316],[134.446724,34.162999],[134.447222,34.162887],[134.447671,34.162892],[134.448147,34.163025],[134.448479,34.163255],[134.449007,34.163653],[134.449138,34.163718],[134.449228,34.163734],[134.449408,34.163733],[134.449376,34.163625],[134.449163,34.16319],[134.449022,34.162749],[134.448993,34.162327],[134.44901,34.162037],[134.449088,34.161679],[134.44905,34.161362],[134.449064,34.161084],[134.449118,34.160855],[134.449243,34.160653],[134.449567,34.160285],[134.449763,34.160095],[134.450063,34.15985],[134.450312,34.159673],[134.45063,34.159512],[134.451186,34.159253],[134.451916,34.158961],[134.452137,34.158858],[134.452259,34.158787],[134.452349,34.15872],[134.452435,34.158622],[134.45256,34.158399],[134.452751,34.158101],[134.45283,34.157984],[134.4529,34.157948],[134.452981,34.157938],[134.453032,34.157913],[134.453301,34.157437],[134.453413,34.157306],[134.4536,34.157166],[134.453847,34.157024],[134.454025,34.156885],[134.45419,34.156622],[134.454359,34.156258],[134.454493,34.155953],[134.45463,34.155623],[134.454742,34.155356],[134.454868,34.155418],[134.454998,34.15549],[134.455119,34.155642],[134.45518,34.155605],[134.455256,34.155514],[134.455296,34.155409],[134.455367,34.155165],[134.455431,34.155018],[134.455577,34.154782],[134.455842,34.15435],[134.456363,34.153693],[134.456691,34.153897],[134.457075,34.154223],[134.457291,34.154457],[134.457721,34.154958],[134.457847,34.155107],[134.458208,34.155368],[134.458301,34.155498],[134.458438,34.155714],[134.458619,34.156008],[134.458803,34.156384],[134.458851,34.156531],[134.458878,34.156683],[134.45886,34.156911],[134.458838,34.157111],[134.459192,34.157167],[134.459623,34.157235],[134.460332,34.15731],[134.460612,34.157334],[134.461275,34.157106],[134.462367,34.156723],[134.462703,34.1566],[134.46268,34.156403],[134.462482,34.156039],[134.46335,34.156296],[134.463727,34.156417],[134.464923,34.156774],[134.465275,34.157008],[134.465472,34.157274],[134.465564,34.157544],[134.465768,34.157787],[134.466017,34.15801],[134.466,34.158183],[134.465995,34.15843],[134.466022,34.158736],[134.466078,34.158971],[134.466219,34.15922],[134.466308,34.159466],[134.466347,34.15975],[134.466429,34.160127],[134.466457,34.160551],[134.465721,34.161269],[134.465648,34.161307],[134.465606,34.161326],[134.465515,34.161362],[134.465411,34.161396],[134.465358,34.161412],[134.465312,34.161425],[134.465269,34.161435],[134.465206,34.161444],[134.465166,34.161446],[134.465139,34.161449],[134.465121,34.161453],[134.465107,34.161463],[134.465096,34.161478],[134.465082,34.161501],[134.465063,34.161537],[134.465039,34.161585],[134.465018,34.16164],[134.465004,34.161694],[134.464993,34.161746],[134.464977,34.161794],[134.464952,34.161835],[134.464937,34.161854],[134.464897,34.16189],[134.46485,34.161925],[134.464796,34.161957],[134.464739,34.161986],[134.464676,34.162014],[134.464607,34.16204],[134.464534,34.162067],[134.464462,34.162098],[134.46443,34.162113],[134.464373,34.162147],[134.464328,34.162182],[134.464294,34.162213],[134.464265,34.162251],[134.464226,34.162303],[134.464181,34.162366],[134.464141,34.162426],[134.464114,34.162476],[134.463978,34.162786],[134.46396,34.162818],[134.463948,34.162835],[134.463934,34.162851],[134.46392,34.162865],[134.463862,34.162905],[134.463796,34.162939],[134.46373,34.162979],[134.463669,34.163023],[134.463613,34.163074],[134.463563,34.163128],[134.463522,34.163186],[134.463496,34.163247],[134.463482,34.163307],[134.463476,34.163362],[134.46347,34.163408],[134.463456,34.163459],[134.463444,34.163491],[134.463403,34.163571],[134.463358,34.163657],[134.463323,34.163728],[134.463303,34.163779],[134.46329,34.163819],[134.463275,34.163856],[134.463255,34.163899],[134.463221,34.163956],[134.46318,34.164024],[134.463145,34.164099],[134.463133,34.164134],[134.463121,34.164204],[134.463113,34.164272],[134.463096,34.164336],[134.463071,34.164396],[134.463055,34.164423],[134.463013,34.164467],[134.46299,34.164487],[134.462938,34.164517],[134.462881,34.164538],[134.462826,34.164554],[134.462777,34.164569],[134.462755,34.164579],[134.462736,34.164593],[134.462717,34.164611],[134.462681,34.164668],[134.462644,34.164745],[134.462604,34.164826],[134.462557,34.164893],[134.462505,34.164954],[134.462451,34.16502],[134.462399,34.165091],[134.462352,34.165155],[134.46231,34.165204],[134.462275,34.165244],[134.462245,34.165284],[134.462231,34.165305],[134.46222,34.165327],[134.462213,34.165352],[134.46221,34.165378],[134.462211,34.165405],[134.462223,34.165465],[134.462242,34.165532],[134.462257,34.165602],[134.462265,34.165676],[134.462266,34.165714],[134.462259,34.16579],[134.462252,34.165867],[134.462247,34.165948],[134.462251,34.166038],[134.46226,34.166139],[134.462271,34.166256],[134.462283,34.166381],[134.462297,34.166506],[134.462311,34.166622],[134.462326,34.166721],[134.462342,34.1668],[134.462363,34.166877],[134.462393,34.166973],[134.462432,34.167087],[134.462478,34.167192],[134.462501,34.167233],[134.462554,34.167305],[134.462613,34.167379],[134.46268,34.167474],[134.462744,34.167571],[134.462787,34.167645],[134.4628,34.167671],[134.462808,34.167696],[134.462818,34.167754],[134.462824,34.167841],[134.462832,34.167939],[134.462841,34.168024],[134.462856,34.168094],[134.462879,34.168175],[134.462907,34.168284],[134.462936,34.168404],[134.462954,34.168509],[134.46296,34.168593],[134.462953,34.168666],[134.46293,34.168742],[134.462899,34.168827],[134.462867,34.168924],[134.462834,34.169034],[134.462805,34.169159],[134.462778,34.169294],[134.462746,34.169425],[134.462728,34.169484],[134.462704,34.169535],[134.462651,34.169621],[134.462598,34.169694],[134.462551,34.169764],[134.462509,34.169837],[134.46247,34.169914],[134.462442,34.16997],[134.462431,34.169992],[134.462388,34.170065],[134.462342,34.170127],[134.46232,34.170159],[134.462299,34.170196],[134.462281,34.17024],[134.462265,34.170291],[134.46224,34.170411],[134.462219,34.170534],[134.462193,34.170642],[134.462163,34.170758],[134.46213,34.170905],[134.462094,34.171076],[134.462062,34.171229],[134.462034,34.171334],[134.462008,34.171412],[134.461977,34.171496],[134.461943,34.171594],[134.461907,34.171692],[134.461856,34.171818],[134.461812,34.171937],[134.461797,34.171986],[134.46179,34.172014],[134.461791,34.172029],[134.461798,34.172037],[134.461808,34.172046],[134.461817,34.172058],[134.461823,34.172073],[134.461823,34.172091],[134.461814,34.172107],[134.461797,34.172124],[134.461775,34.172143],[134.461752,34.172165],[134.461727,34.17219],[134.4617,34.172222],[134.461672,34.17226],[134.461643,34.172306],[134.461611,34.172357],[134.461578,34.172413],[134.46154,34.17247],[134.4615,34.172526],[134.461456,34.172582],[134.46141,34.172638],[134.461361,34.172694],[134.461314,34.172749],[134.461272,34.172803],[134.46124,34.172853],[134.461217,34.172902],[134.461198,34.172953],[134.461179,34.173009],[134.461155,34.17307],[134.461127,34.173136],[134.461102,34.1732],[134.461079,34.173259],[134.461061,34.173311],[134.461046,34.173359],[134.461034,34.173405],[134.461117,34.173425],[134.461155,34.173441],[134.461189,34.173461],[134.461219,34.173488],[134.461244,34.173518],[134.461268,34.17355],[134.46129,34.173581],[134.461318,34.173614],[134.461352,34.173649],[134.4614,34.17369],[134.46146,34.173732],[134.461528,34.173773],[134.4616,34.173809],[134.461635,34.173822],[134.461705,34.173841],[134.46177,34.173852],[134.461829,34.173854],[134.461881,34.173849],[134.461929,34.173841],[134.461976,34.17383],[134.462025,34.17382],[134.462078,34.173812],[134.462133,34.17381],[134.462185,34.173816],[134.462233,34.17383],[134.462277,34.17385],[134.462323,34.173872],[134.462371,34.17389],[134.46242,34.173905],[134.46247,34.173919],[134.462519,34.173936],[134.462564,34.173956],[134.462604,34.173981],[134.46264,34.174013],[134.462673,34.174049],[134.462701,34.174091],[134.462726,34.174138],[134.462749,34.174191],[134.462769,34.174249],[134.462792,34.174309],[134.462821,34.174369],[134.462859,34.174427],[134.462905,34.174477],[134.462957,34.174517],[134.46301,34.174543],[134.46306,34.174552],[134.463113,34.174555],[134.463175,34.174565],[134.463212,34.174575],[134.463252,34.17459],[134.463297,34.174611],[134.463392,34.174659],[134.463489,34.174712],[134.463577,34.174756],[134.463656,34.174793],[134.463731,34.174826],[134.463806,34.174864],[134.463884,34.174912],[134.463957,34.174964],[134.464014,34.175017],[134.464034,34.175042],[134.464045,34.175064],[134.464053,34.175107],[134.464052,34.175129],[134.464055,34.175183],[134.464063,34.175218],[134.464093,34.175301],[134.464138,34.175396],[134.464185,34.175493],[134.46422,34.175575],[134.464244,34.175644],[134.464264,34.175707],[134.464288,34.175773],[134.46432,34.175846],[134.464359,34.175921],[134.464401,34.175991],[134.464438,34.176049],[134.464478,34.176102],[134.464585,34.176339]]]},"properties":{"S_NAME":"大坂","HCODE":8101}},{"type":"Feature","geometry":{"type":"Polygon","coordinates":[[[134.454308,34.145193],[134.454178,34.144712],[134.454377,34.144848],[134.454588,34.145013],[134.454672,34.145387],[134.454782,34.1454],[134.456042,34.14595],[134.456152,34.145829],[134.456236,34.145941],[134.458126,34.146161],[134.458073,34.146332],[134.458028,34.146434],[134.457993,34.146505],[134.457906,34.146714],[134.458524,34.146731],[134.458519,34.146642],[134.458487,34.146429],[134.458494,34.146314],[134.45854,34.146166],[134.458613,34.146093],[134.458804,34.14595],[134.458895,34.145854],[134.459061,34.145678],[134.459322,34.14546],[134.459397,34.145505],[134.459516,34.145414],[134.459663,34.145348],[134.459788,34.145309],[134.459924,34.145277],[134.460028,34.145244],[134.460135,34.145168],[134.460268,34.14503],[134.460401,34.144899],[134.460558,34.144816],[134.460686,34.144724],[134.460862,34.144572],[134.461134,34.144224],[134.461213,34.144051],[134.461259,34.143917],[134.461295,34.143724],[134.46131,34.143592],[134.461996,34.143602],[134.462351,34.143501],[134.462338,34.143808],[134.463306,34.143839],[134.463254,34.14422],[134.463224,34.144548],[134.463214,34.144687],[134.463198,34.144829],[134.463178,34.144902],[134.463032,34.145216],[134.462993,34.145438],[134.462929,34.14593],[134.462877,34.146618],[134.463271,34.146694],[134.463667,34.146757],[134.464391,34.146866],[134.464671,34.146936],[134.465221,34.147128],[134.465487,34.147064],[134.465491,34.147167],[134.465431,34.147343],[134.465413,34.147498],[134.465437,34.147602],[134.465596,34.147858],[134.465628,34.147979],[134.465667,34.148115],[134.465782,34.14823],[134.466177,34.148517],[134.466268,34.148629],[134.466304,34.148721],[134.466305,34.148798],[134.466271,34.148895],[134.466148,34.149106],[134.466104,34.149205],[134.466077,34.149344],[134.466057,34.149516],[134.466096,34.149677],[134.46617,34.149856],[134.466191,34.149916],[134.466214,34.149982],[134.466205,34.150148],[134.466202,34.150222],[134.466266,34.150385],[134.466284,34.150481],[134.466258,34.150882],[134.466211,34.150929],[134.466096,34.151003],[134.465987,34.151061],[134.465971,34.151086],[134.465977,34.151334],[134.465992,34.151506],[134.466003,34.151607],[134.465997,34.151715],[134.465989,34.151813],[134.465989,34.151903],[134.466033,34.152143],[134.466027,34.152215],[134.466008,34.152277],[134.465973,34.152331],[134.465622,34.152467],[134.465606,34.152499],[134.465767,34.153248],[134.465923,34.153768],[134.466158,34.154221],[134.466427,34.154516],[134.466603,34.15482],[134.466586,34.154924],[134.466506,34.155077],[134.466447,34.155274],[134.466358,34.155716],[134.466187,34.156747],[134.466083,34.157074],[134.465998,34.157446],[134.465997,34.157662],[134.466017,34.15801],[134.465768,34.157787],[134.465564,34.157544],[134.465472,34.157274],[134.465275,34.157008],[134.464923,34.156774],[134.463727,34.156417],[134.46335,34.156296],[134.462482,34.156039],[134.46268,34.156403],[134.462703,34.1566],[134.462367,34.156723],[134.461275,34.157106],[134.460612,34.157334],[134.460332,34.15731],[134.459623,34.157235],[134.459192,34.157167],[134.458838,34.157111],[134.45886,34.156911],[134.458878,34.156683],[134.458851,34.156531],[134.458803,34.156384],[134.458619,34.156008],[134.458438,34.155714],[134.458301,34.155498],[134.458208,34.155368],[134.457847,34.155107],[134.457721,34.154958],[134.457291,34.154457],[134.457075,34.154223],[134.456691,34.153897],[134.456363,34.153693],[134.455842,34.15435],[134.455577,34.154782],[134.455431,34.155018],[134.455367,34.155165],[134.455296,34.155409],[134.455256,34.155514],[134.45518,34.155605],[134.455119,34.155642],[134.454998,34.15549],[134.454868,34.155418],[134.454742,34.155356],[134.454403,34.15519],[134.453845,34.154872],[134.453451,34.15482],[134.453037,34.154752],[134.452704,34.154617],[134.452705,34.154519],[134.452762,34.154361],[134.452869,34.154215],[134.453043,34.154074],[134.453586,34.153755],[134.453936,34.153436],[134.454095,34.153166],[134.453967,34.152331],[134.45371,34.151911],[134.453629,34.1517],[134.453608,34.151578],[134.453596,34.151407],[134.453542,34.150983],[134.453549,34.150714],[134.453595,34.150404],[134.453631,34.150151],[134.453673,34.150008],[134.45377,34.149851],[134.45394,34.149708],[134.45453,34.149358],[134.45501,34.14903],[134.455159,34.148853],[134.455318,34.148626],[134.455444,34.148225],[134.455441,34.147948],[134.455384,34.147732],[134.455058,34.14694],[134.454929,34.146669],[134.454857,34.146506],[134.454708,34.146159],[134.454602,34.145907],[134.454308,34.145193]]]},"properties":{"S_NAME":"吹田","HCODE":8101}},{"type":"Feature","geometry":{"type":"Polygon","coordinates":[[[134.474034,34.129964],[134.473321,34.131452],[134.472536,34.133169],[134.472397,34.133444],[134.472222,34.13382],[134.471627,34.134926],[134.471064,34.136198],[134.470421,34.137644],[134.470259,34.137904],[134.469939,34.138461],[134.469768,34.138806],[134.469069,34.140174],[134.469326,34.140258],[134.469397,34.140263],[134.469378,34.140371],[134.469157,34.141071],[134.468987,34.141604],[134.468911,34.141855],[134.468844,34.142077],[134.468703,34.142356],[134.468501,34.142781],[134.468358,34.143112],[134.468345,34.143287],[134.468358,34.143382],[134.468394,34.143756],[134.468389,34.143878],[134.468325,34.144033],[134.468191,34.144379],[134.468137,34.144527],[134.46812,34.144745],[134.468106,34.145019],[134.468099,34.145342],[134.468117,34.145465],[134.468168,34.145667],[134.46828,34.146124],[134.468365,34.146278],[134.468418,34.146667],[134.468316,34.146784],[134.468339,34.147202],[134.468317,34.147412],[134.468168,34.147894],[134.468311,34.148067],[134.468476,34.148196],[134.468566,34.148348],[134.468663,34.148596],[134.468746,34.148957],[134.468733,34.149118],[134.468721,34.149162],[134.468709,34.149215],[134.468704,34.149295],[134.468685,34.149506],[134.468667,34.149668],[134.468608,34.14984],[134.468596,34.149961],[134.468735,34.150398],[134.46884,34.150784],[134.468959,34.151027],[134.468981,34.151057],[134.469332,34.151587],[134.469487,34.151898],[134.469556,34.152083],[134.469575,34.152325],[134.469516,34.152519],[134.469276,34.152925],[134.46888,34.153197],[134.468819,34.153261],[134.468801,34.153324],[134.468799,34.153831],[134.468815,34.153997],[134.468824,34.154094],[134.468877,34.154163],[134.469104,34.154345],[134.469386,34.154645],[134.469478,34.154771],[134.469488,34.154857],[134.469444,34.155158],[134.46941,34.155486],[134.469489,34.155611],[134.469716,34.155934],[134.469791,34.156066],[134.46988,34.156239],[134.469903,34.156462],[134.469928,34.156675],[134.469955,34.156856],[134.469984,34.157134],[134.469982,34.157447],[134.469867,34.157421],[134.469805,34.157422],[134.469689,34.157437],[134.469576,34.15748],[134.469492,34.157546],[134.469359,34.15767],[134.469298,34.157724],[134.469234,34.157771],[134.469084,34.15785],[134.468949,34.157915],[134.468882,34.157943],[134.468848,34.157974],[134.468805,34.158067],[134.468775,34.158198],[134.468764,34.158299],[134.468722,34.158367],[134.468637,34.158484],[134.468568,34.158582],[134.468371,34.158784],[134.468206,34.158922],[134.468003,34.159077],[134.467956,34.159129],[134.467848,34.159265],[134.467797,34.159343],[134.467705,34.159614],[134.467621,34.159847],[134.467581,34.159942],[134.46741,34.16042],[134.467427,34.160538],[134.467493,34.160659],[134.467654,34.160787],[134.467912,34.16092],[134.467599,34.160923],[134.467464,34.160947],[134.467213,34.160784],[134.466984,34.160679],[134.466698,34.160604],[134.466457,34.160551],[134.466429,34.160127],[134.466347,34.15975],[134.466308,34.159466],[134.466219,34.15922],[134.466078,34.158971],[134.466022,34.158736],[134.465995,34.15843],[134.466,34.158183],[134.466017,34.15801],[134.465997,34.157662],[134.465998,34.157446],[134.466083,34.157074],[134.466187,34.156747],[134.466358,34.155716],[134.466447,34.155274],[134.466506,34.155077],[134.466586,34.154924],[134.466603,34.15482],[134.466427,34.154516],[134.466158,34.154221],[134.465923,34.153768],[134.465767,34.153248],[134.465606,34.152499],[134.465622,34.152467],[134.465973,34.152331],[134.466008,34.152277],[134.466027,34.152215],[134.466033,34.152143],[134.465989,34.151903],[134.465989,34.151813],[134.465997,34.151715],[134.466003,34.151607],[134.465992,34.151506],[134.465977,34.151334],[134.465971,34.151086],[134.465987,34.151061],[134.466096,34.151003],[134.466211,34.150929],[134.466258,34.150882],[134.466284,34.150481],[134.466266,34.150385],[134.466202,34.150222],[134.466205,34.150148],[134.466214,34.149982],[134.466191,34.149916],[134.46617,34.149856],[134.466096,34.149677],[134.466057,34.149516],[134.466077,34.149344],[134.466104,34.149205],[134.466148,34.149106],[134.466271,34.148895],[134.466305,34.148798],[134.466304,34.148721],[134.466268,34.148629],[134.466177,34.148517],[134.465782,34.14823],[134.465667,34.148115],[134.465628,34.147979],[134.465596,34.147858],[134.465437,34.147602],[134.465413,34.147498],[134.465431,34.147343],[134.465491,34.147167],[134.465487,34.147064],[134.465221,34.147128],[134.464671,34.146936],[134.464391,34.146866],[134.463667,34.146757],[134.463271,34.146694],[134.462877,34.146618],[134.462929,34.14593],[134.462993,34.145438],[134.463032,34.145216],[134.463178,34.144902],[134.463198,34.144829],[134.463214,34.144687],[134.463224,34.144548],[134.463254,34.14422],[134.463306,34.143839],[134.462338,34.143808],[134.462351,34.143501],[134.461996,34.143602],[134.46131,34.143592],[134.461295,34.143724],[134.461259,34.143917],[134.461213,34.144051],[134.461134,34.144224],[134.460862,34.144572],[134.460686,34.144724],[134.460558,34.144816],[134.460401,34.144899],[134.460268,34.14503],[134.460135,34.145168],[134.460028,34.145244],[134.459924,34.145277],[134.459788,34.145309],[134.459663,34.145348],[134.459516,34.145414],[134.459397,34.145505],[134.459322,34.14546],[134.459061,34.145678],[134.458895,34.145854],[134.458804,34.14595],[134.458613,34.146093],[134.45854,34.146166],[134.458494,34.146314],[134.458487,34.146429],[134.458519,34.146642],[134.458524,34.146731],[134.457906,34.146714],[134.457993,34.146505],[134.458028,34.146434],[134.458073,34.146332],[134.458126,34.146161],[134.456236,34.145941],[134.456152,34.145829],[134.456042,34.14595],[134.454782,34.1454],[134.454672,34.145387],[134.454588,34.145013],[134.454377,34.144848],[134.454178,34.144712],[134.454308,34.145193],[134.454198,34.145059],[134.454114,34.144942],[134.453988,34.144782],[134.45383,34.144611],[134.453581,34.144387],[134.453376,34.14419],[134.453278,34.144053],[134.453246,34.143917],[134.453258,34.143677],[134.453245,34.143546],[134.453195,34.1434],[134.45305,34.143003],[134.452992,34.14291],[134.452936,34.142812],[134.452875,34.142756],[134.452833,34.142699],[134.452843,34.142633],[134.452925,34.142571],[134.453038,34.142529],[134.453235,34.142484],[134.453483,34.142469],[134.454003,34.142476],[134.454309,34.142451],[134.454451,34.142428],[134.454695,34.142329],[134.454952,34.142316],[134.455176,34.142294],[134.455701,34.142357],[134.455938,34.142346],[134.456089,34.142234],[134.456195,34.142129],[134.45631,34.141975],[134.45635,34.141909],[134.456383,34.141812],[134.456363,34.141749],[134.456322,34.141693],[134.456111,34.14152],[134.456076,34.141496],[134.455978,34.141435],[134.455879,34.141401],[134.456326,34.140987],[134.456517,34.14085],[134.456783,34.140663],[134.457175,34.140397],[134.458082,34.139925],[134.458199,34.139464],[134.458271,34.139143],[134.458301,34.138975],[134.458288,34.138843],[134.458262,34.138726],[134.458226,34.138511],[134.45814,34.13822],[134.457764,34.137194],[134.457451,34.137316],[134.457018,34.13747],[134.456663,34.137569],[134.456334,34.137626],[134.455797,34.137664],[134.454761,34.137711],[134.454703,34.13725],[134.454699,34.136887],[134.454746,34.136443],[134.454859,34.135742],[134.454926,34.13537],[134.455019,34.134957],[134.455162,34.134274],[134.455322,34.133483],[134.455382,34.133129],[134.455512,34.132553],[134.45554,34.132392],[134.455586,34.132274],[134.455714,34.132005],[134.455818,34.131806],[134.456005,34.131484],[134.456178,34.131181],[134.456362,34.13086],[134.456463,34.130695],[134.45657,34.13057],[134.456699,34.130494],[134.456741,34.130289],[134.456783,34.130018],[134.456807,34.129568],[134.456819,34.129175],[134.457022,34.128547],[134.457253,34.128002],[134.457427,34.127589],[134.457748,34.127658],[134.457949,34.127708],[134.458052,34.127703],[134.458216,34.127682],[134.458662,34.127538],[134.45877,34.127526],[134.458934,34.12755],[134.459054,34.12758],[134.459211,34.127644],[134.459286,34.127662],[134.459391,34.127667],[134.459563,34.127682],[134.459691,34.127692],[134.459799,34.12772],[134.45987,34.12775],[134.459952,34.127784],[134.460321,34.127974],[134.460432,34.128055],[134.460515,34.128126],[134.460752,34.12836],[134.46095,34.128509],[134.461064,34.128635],[134.46114,34.128734],[134.461192,34.12878],[134.461501,34.129029],[134.461577,34.129068],[134.461672,34.12911],[134.461746,34.12916],[134.461955,34.129325],[134.462363,34.129509],[134.462478,34.129547],[134.462607,34.129565],[134.462663,34.129569],[134.462841,34.129624],[134.462912,34.12967],[134.462959,34.129694],[134.463005,34.129698],[134.463063,34.12947],[134.463143,34.129207],[134.463141,34.129086],[134.463105,34.128847],[134.463038,34.128002],[134.463114,34.128021],[134.463251,34.128152],[134.463391,34.128392],[134.463665,34.128539],[134.463864,34.128626],[134.46413,34.128718],[134.464572,34.128824],[134.464945,34.128905],[134.465167,34.128938],[134.465706,34.128985],[134.467524,34.129185],[134.468076,34.129237],[134.468984,34.129345],[134.470375,34.129503],[134.472945,34.129825],[134.473983,34.129956],[134.474034,34.129964]]]},"properties":{"S_NAME":"大寺","HCODE":8101}},{"type":"Feature","geometry":{"type":"Polygon","coordinates":[[[134.474034,34.129964],[134.475965,34.130268],[134.47661,34.130518],[134.476593,34.130679],[134.477112,34.130708],[134.477455,34.132562],[134.477599,34.133227],[134.477774,34.134402],[134.47792,34.135541],[134.477924,34.135573],[134.478181,34.137229],[134.477196,34.137556],[134.477202,34.137595],[134.477342,34.138564],[134.477375,34.138897],[134.47744,34.139565],[134.477478,34.139649],[134.477834,34.139998],[134.47831,34.140552],[134.478689,34.140869],[134.479248,34.141283],[134.480447,34.142066],[134.481319,34.142592],[134.481873,34.142916],[134.48195,34.142848],[134.482239,34.14303],[134.481963,34.143446],[134.482036,34.143494],[134.482137,34.143558],[134.482216,34.143621],[134.482329,34.143712],[134.482544,34.143928],[134.482908,34.144259],[134.483203,34.144602],[134.483263,34.144673],[134.483482,34.144887],[134.483668,34.145069],[134.48367,34.145071],[134.48369,34.145092],[134.483881,34.145296],[134.484022,34.145436],[134.484137,34.145557],[134.48425,34.145675],[134.484458,34.145937],[134.484769,34.14632],[134.484939,34.146562],[134.485273,34.146942],[134.485593,34.14727],[134.48591,34.147485],[134.486216,34.147669],[134.486491,34.147817],[134.486527,34.147832],[134.486855,34.147969],[134.486897,34.147983],[134.486963,34.147999],[134.486614,34.148375],[134.486513,34.1484],[134.486498,34.148403],[134.486439,34.148401],[134.48636,34.148336],[134.486278,34.148323],[134.486184,34.148332],[134.486152,34.148335],[134.486109,34.148338],[134.48607,34.148346],[134.486026,34.148365],[134.485982,34.148391],[134.485981,34.148392],[134.485979,34.148393],[134.485973,34.148397],[134.485969,34.148399],[134.485959,34.148405],[134.485938,34.148418],[134.48591,34.148436],[134.485878,34.14845],[134.485852,34.148457],[134.485811,34.148459],[134.485732,34.148459],[134.485697,34.148466],[134.485662,34.148485],[134.485651,34.148502],[134.485648,34.148533],[134.485655,34.148602],[134.485667,34.148688],[134.485682,34.148748],[134.485699,34.148795],[134.485701,34.148801],[134.485703,34.148807],[134.485711,34.148828],[134.485715,34.148838],[134.485717,34.148842],[134.485734,34.148882],[134.485735,34.148884],[134.48575,34.148926],[134.485756,34.148958],[134.485755,34.148985],[134.48574,34.149023],[134.485735,34.14903],[134.485724,34.149044],[134.485719,34.149051],[134.485709,34.149063],[134.485708,34.149064],[134.485705,34.149069],[134.485697,34.149078],[134.48569,34.149087],[134.48567,34.149114],[134.485664,34.149123],[134.485642,34.149165],[134.485623,34.149224],[134.485613,34.149262],[134.485615,34.149281],[134.485636,34.149325],[134.485689,34.149398],[134.485689,34.149399],[134.485735,34.149459],[134.485762,34.149489],[134.485778,34.149506],[134.485791,34.149512],[134.485816,34.149523],[134.485844,34.149525],[134.485848,34.149539],[134.485847,34.149564],[134.485844,34.149641],[134.485837,34.149814],[134.485835,34.149864],[134.485834,34.14989],[134.485833,34.149911],[134.485831,34.149945],[134.485831,34.149961],[134.485831,34.149962],[134.48583,34.149979],[134.485826,34.150087],[134.485823,34.150147],[134.485827,34.150383],[134.485844,34.150419],[134.485899,34.150408],[134.485948,34.150422],[134.486057,34.150547],[134.486109,34.150619],[134.486176,34.150713],[134.486247,34.150811],[134.486318,34.1509],[134.486308,34.150931],[134.486151,34.151067],[134.485999,34.151208],[134.485855,34.151367],[134.485783,34.151467],[134.485735,34.151552],[134.485708,34.151621],[134.485685,34.151687],[134.485674,34.15173],[134.485705,34.151824],[134.48579,34.151898],[134.486061,34.152018],[134.486201,34.152146],[134.486323,34.152337],[134.48651,34.152571],[134.48656,34.15271],[134.486609,34.153194],[134.486595,34.153341],[134.486522,34.153442],[134.486039,34.15383],[134.485995,34.153913],[134.485996,34.154028],[134.486084,34.154321],[134.486111,34.154496],[134.486035,34.154634],[134.485877,34.154722],[134.485722,34.154759],[134.485311,34.154729],[134.485191,34.154768],[134.48506,34.154839],[134.484681,34.154989],[134.484516,34.155108],[134.484431,34.155281],[134.484326,34.155516],[134.484213,34.155878],[134.484212,34.156153],[134.484245,34.15639],[134.484337,34.156591],[134.484519,34.157465],[134.484286,34.158032],[134.484097,34.158174],[134.483971,34.158269],[134.483852,34.15837],[134.483873,34.158624],[134.483951,34.159096],[134.483908,34.15951],[134.484086,34.16044],[134.484203,34.161423],[134.484423,34.162334],[134.484398,34.162722],[134.484513,34.163093],[134.484504,34.163362],[134.484393,34.163572],[134.48428,34.163677],[134.483514,34.164351],[134.483429,34.164519],[134.483409,34.164818],[134.483352,34.165082],[134.483122,34.165388],[134.483034,34.165563],[134.48306,34.165762],[134.483158,34.165936],[134.48348,34.166322],[134.483471,34.166581],[134.483353,34.166752],[134.482777,34.167239],[134.482647,34.1674],[134.482445,34.167798],[134.482092,34.168127],[134.481939,34.168362],[134.481893,34.168542],[134.481866,34.169073],[134.481701,34.169333],[134.481386,34.169555],[134.480786,34.169781],[134.480536,34.169943],[134.480353,34.170198],[134.479855,34.17149],[134.479827,34.171665],[134.479858,34.171779],[134.480726,34.172619],[134.480481,34.172983],[134.480359,34.173307],[134.480338,34.173582],[134.48038,34.173868],[134.480472,34.174475],[134.480288,34.175865],[134.47865,34.178548],[134.478472,34.178709],[134.478281,34.17879],[134.477569,34.17894],[134.4771,34.179106],[134.476873,34.179127],[134.47656,34.17902],[134.474507,34.17789],[134.474219,34.177843],[134.473851,34.177903],[134.472778,34.17847],[134.472454,34.178502],[134.472252,34.178421],[134.469901,34.177354],[134.469338,34.177226],[134.467799,34.177171],[134.467498,34.177084],[134.467161,34.176917],[134.467028,34.176878],[134.466824,34.17688],[134.466369,34.176914],[134.466159,34.17688],[134.465253,34.176419],[134.465,34.176311],[134.464682,34.176309],[134.464585,34.176339],[134.464478,34.176102],[134.464438,34.176049],[134.464401,34.175991],[134.464359,34.175921],[134.46432,34.175846],[134.464288,34.175773],[134.464264,34.175707],[134.464244,34.175644],[134.46422,34.175575],[134.464185,34.175493],[134.464138,34.175396],[134.464093,34.175301],[134.464063,34.175218],[134.464055,34.175183],[134.464052,34.175129],[134.464053,34.175107],[134.464045,34.175064],[134.464034,34.175042],[134.464014,34.175017],[134.463957,34.174964],[134.463884,34.174912],[134.463806,34.174864],[134.463731,34.174826],[134.463656,34.174793],[134.463577,34.174756],[134.463489,34.174712],[134.463392,34.174659],[134.463297,34.174611],[134.463252,34.17459],[134.463212,34.174575],[134.463175,34.174565],[134.463113,34.174555],[134.46306,34.174552],[134.46301,34.174543],[134.462957,34.174517],[134.462905,34.174477],[134.462859,34.174427],[134.462821,34.174369],[134.462792,34.174309],[134.462769,34.174249],[134.462749,34.174191],[134.462726,34.174138],[134.462701,34.174091],[134.462673,34.174049],[134.46264,34.174013],[134.462604,34.173981],[134.462564,34.173956],[134.462519,34.173936],[134.46247,34.173919],[134.46242,34.173905],[134.462371,34.17389],[134.462323,34.173872],[134.462277,34.17385],[134.462233,34.17383],[134.462185,34.173816],[134.462133,34.17381],[134.462078,34.173812],[134.462025,34.17382],[134.461976,34.17383],[134.461929,34.173841],[134.461881,34.173849],[134.461829,34.173854],[134.46177,34.173852],[134.461705,34.173841],[134.461635,34.173822],[134.4616,34.173809],[134.461528,34.173773],[134.46146,34.173732],[134.4614,34.17369],[134.461352,34.173649],[134.461318,34.173614],[134.46129,34.173581],[134.461268,34.17355],[134.461244,34.173518],[134.461219,34.173488],[134.461189,34.173461],[134.461155,34.173441],[134.461117,34.173425],[134.461034,34.173405],[134.461046,34.173359],[134.461061,34.173311],[134.461079,34.173259],[134.461102,34.1732],[134.461127,34.173136],[134.461155,34.17307],[134.461179,34.173009],[134.461198,34.172953],[134.461217,34.172902],[134.46124,34.172853],[134.461272,34.172803],[134.461314,34.172749],[134.461361,34.172694],[134.46141,34.172638],[134.461456,34.172582],[134.4615,34.172526],[134.46154,34.17247],[134.461578,34.172413],[134.461611,34.172357],[134.461643,34.172306],[134.461672,34.17226],[134.4617,34.172222],[134.461727,34.17219],[134.461752,34.172165],[134.461775,34.172143],[134.461797,34.172124],[134.461814,34.172107],[134.461823,34.172091],[134.461823,34.172073],[134.461817,34.172058],[134.461808,34.172046],[134.461798,34.172037],[134.461791,34.172029],[134.46179,34.172014],[134.461797,34.171986],[134.461812,34.171937],[134.461856,34.171818],[134.461907,34.171692],[134.461943,34.171594],[134.461977,34.171496],[134.462008,34.171412],[134.462034,34.171334],[134.462062,34.171229],[134.462094,34.171076],[134.46213,34.170905],[134.462163,34.170758],[134.462193,34.170642],[134.462219,34.170534],[134.46224,34.170411],[134.462265,34.170291],[134.462281,34.17024],[134.462299,34.170196],[134.46232,34.170159],[134.462342,34.170127],[134.462388,34.170065],[134.462431,34.169992],[134.462442,34.16997],[134.46247,34.169914],[134.462509,34.169837],[134.462551,34.169764],[134.462598,34.169694],[134.462651,34.169621],[134.462704,34.169535],[134.462728,34.169484],[134.462746,34.169425],[134.462778,34.169294],[134.462805,34.169159],[134.462834,34.169034],[134.462867,34.168924],[134.462899,34.168827],[134.46293,34.168742],[134.462953,34.168666],[134.46296,34.168593],[134.462954,34.168509],[134.462936,34.168404],[134.462907,34.168284],[134.462879,34.168175],[134.462856,34.168094],[134.462841,34.168024],[134.462832,34.167939],[134.462824,34.167841],[134.462818,34.167754],[134.462808,34.167696],[134.4628,34.167671],[134.462787,34.167645],[134.462744,34.167571],[134.46268,34.167474],[134.462613,34.167379],[134.462554,34.167305],[134.462501,34.167233],[134.462478,34.167192],[134.462432,34.167087],[134.462393,34.166973],[134.462363,34.166877],[134.462342,34.1668],[134.462326,34.166721],[134.462311,34.166622],[134.462297,34.166506],[134.462283,34.166381],[134.462271,34.166256],[134.46226,34.166139],[134.462251,34.166038],[134.462247,34.165948],[134.462252,34.165867],[134.462259,34.16579],[134.462266,34.165714],[134.462265,34.165676],[134.462257,34.165602],[134.462242,34.165532],[134.462223,34.165465],[134.462211,34.165405],[134.46221,34.165378],[134.462213,34.165352],[134.46222,34.165327],[134.462231,34.165305],[134.462245,34.165284],[134.462275,34.165244],[134.46231,34.165204],[134.462352,34.165155],[134.462399,34.165091],[134.462451,34.16502],[134.462505,34.164954],[134.462557,34.164893],[134.462604,34.164826],[134.462644,34.164745],[134.462681,34.164668],[134.462717,34.164611],[134.462736,34.164593],[134.462755,34.164579],[134.462777,34.164569],[134.462826,34.164554],[134.462881,34.164538],[134.462938,34.164517],[134.46299,34.164487],[134.463013,34.164467],[134.463055,34.164423],[134.463071,34.164396],[134.463096,34.164336],[134.463113,34.164272],[134.463121,34.164204],[134.463133,34.164134],[134.463145,34.164099],[134.46318,34.164024],[134.463221,34.163956],[134.463255,34.163899],[134.463275,34.163856],[134.46329,34.163819],[134.463303,34.163779],[134.463323,34.163728],[134.463358,34.163657],[134.463403,34.163571],[134.463444,34.163491],[134.463456,34.163459],[134.46347,34.163408],[134.463476,34.163362],[134.463482,34.163307],[134.463496,34.163247],[134.463522,34.163186],[134.463563,34.163128],[134.463613,34.163074],[134.463669,34.163023],[134.46373,34.162979],[134.463796,34.162939],[134.463862,34.162905],[134.46392,34.162865],[134.463934,34.162851],[134.463948,34.162835],[134.46396,34.162818],[134.463978,34.162786],[134.464114,34.162476],[134.464141,34.162426],[134.464181,34.162366],[134.464226,34.162303],[134.464265,34.162251],[134.464294,34.162213],[134.464328,34.162182],[134.464373,34.162147],[134.46443,34.162113],[134.464462,34.162098],[134.464534,34.162067],[134.464607,34.16204],[134.464676,34.162014],[134.464739,34.161986],[134.464796,34.161957],[134.46485,34.161925],[134.464897,34.16189],[134.464937,34.161854],[134.464952,34.161835],[134.464977,34.161794],[134.464993,34.161746],[134.465004,34.161694],[134.465018,34.16164],[134.465039,34.161585],[134.465063,34.161537],[134.465082,34.161501],[134.465096,34.161478],[134.465107,34.161463],[134.465121,34.161453],[134.465139,34.161449],[134.465166,34.161446],[134.465206,34.161444],[134.465269,34.161435],[134.465312,34.161425],[134.465358,34.161412],[134.465411,34.161396],[134.465515,34.161362],[134.465606,34.161326],[134.465648,34.161307],[134.465721,34.161269],[134.466457,34.160551],[134.466698,34.160604],[134.466984,34.160679],[134.467213,34.160784],[134.467464,34.160947],[134.467599,34.160923],[134.467912,34.16092],[134.467654,34.160787],[134.467493,34.160659],[134.467427,34.160538],[134.46741,34.16042],[134.467581,34.159942],[134.467621,34.159847],[134.467705,34.159614],[134.467797,34.159343],[134.467848,34.159265],[134.467956,34.159129],[134.468003,34.159077],[134.468206,34.158922],[134.468371,34.158784],[134.468568,34.158582],[134.468637,34.158484],[134.468722,34.158367],[134.468764,34.158299],[134.468775,34.158198],[134.468805,34.158067],[134.468848,34.157974],[134.468882,34.157943],[134.468949,34.157915],[134.469084,34.15785],[134.469234,34.157771],[134.469298,34.157724],[134.469359,34.15767],[134.469492,34.157546],[134.469576,34.15748],[134.469689,34.157437],[134.469805,34.157422],[134.469867,34.157421],[134.469982,34.157447],[134.469984,34.157134],[134.469955,34.156856],[134.469928,34.156675],[134.469903,34.156462],[134.46988,34.156239],[134.469791,34.156066],[134.469716,34.155934],[134.469489,34.155611],[134.46941,34.155486],[134.469444,34.155158],[134.469488,34.154857],[134.469478,34.154771],[134.469386,34.154645],[134.469104,34.154345],[134.468877,34.154163],[134.468824,34.154094],[134.468815,34.153997],[134.468799,34.153831],[134.468801,34.153324],[134.468819,34.153261],[134.46888,34.153197],[134.469276,34.152925],[134.469516,34.152519],[134.469575,34.152325],[134.469556,34.152083],[134.469487,34.151898],[134.469332,34.151587],[134.468981,34.151057],[134.468959,34.151027],[134.46884,34.150784],[134.468735,34.150398],[134.468596,34.149961],[134.468608,34.14984],[134.468667,34.149668],[134.468685,34.149506],[134.468704,34.149295],[134.468709,34.149215],[134.468721,34.149162],[134.468733,34.149118],[134.468746,34.148957],[134.468663,34.148596],[134.468566,34.148348],[134.468476,34.148196],[134.468311,34.148067],[134.468168,34.147894],[134.468317,34.147412],[134.468339,34.147202],[134.468316,34.146784],[134.468418,34.146667],[134.468365,34.146278],[134.46828,34.146124],[134.468168,34.145667],[134.468117,34.145465],[134.468099,34.145342],[134.468106,34.145019],[134.46812,34.144745],[134.468137,34.144527],[134.468191,34.144379],[134.468325,34.144033],[134.468389,34.143878],[134.468394,34.143756],[134.468358,34.143382],[134.468345,34.143287],[134.468358,34.143112],[134.468501,34.142781],[134.468703,34.142356],[134.468844,34.142077],[134.468911,34.141855],[134.468987,34.141604],[134.469157,34.141071],[134.469378,34.140371],[134.469397,34.140263],[134.469326,34.140258],[134.469069,34.140174],[134.469768,34.138806],[134.469939,34.138461],[134.470259,34.137904],[134.470421,34.137644],[134.471064,34.136198],[134.471627,34.134926],[134.472222,34.13382],[134.472397,34.133444],[134.472536,34.133169],[134.473321,34.131452],[134.474034,34.129964]]]},"properties":{"S_NAME":"川端","HCODE":8101}},{"type":"Feature","geometry":{"type":"Polygon","coordinates":[[[134.454761,34.137711],[134.45476,34.137712],[134.453814,34.137829],[134.453653,34.137826],[134.453539,34.137824],[134.453214,34.137829],[134.453033,34.137798],[134.452794,34.137713],[134.452012,34.137551],[134.451555,34.137442],[134.450861,34.137272],[134.449756,34.136991],[134.449336,34.1369],[134.44896,34.136851],[134.448737,34.136809],[134.448155,34.136673],[134.447638,34.136549],[134.447117,34.13643],[134.446693,34.136324],[134.446132,34.136181],[134.446021,34.136406],[134.445688,34.136336],[134.445506,34.136306],[134.445567,34.13566],[134.445624,34.135286],[134.445618,34.135206],[134.445581,34.135165],[134.44546,34.135126],[134.445247,34.135069],[134.44511,34.135024],[134.44499,34.134948],[134.444953,34.13487],[134.444947,34.134745],[134.444999,34.134525],[134.445173,34.133743],[134.445305,34.133157],[134.445401,34.132766],[134.445427,34.132657],[134.445496,34.132661],[134.445531,34.132626],[134.445575,34.132624],[134.44565,34.132632],[134.445731,34.132634],[134.445785,34.132614],[134.44582,34.132491],[134.445851,34.132325],[134.445912,34.13187],[134.445941,34.131571],[134.44593,34.131383],[134.445859,34.131182],[134.44569,34.130858],[134.445654,34.130743],[134.445654,34.130357],[134.445722,34.130411],[134.445811,34.130483],[134.445849,34.130499],[134.445892,34.130497],[134.446014,34.130475],[134.446064,34.130471],[134.446105,34.130473],[134.446154,34.130486],[134.446323,34.130536],[134.446381,34.13055],[134.446432,34.130554],[134.446579,34.130553],[134.446633,34.13056],[134.446683,34.130575],[134.446714,34.130583],[134.446773,34.130634],[134.446838,34.130694],[134.446871,34.130707],[134.446939,34.130717],[134.447179,34.130732],[134.447226,34.130727],[134.447274,34.130718],[134.4473,34.130721],[134.447321,34.130735],[134.44749,34.130846],[134.447527,34.130861],[134.44772,34.130891],[134.447815,34.130363],[134.448041,34.129717],[134.448506,34.129696],[134.448822,34.12971],[134.449005,34.129734],[134.449126,34.129769],[134.449278,34.129826],[134.44936,34.129832],[134.449442,34.129805],[134.449604,34.12972],[134.449796,34.129694],[134.450015,34.129709],[134.450135,34.129714],[134.450353,34.129696],[134.450489,34.129682],[134.450592,34.129638],[134.450688,34.129572],[134.450746,34.12954],[134.45082,34.129529],[134.451015,34.129525],[134.451225,34.129497],[134.451448,34.129492],[134.451581,34.128486],[134.451622,34.128141],[134.451637,34.128082],[134.451669,34.128011],[134.452058,34.127398],[134.452209,34.127528],[134.452287,34.127581],[134.452468,34.127629],[134.452986,34.127684],[134.453314,34.127708],[134.453468,34.1277],[134.45374,34.127657],[134.454999,34.127385],[134.455003,34.127416],[134.455157,34.128066],[134.455631,34.127956],[134.45621,34.127747],[134.456497,34.127646],[134.456692,34.127595],[134.456834,34.127529],[134.456949,34.127521],[134.457039,34.127527],[134.457163,34.127533],[134.457427,34.127589],[134.457253,34.128002],[134.457022,34.128547],[134.456819,34.129175],[134.456807,34.129568],[134.456783,34.130018],[134.456741,34.130289],[134.456699,34.130494],[134.45657,34.13057],[134.456463,34.130695],[134.456362,34.13086],[134.456178,34.131181],[134.456005,34.131484],[134.455818,34.131806],[134.455714,34.132005],[134.455586,34.132274],[134.45554,34.132392],[134.455512,34.132553],[134.455382,34.133129],[134.455322,34.133483],[134.455162,34.134274],[134.455019,34.134957],[134.454926,34.13537],[134.454859,34.135742],[134.454746,34.136443],[134.454699,34.136887],[134.454703,34.13725],[134.454761,34.137711]]]},"properties":{"S_NAME":"古城","HCODE":8101}},{"type":"Feature","geometry":{"type":"Polygon","coordinates":[[[134.452058,34.127398],[134.451669,34.128011],[134.451637,34.128082],[134.451622,34.128141],[134.451581,34.128486],[134.451448,34.129492],[134.451225,34.129497],[134.451015,34.129525],[134.45082,34.129529],[134.450746,34.12954],[134.450688,34.129572],[134.450592,34.129638],[134.450489,34.129682],[134.450353,34.129696],[134.450135,34.129714],[134.450015,34.129709],[134.449796,34.129694],[134.449604,34.12972],[134.449442,34.129805],[134.44936,34.129832],[134.449278,34.129826],[134.449126,34.129769],[134.449005,34.129734],[134.448822,34.12971],[134.448506,34.129696],[134.448041,34.129717],[134.447815,34.130363],[134.44772,34.130891],[134.447527,34.130861],[134.44749,34.130846],[134.447321,34.130735],[134.4473,34.130721],[134.447274,34.130718],[134.447226,34.130727],[134.447179,34.130732],[134.446939,34.130717],[134.446871,34.130707],[134.446838,34.130694],[134.446773,34.130634],[134.446714,34.130583],[134.446683,34.130575],[134.446633,34.13056],[134.446579,34.130553],[134.446432,34.130554],[134.446381,34.13055],[134.446323,34.130536],[134.446154,34.130486],[134.446105,34.130473],[134.446064,34.130471],[134.446014,34.130475],[134.445892,34.130497],[134.445849,34.130499],[134.445811,34.130483],[134.445722,34.130411],[134.445654,34.130357],[134.445654,34.130743],[134.44569,34.130858],[134.445859,34.131182],[134.44593,34.131383],[134.445941,34.131571],[134.445912,34.13187],[134.445851,34.132325],[134.44582,34.132491],[134.445785,34.132614],[134.445731,34.132634],[134.44565,34.132632],[134.445575,34.132624],[134.445531,34.132626],[134.445496,34.132661],[134.445427,34.132657],[134.445442,34.132528],[134.44544,34.132405],[134.445426,34.132317],[134.445392,34.132209],[134.4453,34.132048],[134.445226,34.131956],[134.445117,34.131855],[134.44387,34.130716],[134.443791,34.130675],[134.443608,34.130542],[134.443451,34.130476],[134.443358,34.130448],[134.443223,34.130429],[134.443067,34.13042],[134.442788,34.130416],[134.442476,34.130405],[134.441954,34.130404],[134.441716,34.130395],[134.441744,34.129614],[134.441813,34.128259],[134.441851,34.127727],[134.44186,34.127688],[134.441806,34.127671],[134.4418,34.127639],[134.441794,34.127568],[134.441777,34.127397],[134.441722,34.127342],[134.441679,34.127293],[134.441656,34.127263],[134.441639,34.127229],[134.441622,34.127184],[134.441597,34.127078],[134.441568,34.126969],[134.441552,34.126897],[134.441525,34.126765],[134.441505,34.126665],[134.441481,34.126551],[134.441443,34.126363],[134.441396,34.126136],[134.441468,34.126114],[134.441555,34.126089],[134.4417,34.126054],[134.441792,34.126038],[134.441849,34.126034],[134.441898,34.126034],[134.441987,34.126036],[134.441986,34.125932],[134.441979,34.125414],[134.441973,34.124963],[134.441972,34.124827],[134.441969,34.124603],[134.441961,34.124081],[134.442152,34.123835],[134.442349,34.123581],[134.442544,34.123328],[134.442539,34.12321],[134.442517,34.122841],[134.442497,34.122514],[134.442477,34.122125],[134.442467,34.121846],[134.442461,34.12165],[134.442457,34.121465],[134.442455,34.121341],[134.442502,34.121377],[134.442654,34.121574],[134.442848,34.121802],[134.443,34.121919],[134.443118,34.122006],[134.443306,34.122055],[134.443395,34.122096],[134.443415,34.122144],[134.443352,34.122358],[134.443342,34.122669],[134.443343,34.122803],[134.443395,34.122924],[134.44346,34.122962],[134.443545,34.12298],[134.44361,34.122929],[134.443647,34.122874],[134.443676,34.122695],[134.443874,34.122624],[134.444088,34.122568],[134.444255,34.122559],[134.444556,34.122574],[134.444705,34.12255],[134.44509,34.122419],[134.44521,34.122345],[134.44541,34.12207],[134.445502,34.121984],[134.445609,34.121953],[134.445739,34.12194],[134.445891,34.12196],[134.446059,34.122056],[134.446219,34.122171],[134.446485,34.122254],[134.446652,34.122359],[134.446723,34.122451],[134.446719,34.122556],[134.446679,34.122672],[134.446621,34.12276],[134.446468,34.12303],[134.446469,34.123088],[134.446516,34.123168],[134.446616,34.12328],[134.446152,34.123474],[134.446198,34.123651],[134.446236,34.123789],[134.446264,34.123955],[134.446255,34.124087],[134.446199,34.124201],[134.446161,34.124267],[134.446722,34.124459],[134.447363,34.124687],[134.447811,34.12488],[134.44846,34.125197],[134.448965,34.125464],[134.449718,34.125834],[134.449763,34.125857],[134.449912,34.125929],[134.450781,34.126348],[134.451241,34.126614],[134.451383,34.126716],[134.451561,34.126879],[134.451852,34.12719],[134.452058,34.127398]]]},"properties":{"S_NAME":"唐園","HCODE":8101}},{"type":"Feature","geometry":{"type":"Polygon","coordinates":[[[134.457427,34.127589],[134.457163,34.127533],[134.457039,34.127527],[134.456949,34.127521],[134.456834,34.127529],[134.456692,34.127595],[134.456497,34.127646],[134.45621,34.127747],[134.455631,34.127956],[134.455157,34.128066],[134.455003,34.127416],[134.454999,34.127385],[134.45374,34.127657],[134.453468,34.1277],[134.453314,34.127708],[134.452986,34.127684],[134.452468,34.127629],[134.452287,34.127581],[134.452209,34.127528],[134.452058,34.127398],[134.451852,34.12719],[134.451561,34.126879],[134.451383,34.126716],[134.451241,34.126614],[134.450781,34.126348],[134.449912,34.125929],[134.449763,34.125857],[134.449718,34.125834],[134.448965,34.125464],[134.44846,34.125197],[134.447811,34.12488],[134.447363,34.124687],[134.446722,34.124459],[134.446161,34.124267],[134.446199,34.124201],[134.446255,34.124087],[134.446264,34.123955],[134.446236,34.123789],[134.446198,34.123651],[134.446152,34.123474],[134.446616,34.12328],[134.446719,34.123249],[134.44693,34.123222],[134.447021,34.123223],[134.447031,34.122458],[134.447006,34.12224],[134.447024,34.121341],[134.44705,34.121315],[134.447108,34.121315],[134.447396,34.121333],[134.448301,34.121444],[134.448834,34.121519],[134.448922,34.121523],[134.449892,34.121681],[134.449917,34.121571],[134.449986,34.121257],[134.450164,34.121325],[134.450391,34.121413],[134.450705,34.121533],[134.451464,34.121827],[134.451602,34.121498],[134.451632,34.121425],[134.451825,34.120964],[134.452086,34.120334],[134.452316,34.11974],[134.45244,34.119419],[134.452497,34.119272],[134.452675,34.118813],[134.452827,34.11842],[134.45296,34.118266],[134.453151,34.118043],[134.453464,34.117672],[134.453668,34.117427],[134.453766,34.117309],[134.453828,34.117233],[134.453917,34.117123],[134.454046,34.116968],[134.4542,34.116785],[134.454656,34.116251],[134.454791,34.11609],[134.455591,34.116228],[134.455643,34.116237],[134.455987,34.116297],[134.456716,34.116407],[134.457089,34.116463],[134.457139,34.116471],[134.457454,34.116518],[134.457527,34.116681],[134.457718,34.116871],[134.457764,34.116969],[134.457785,34.117131],[134.457777,34.117255],[134.457815,34.117363],[134.458076,34.117816],[134.458428,34.118265],[134.458628,34.118458],[134.458839,34.118676],[134.458958,34.118791],[134.458262,34.119505],[134.457938,34.119842],[134.457552,34.120743],[134.457333,34.121286],[134.456387,34.12129],[134.456061,34.12129],[134.456777,34.121981],[134.457125,34.122279],[134.457977,34.123096],[134.458055,34.123125],[134.458129,34.123137],[134.458202,34.123149],[134.458192,34.123183],[134.459419,34.123453],[134.459314,34.12373],[134.459211,34.123954],[134.459109,34.124241],[134.458982,34.124551],[134.45887,34.124842],[134.458751,34.125046],[134.458531,34.125442],[134.458183,34.125987],[134.458026,34.126261],[134.457896,34.126533],[134.457697,34.126964],[134.457427,34.127589]]]},"properties":{"S_NAME":"下庄","HCODE":8101}},{"type":"Feature","geometry":{"type":"Polygon","coordinates":[[[134.470375,34.129503],[134.468984,34.129345],[134.468076,34.129237],[134.467524,34.129185],[134.465706,34.128985],[134.465167,34.128938],[134.464945,34.128905],[134.464572,34.128824],[134.46413,34.128718],[134.463864,34.128626],[134.463665,34.128539],[134.463391,34.128392],[134.463251,34.128152],[134.463114,34.128021],[134.463038,34.128002],[134.463105,34.128847],[134.463141,34.129086],[134.463143,34.129207],[134.463063,34.12947],[134.463005,34.129698],[134.462959,34.129694],[134.462912,34.12967],[134.462841,34.129624],[134.462663,34.129569],[134.462607,34.129565],[134.462478,34.129547],[134.462363,34.129509],[134.461955,34.129325],[134.461746,34.12916],[134.461672,34.12911],[134.461577,34.129068],[134.461501,34.129029],[134.461192,34.12878],[134.46114,34.128734],[134.461064,34.128635],[134.46095,34.128509],[134.460752,34.12836],[134.460515,34.128126],[134.460432,34.128055],[134.460321,34.127974],[134.459952,34.127784],[134.45987,34.12775],[134.459799,34.12772],[134.459691,34.127692],[134.459563,34.127682],[134.459391,34.127667],[134.459286,34.127662],[134.459211,34.127644],[134.459054,34.12758],[134.458934,34.12755],[134.45877,34.127526],[134.458662,34.127538],[134.458216,34.127682],[134.458052,34.127703],[134.457949,34.127708],[134.457748,34.127658],[134.457427,34.127589],[134.457697,34.126964],[134.457896,34.126533],[134.458026,34.126261],[134.458183,34.125987],[134.458531,34.125442],[134.458751,34.125046],[134.45887,34.124842],[134.458982,34.124551],[134.459109,34.124241],[134.459211,34.123954],[134.459314,34.12373],[134.459419,34.123453],[134.458192,34.123183],[134.458202,34.123149],[134.458129,34.123137],[134.458055,34.123125],[134.457977,34.123096],[134.457125,34.122279],[134.456777,34.121981],[134.456061,34.12129],[134.456387,34.12129],[134.457333,34.121286],[134.457552,34.120743],[134.457938,34.119842],[134.458262,34.119505],[134.458958,34.118791],[134.458839,34.118676],[134.458628,34.118458],[134.458428,34.118265],[134.458076,34.117816],[134.457815,34.117363],[134.457777,34.117255],[134.457785,34.117131],[134.457764,34.116969],[134.457718,34.116871],[134.457527,34.116681],[134.457454,34.116518],[134.457727,34.116561],[134.457786,34.11657],[134.459322,34.116849],[134.461634,34.117233],[134.46413,34.117709],[134.466044,34.118036],[134.466577,34.118123],[134.469847,34.118658],[134.47118,34.118808],[134.471162,34.119011],[134.471088,34.120098],[134.471074,34.120298],[134.471072,34.120327],[134.470786,34.122556],[134.470761,34.122887],[134.470749,34.123039],[134.470493,34.126392],[134.470403,34.128504],[134.470391,34.129201],[134.470375,34.129503]]]},"properties":{"S_NAME":"西中富","HCODE":8101}},{"type":"Feature","geometry":{"type":"Polygon","coordinates":[[[134.454791,34.11609],[134.454656,34.116251],[134.4542,34.116785],[134.454046,34.116968],[134.453917,34.117123],[134.453828,34.117233],[134.453766,34.117309],[134.453668,34.117427],[134.453464,34.117672],[134.453151,34.118043],[134.45296,34.118266],[134.452827,34.11842],[134.452675,34.118813],[134.452497,34.119272],[134.45244,34.119419],[134.452316,34.11974],[134.452086,34.120334],[134.451825,34.120964],[134.451632,34.121425],[134.451602,34.121498],[134.451464,34.121827],[134.450705,34.121533],[134.450391,34.121413],[134.450164,34.121325],[134.449986,34.121257],[134.449917,34.121571],[134.449892,34.121681],[134.448922,34.121523],[134.448834,34.121519],[134.448301,34.121444],[134.447396,34.121333],[134.447108,34.121315],[134.44705,34.121315],[134.447024,34.121341],[134.447006,34.12224],[134.447031,34.122458],[134.447021,34.123223],[134.44693,34.123222],[134.446719,34.123249],[134.446616,34.12328],[134.446516,34.123168],[134.446469,34.123088],[134.446468,34.12303],[134.446621,34.12276],[134.446679,34.122672],[134.446719,34.122556],[134.446723,34.122451],[134.446652,34.122359],[134.446485,34.122254],[134.446219,34.122171],[134.446059,34.122056],[134.445891,34.12196],[134.445739,34.12194],[134.445609,34.121953],[134.445502,34.121984],[134.44541,34.12207],[134.44521,34.122345],[134.44509,34.122419],[134.444705,34.12255],[134.444556,34.122574],[134.444255,34.122559],[134.444088,34.122568],[134.443874,34.122624],[134.443676,34.122695],[134.443647,34.122874],[134.44361,34.122929],[134.443545,34.12298],[134.44346,34.122962],[134.443395,34.122924],[134.443343,34.122803],[134.443342,34.122669],[134.443352,34.122358],[134.443415,34.122144],[134.443395,34.122096],[134.443306,34.122055],[134.443118,34.122006],[134.443,34.121919],[134.442848,34.121802],[134.442654,34.121574],[134.442502,34.121377],[134.442455,34.121341],[134.442382,34.121285],[134.442301,34.121254],[134.442224,34.121261],[134.442179,34.12129],[134.442156,34.121354],[134.442168,34.121412],[134.442251,34.121551],[134.442264,34.121607],[134.442202,34.121647],[134.442041,34.121728],[134.441949,34.121745],[134.441869,34.121727],[134.441752,34.121648],[134.441623,34.121558],[134.441453,34.121492],[134.441276,34.121474],[134.441165,34.121459],[134.441107,34.121434],[134.441029,34.121371],[134.440954,34.121284],[134.440919,34.12123],[134.440906,34.121156],[134.440885,34.12101],[134.440866,34.120962],[134.440827,34.120946],[134.440679,34.120936],[134.440625,34.120915],[134.440598,34.12088],[134.44055,34.120682],[134.440549,34.120609],[134.440575,34.12057],[134.440621,34.120541],[134.440678,34.120534],[134.440822,34.120525],[134.440964,34.120489],[134.441059,34.120412],[134.441097,34.120354],[134.441096,34.120268],[134.441045,34.120172],[134.441016,34.120096],[134.441015,34.120004],[134.441011,34.119926],[134.441005,34.119899],[134.441045,34.119896],[134.441135,34.11933],[134.441144,34.119243],[134.441195,34.11871],[134.441255,34.118712],[134.441287,34.118356],[134.441189,34.118341],[134.44122,34.118013],[134.441315,34.117222],[134.441359,34.116806],[134.441391,34.116271],[134.441424,34.11565],[134.441395,34.115647],[134.441254,34.115635],[134.441156,34.115627],[134.441162,34.115567],[134.441175,34.115446],[134.441188,34.115317],[134.441195,34.115253],[134.441197,34.115234],[134.441206,34.115175],[134.44122,34.115083],[134.441232,34.115004],[134.441247,34.114903],[134.44126,34.114817],[134.441269,34.11476],[134.44128,34.114685],[134.441288,34.114628],[134.441304,34.114528],[134.44132,34.114419],[134.441336,34.114313],[134.441347,34.114237],[134.441356,34.114182],[134.441514,34.114204],[134.441646,34.114219],[134.442039,34.11427],[134.442679,34.114337],[134.443286,34.114413],[134.443842,34.114506],[134.444112,34.114537],[134.444612,34.114578],[134.444999,34.114611],[134.445103,34.114623],[134.445232,34.114638],[134.446509,34.114765],[134.447121,34.114866],[134.447543,34.11493],[134.447802,34.114967],[134.447973,34.114994],[134.448038,34.115004],[134.448319,34.115045],[134.450845,34.115494],[134.452852,34.115755],[134.454791,34.11609]]]},"properties":{"S_NAME":"中久保","HCODE":8101}}]}