{"type":"FeatureCollection","features":[{"type":"Feature","geometry":{"type":"Polygon","coordinates":[[[134.569978,34.14979],[134.569972,34.149782],[134.569793,34.149603],[134.569446,34.149366],[134.569297,34.149306],[134.569036,34.149303],[134.5688,34.149323],[134.568617,34.149342],[134.568327,34.149434],[134.567562,34.149738],[134.567106,34.149902],[134.566218,34.150272],[134.566148,34.150302],[134.566078,34.150333],[134.565628,34.150541],[134.565352,34.150662],[134.565049,34.150806],[134.564581,34.151055],[134.564056,34.151429],[134.564094,34.151339],[134.564123,34.151277],[134.564125,34.15119],[134.564109,34.151078],[134.564071,34.150946],[134.563982,34.150785],[134.563632,34.149911],[134.563552,34.149802],[134.561833,34.14747],[134.56142,34.14686],[134.561034,34.146213],[134.560787,34.145837],[134.560544,34.145458],[134.56041,34.145222],[134.560093,34.144554],[134.560056,34.144512],[134.559955,34.144298],[134.55979,34.143962],[134.559576,34.143534],[134.559938,34.143389],[134.560729,34.143098],[134.561,34.142995],[134.560956,34.14282],[134.560993,34.14274],[134.561043,34.142689],[134.561197,34.142641],[134.561423,34.142564],[134.561605,34.142503],[134.562173,34.142305],[134.562692,34.142134],[134.563352,34.141878],[134.564535,34.141458],[134.565753,34.14105],[134.566721,34.140746],[134.567267,34.140562],[134.567409,34.140527],[134.567652,34.140469],[134.568889,34.140093],[134.569866,34.139827],[134.570071,34.139811],[134.571073,34.139919],[134.571414,34.139944],[134.571708,34.140002],[134.571815,34.140023],[134.572044,34.140099],[134.5724,34.140172],[134.572791,34.14024],[134.573285,34.14035],[134.573912,34.140459],[134.573861,34.14054],[134.5733,34.141083],[134.572853,34.141492],[134.572666,34.141661],[134.572428,34.14191],[134.572447,34.14201],[134.572185,34.142279],[134.571861,34.142582],[134.571567,34.142786],[134.571442,34.142883],[134.571059,34.142981],[134.570929,34.14312],[134.570749,34.143393],[134.570635,34.143623],[134.570642,34.143756],[134.570552,34.143895],[134.570427,34.143963],[134.570114,34.144089],[134.570006,34.144195],[134.569849,34.144477],[134.569703,34.144669],[134.569578,34.144798],[134.569581,34.144989],[134.569612,34.145222],[134.569767,34.145668],[134.569935,34.145842],[134.570046,34.145951],[134.570232,34.146164],[134.570788,34.146668],[134.571047,34.146994],[134.571298,34.147427],[134.571409,34.147534],[134.571453,34.147881],[134.571501,34.147995],[134.571642,34.148489],[134.571448,34.148571],[134.571197,34.148631],[134.570733,34.148906],[134.57056,34.149041],[134.570261,34.149363],[134.570021,34.149661],[134.569978,34.14979]]]},"properties":{"S_NAME":"長岸","HCODE":8101}},{"type":"Feature","geometry":{"type":"Polygon","coordinates":[[[134.586917,34.147534],[134.586755,34.147603],[134.586506,34.147727],[134.586235,34.147892],[134.586151,34.147973],[134.586105,34.148017],[134.585579,34.14862],[134.585402,34.148816],[134.585273,34.149041],[134.585235,34.149172],[134.58515,34.149474],[134.585122,34.149693],[134.58512,34.149706],[134.585092,34.149973],[134.58499,34.15039],[134.584823,34.15074],[134.58462,34.151248],[134.584326,34.151816],[134.584072,34.152149],[134.583857,34.152456],[134.583649,34.152685],[134.583228,34.152903],[134.582762,34.153122],[134.582406,34.15326],[134.581904,34.153376],[134.581824,34.153416],[134.581662,34.153498],[134.581383,34.153598],[134.580942,34.153734],[134.580228,34.154018],[134.579603,34.154334],[134.57957,34.154345],[134.57956,34.154349],[134.57877,34.154719],[134.57821,34.154968],[134.578042,34.15504],[134.577552,34.155154],[134.577008,34.155178],[134.576912,34.155161],[134.576771,34.155122],[134.576195,34.154969],[134.575393,34.154571],[134.574493,34.154299],[134.573819,34.154183],[134.573506,34.154172],[134.573479,34.154171],[134.573114,34.154192],[134.572761,34.15426],[134.572171,34.154407],[134.571784,34.154454],[134.571418,34.154526],[134.571205,34.154618],[134.570827,34.15481],[134.570442,34.154945],[134.570148,34.155034],[134.569915,34.155042],[134.569727,34.155034],[134.569512,34.154972],[134.569382,34.154881],[134.569327,34.154661],[134.569318,34.154228],[134.569286,34.154074],[134.569268,34.153856],[134.569254,34.153694],[134.569275,34.153426],[134.569494,34.15293],[134.5696,34.152563],[134.569658,34.152329],[134.569778,34.152066],[134.570059,34.151567],[134.570148,34.151253],[134.570174,34.150971],[134.570178,34.150577],[134.570147,34.150182],[134.570104,34.149974],[134.569978,34.14979],[134.570021,34.149661],[134.570261,34.149363],[134.57056,34.149041],[134.570733,34.148906],[134.571197,34.148631],[134.571448,34.148571],[134.571642,34.148489],[134.571501,34.147995],[134.571453,34.147881],[134.571409,34.147534],[134.571298,34.147427],[134.571047,34.146994],[134.570788,34.146668],[134.570232,34.146164],[134.570046,34.145951],[134.569935,34.145842],[134.569767,34.145668],[134.569612,34.145222],[134.569581,34.144989],[134.569578,34.144798],[134.569703,34.144669],[134.569849,34.144477],[134.570006,34.144195],[134.570114,34.144089],[134.570427,34.143963],[134.570552,34.143895],[134.570642,34.143756],[134.570635,34.143623],[134.570749,34.143393],[134.570929,34.14312],[134.571059,34.142981],[134.571442,34.142883],[134.571567,34.142786],[134.571861,34.142582],[134.572185,34.142279],[134.572447,34.14201],[134.572428,34.14191],[134.572666,34.141661],[134.572853,34.141492],[134.5733,34.141083],[134.573861,34.14054],[134.573912,34.140459],[134.574352,34.140407],[134.574747,34.140356],[134.575182,34.140295],[134.575543,34.140259],[134.575915,34.140246],[134.57654,34.140241],[134.577395,34.140319],[134.578429,34.1405],[134.57962,34.140647],[134.57985,34.14074],[134.579989,34.140848],[134.580379,34.141279],[134.580731,34.141661],[134.581271,34.142247],[134.581524,34.142774],[134.580566,34.14312],[134.580538,34.143164],[134.580943,34.143451],[134.581122,34.143568],[134.581428,34.143784],[134.581588,34.143901],[134.581692,34.14397],[134.581805,34.144028],[134.581885,34.14407],[134.581984,34.144093],[134.582082,34.14411],[134.582287,34.144609],[134.582466,34.145042],[134.583343,34.144682],[134.583292,34.144515],[134.583201,34.144321],[134.58314,34.144055],[134.583085,34.14377],[134.583036,34.143518],[134.582889,34.143252],[134.582777,34.143044],[134.582626,34.142902],[134.582319,34.142565],[134.583078,34.142311],[134.58375,34.142065],[134.58407,34.142672],[134.584579,34.14358],[134.58494,34.144334],[134.585217,34.144901],[134.585909,34.146012],[134.586369,34.14666],[134.586733,34.14724],[134.586917,34.147534]]]},"properties":{"S_NAME":"中喜来字なだ","HCODE":8101}},{"type":"Feature","geometry":{"type":"Polygon","coordinates":[[[134.597588,34.146629],[134.597119,34.14658],[134.596804,34.146547],[134.596417,34.146508],[134.596122,34.146461],[134.595841,34.146384],[134.595602,34.146301],[134.594915,34.146128],[134.594616,34.146053],[134.594067,34.145914],[134.593779,34.145801],[134.593546,34.145709],[134.593473,34.145679],[134.59338,34.145641],[134.592288,34.145206],[134.591784,34.145008],[134.591537,34.144907],[134.591403,34.145381],[134.59132,34.145677],[134.591062,34.146567],[134.591001,34.146581],[134.589264,34.146974],[134.588838,34.147069],[134.588388,34.147169],[134.588303,34.147188],[134.587607,34.147361],[134.587186,34.147442],[134.587051,34.147477],[134.586917,34.147534],[134.586733,34.14724],[134.586369,34.14666],[134.585909,34.146012],[134.585217,34.144901],[134.58494,34.144334],[134.584579,34.14358],[134.58407,34.142672],[134.58375,34.142065],[134.583211,34.140701],[134.583048,34.140057],[134.582821,34.13937],[134.58263,34.138993],[134.583118,34.138648],[134.58416,34.138009],[134.586617,34.137881],[134.58696,34.138086],[134.587685,34.138563],[134.588761,34.13914],[134.588841,34.139081],[134.589295,34.139444],[134.590836,34.140832],[134.591459,34.141369],[134.59334,34.14289],[134.593532,34.143072],[134.593566,34.143099],[134.59398,34.143441],[134.594188,34.143629],[134.594373,34.1438],[134.595206,34.144534],[134.594981,34.145583],[134.595001,34.145588],[134.597053,34.146102],[134.597639,34.146634],[134.597588,34.146629]]]},"properties":{"S_NAME":"中喜来字稲本","HCODE":8101}},{"type":"Feature","geometry":{"type":"Polygon","coordinates":[[[134.620499,34.132408],[134.621814,34.137206],[134.61752,34.138011],[134.617622,34.138148],[134.617741,34.138298],[134.617924,34.138544],[134.618053,34.13872],[134.618146,34.138844],[134.61822,34.138938],[134.618371,34.139131],[134.618416,34.139192],[134.618451,34.139242],[134.618482,34.139287],[134.618522,34.139342],[134.618578,34.139415],[134.618642,34.139496],[134.618698,34.139566],[134.618742,34.139624],[134.618781,34.139678],[134.61882,34.139742],[134.618868,34.139822],[134.618934,34.139925],[134.61901,34.140042],[134.619083,34.140151],[134.619137,34.140232],[134.619183,34.140302],[134.619233,34.140379],[134.619289,34.140469],[134.619329,34.14053],[134.619348,34.140557],[134.619404,34.140634],[134.619462,34.140703],[134.619525,34.140769],[134.619593,34.140836],[134.619628,34.140869],[134.619719,34.140959],[134.619887,34.141335],[134.621077,34.141589],[134.622268,34.14184],[134.622282,34.141906],[134.62225,34.141979],[134.62065,34.14162],[134.619624,34.141395],[134.619548,34.141379],[134.619094,34.141282],[134.61892,34.141244],[134.618753,34.141207],[134.618599,34.141173],[134.618458,34.141142],[134.618332,34.141117],[134.618224,34.141094],[134.61814,34.141075],[134.618083,34.141058],[134.618057,34.141047],[134.617902,34.14111],[134.616195,34.141814],[134.614323,34.142693],[134.614278,34.142714],[134.614237,34.142741],[134.614197,34.142774],[134.614157,34.142822],[134.614146,34.142837],[134.609807,34.144412],[134.605613,34.146064],[134.605037,34.14629],[134.603075,34.147061],[134.602101,34.147456],[134.601499,34.147701],[134.601494,34.147702],[134.601477,34.147689],[134.600517,34.146847],[134.599933,34.146335],[134.599495,34.14671],[134.598687,34.147402],[134.598581,34.147492],[134.597588,34.146629],[134.597639,34.146634],[134.597053,34.146102],[134.595001,34.145588],[134.594981,34.145583],[134.595206,34.144534],[134.596102,34.143798],[134.596717,34.143316],[134.597522,34.142701],[134.598202,34.142155],[134.598921,34.141583],[134.599825,34.140849],[134.600274,34.140491],[134.602062,34.139052],[134.602959,34.138325],[134.607249,34.134955],[134.607439,34.134806],[134.60905,34.13451],[134.614103,34.133555],[134.620499,34.132408]]]},"properties":{"S_NAME":"中喜来字福有開拓","HCODE":8101}},{"type":"Feature","geometry":{"type":"Polygon","coordinates":[[[134.588841,34.139081],[134.588761,34.13914],[134.587685,34.138563],[134.58696,34.138086],[134.586617,34.137881],[134.58416,34.138009],[134.583118,34.138648],[134.58263,34.138993],[134.582821,34.13937],[134.583048,34.140057],[134.583211,34.140701],[134.58375,34.142065],[134.583078,34.142311],[134.582319,34.142565],[134.582626,34.142902],[134.582777,34.143044],[134.582889,34.143252],[134.583036,34.143518],[134.583085,34.14377],[134.58314,34.144055],[134.583201,34.144321],[134.583292,34.144515],[134.583343,34.144682],[134.582466,34.145042],[134.582287,34.144609],[134.582082,34.14411],[134.581984,34.144093],[134.581885,34.14407],[134.581805,34.144028],[134.581692,34.14397],[134.581588,34.143901],[134.581428,34.143784],[134.581122,34.143568],[134.580943,34.143451],[134.580538,34.143164],[134.580566,34.14312],[134.581524,34.142774],[134.581271,34.142247],[134.580731,34.141661],[134.580379,34.141279],[134.579989,34.140848],[134.57985,34.14074],[134.57962,34.140647],[134.578429,34.1405],[134.577395,34.140319],[134.57654,34.140241],[134.575915,34.140246],[134.575543,34.140259],[134.575182,34.140295],[134.574747,34.140356],[134.574352,34.140407],[134.573912,34.140459],[134.573285,34.14035],[134.572791,34.14024],[134.5724,34.140172],[134.572044,34.140099],[134.571815,34.140023],[134.571708,34.140002],[134.571414,34.139944],[134.571073,34.139919],[134.570071,34.139811],[134.569866,34.139827],[134.568889,34.140093],[134.568871,34.139919],[134.568872,34.139385],[134.568895,34.139095],[134.56888,34.139087],[134.568901,34.138519],[134.568917,34.138208],[134.568897,34.138245],[134.568898,34.138231],[134.568925,34.137661],[134.56892,34.137377],[134.568931,34.137172],[134.568631,34.137174],[134.568298,34.137183],[134.567774,34.137176],[134.567483,34.136807],[134.567467,34.136786],[134.567253,34.136493],[134.565804,34.134968],[134.565993,34.134751],[134.565811,34.134636],[134.565677,34.134519],[134.565415,34.134326],[134.565225,34.134139],[134.564975,34.133907],[134.564714,34.13374],[134.564808,34.133321],[134.564844,34.13315],[134.564881,34.132995],[134.564883,34.132989],[134.564926,34.132767],[134.56508,34.132609],[134.565266,34.132373],[134.565435,34.132176],[134.565529,34.132149],[134.565701,34.13207],[134.566254,34.131785],[134.566302,34.131767],[134.566577,34.131619],[134.56678,34.131559],[134.566936,34.131512],[134.56697,34.131509],[134.567085,34.131498],[134.567238,34.131471],[134.567398,34.131443],[134.567921,34.131314],[134.56814,34.13126],[134.568416,34.131093],[134.568521,34.131029],[134.568559,34.131013],[134.568603,34.130996],[134.569889,34.130997],[134.569927,34.130997],[134.569967,34.130998],[134.570488,34.131005],[134.571734,34.130994],[134.572227,34.130971],[134.572455,34.130982],[134.573223,34.130955],[134.573962,34.130949],[134.57401,34.130949],[134.575726,34.130901],[134.575804,34.130324],[134.576055,34.130309],[134.576629,34.130361],[134.576725,34.130349],[134.576779,34.130342],[134.57695,34.13032],[134.577317,34.130317],[134.578814,34.130062],[134.578858,34.130054],[134.57989,34.129888],[134.580201,34.130992],[134.580346,34.131442],[134.580438,34.131651],[134.580572,34.131966],[134.580694,34.1322],[134.581048,34.132618],[134.581543,34.133175],[134.581547,34.133313],[134.581542,34.13342],[134.58152,34.133528],[134.581475,34.13364],[134.581936,34.133876],[134.582315,34.1341],[134.582812,34.134363],[134.583105,34.134549],[134.583158,34.134712],[134.583226,34.134834],[134.583286,34.13494],[134.583376,34.135061],[134.583518,34.135197],[134.583691,34.135345],[134.5842,34.135604],[134.584668,34.135826],[134.585205,34.136095],[134.585936,34.136428],[134.585904,34.136629],[134.586425,34.137115],[134.58657,34.137246],[134.586701,34.137364],[134.587122,34.137732],[134.588841,34.139081]]]},"properties":{"S_NAME":"広島","HCODE":8101}},{"type":"Feature","geometry":{"type":"Polygon","coordinates":[[[134.598921,34.141583],[134.598202,34.142155],[134.597522,34.142701],[134.596717,34.143316],[134.596102,34.143798],[134.595206,34.144534],[134.594373,34.1438],[134.594188,34.143629],[134.59398,34.143441],[134.593566,34.143099],[134.593532,34.143072],[134.59334,34.14289],[134.591459,34.141369],[134.590836,34.140832],[134.589295,34.139444],[134.588841,34.139081],[134.587122,34.137732],[134.586701,34.137364],[134.58657,34.137246],[134.586425,34.137115],[134.585904,34.136629],[134.585936,34.136428],[134.585205,34.136095],[134.584668,34.135826],[134.5842,34.135604],[134.583691,34.135345],[134.583518,34.135197],[134.583376,34.135061],[134.583286,34.13494],[134.583226,34.134834],[134.583158,34.134712],[134.583105,34.134549],[134.582812,34.134363],[134.582315,34.1341],[134.581936,34.133876],[134.581475,34.13364],[134.58152,34.133528],[134.581542,34.13342],[134.581547,34.133313],[134.581543,34.133175],[134.581048,34.132618],[134.580694,34.1322],[134.580572,34.131966],[134.580438,34.131651],[134.580346,34.131442],[134.580201,34.130992],[134.57989,34.129888],[134.580303,34.129822],[134.580336,34.129816],[134.580754,34.1297],[134.580982,34.129637],[134.581866,34.129393],[134.582325,34.129187],[134.582956,34.128906],[134.583882,34.128365],[134.584524,34.12795],[134.585221,34.127436],[134.585792,34.126975],[134.586125,34.126706],[134.586912,34.12608],[134.586963,34.126039],[134.586972,34.126032],[134.58803,34.125147],[134.588147,34.125056],[134.588912,34.124462],[134.589859,34.123497],[134.590566,34.122722],[134.591219,34.121911],[134.591806,34.121029],[134.592513,34.120028],[134.593187,34.119046],[134.593222,34.118995],[134.594664,34.119325],[134.596828,34.119978],[134.598394,34.12049],[134.598412,34.121255],[134.598396,34.121576],[134.598321,34.12207],[134.598334,34.122789],[134.59836,34.123293],[134.598496,34.124984],[134.598465,34.126178],[134.598348,34.126252],[134.598162,34.126361],[134.597894,34.12651],[134.597236,34.126852],[134.596956,34.126967],[134.596536,34.12716],[134.596442,34.127098],[134.596073,34.127169],[134.595975,34.127264],[134.595917,34.127205],[134.595854,34.127144],[134.5958,34.127113],[134.595747,34.127098],[134.595662,34.127095],[134.595254,34.127089],[134.594617,34.126568],[134.593809,34.127151],[134.593241,34.127604],[134.592585,34.128141],[134.59232,34.128309],[134.592018,34.128551],[134.591855,34.128681],[134.59127,34.129147],[134.590898,34.129424],[134.590538,34.1297],[134.589499,34.130528],[134.588355,34.131401],[134.588283,34.131493],[134.588213,34.131628],[134.588132,34.131802],[134.588073,34.131937],[134.588058,34.132029],[134.588064,34.1321],[134.588433,34.132692],[134.588651,34.132529],[134.588785,34.132508],[134.589325,34.132966],[134.59022,34.133724],[134.588849,34.134911],[134.588856,34.134968],[134.588896,34.135151],[134.589436,34.137075],[134.590495,34.138123],[134.591489,34.137311],[134.591973,34.137725],[134.591639,34.137943],[134.592081,34.138331],[134.591525,34.138788],[134.592879,34.13996],[134.593148,34.140109],[134.593313,34.140145],[134.593421,34.140135],[134.594699,34.139914],[134.595504,34.139774],[134.59567,34.139688],[134.595857,34.139602],[134.596224,34.139341],[134.597144,34.140151],[134.597219,34.140094],[134.598921,34.141583]]]},"properties":{"S_NAME":"笹木野","HCODE":8101}},{"type":"Feature","geometry":{"type":"Polygon","coordinates":[[[134.620499,34.132408],[134.614103,34.133555],[134.60905,34.13451],[134.607439,34.134806],[134.607249,34.134955],[134.602959,34.138325],[134.602062,34.139052],[134.600274,34.140491],[134.599825,34.140849],[134.598921,34.141583],[134.597219,34.140094],[134.597144,34.140151],[134.596224,34.139341],[134.595857,34.139602],[134.59567,34.139688],[134.595504,34.139774],[134.594699,34.139914],[134.593421,34.140135],[134.593313,34.140145],[134.593148,34.140109],[134.592879,34.13996],[134.591525,34.138788],[134.592081,34.138331],[134.591639,34.137943],[134.591973,34.137725],[134.591489,34.137311],[134.590495,34.138123],[134.589436,34.137075],[134.588896,34.135151],[134.588856,34.134968],[134.588849,34.134911],[134.59022,34.133724],[134.59058,34.133448],[134.590711,34.133173],[134.591616,34.1324],[134.592092,34.132006],[134.593178,34.131158],[134.593312,34.131084],[134.593539,34.130974],[134.593714,34.130924],[134.593969,34.130868],[134.594191,34.130817],[134.594679,34.130423],[134.596538,34.128891],[134.597928,34.130029],[134.59557,34.130459],[134.595688,34.13095],[134.598508,34.130423],[134.598384,34.129942],[134.599626,34.128897],[134.599751,34.128823],[134.600391,34.129373],[134.600565,34.129235],[134.602864,34.131208],[134.606082,34.130467],[134.606335,34.130528],[134.606809,34.130431],[134.607411,34.130328],[134.607555,34.130274],[134.607671,34.13018],[134.607845,34.130042],[134.60798,34.13006],[134.608087,34.130196],[134.6082,34.130307],[134.608446,34.130261],[134.608615,34.130201],[134.609905,34.129963],[134.61355,34.129264],[134.616201,34.128782],[134.621397,34.127795],[134.621492,34.127752],[134.621558,34.127767],[134.623252,34.128151],[134.623257,34.128156],[134.624026,34.131049],[134.622744,34.132005],[134.620499,34.132408]]]},"properties":{"S_NAME":"満穂","HCODE":8101}},{"type":"Feature","geometry":{"type":"Polygon","coordinates":[[[134.599626,34.128897],[134.598384,34.129942],[134.598508,34.130423],[134.595688,34.13095],[134.59557,34.130459],[134.597928,34.130029],[134.596538,34.128891],[134.594679,34.130423],[134.594191,34.130817],[134.593969,34.130868],[134.593714,34.130924],[134.593539,34.130974],[134.593312,34.131084],[134.593178,34.131158],[134.592092,34.132006],[134.591616,34.1324],[134.590711,34.133173],[134.59058,34.133448],[134.59022,34.133724],[134.589325,34.132966],[134.588785,34.132508],[134.588651,34.132529],[134.588433,34.132692],[134.588064,34.1321],[134.588058,34.132029],[134.588073,34.131937],[134.588132,34.131802],[134.588213,34.131628],[134.588283,34.131493],[134.588355,34.131401],[134.589499,34.130528],[134.590538,34.1297],[134.590898,34.129424],[134.59127,34.129147],[134.591855,34.128681],[134.592018,34.128551],[134.59232,34.128309],[134.592585,34.128141],[134.593241,34.127604],[134.593809,34.127151],[134.594617,34.126568],[134.595254,34.127089],[134.595662,34.127095],[134.595747,34.127098],[134.5958,34.127113],[134.595854,34.127144],[134.595917,34.127205],[134.595975,34.127264],[134.595894,34.127342],[134.596083,34.127452],[134.596343,34.12764],[134.596297,34.127708],[134.596623,34.127954],[134.597592,34.127195],[134.59898,34.128362],[134.599626,34.128897]]]},"properties":{"S_NAME":"住吉","HCODE":8101}},{"type":"Feature","geometry":{"type":"Polygon","coordinates":[[[134.59898,34.128362],[134.597592,34.127195],[134.596623,34.127954],[134.596297,34.127708],[134.596343,34.12764],[134.596083,34.127452],[134.595894,34.127342],[134.595975,34.127264],[134.596073,34.127169],[134.596442,34.127098],[134.596536,34.12716],[134.596956,34.126967],[134.597236,34.126852],[134.597894,34.12651],[134.598162,34.126361],[134.598348,34.126252],[134.598465,34.126178],[134.598496,34.124984],[134.59836,34.123293],[134.598334,34.122789],[134.598321,34.12207],[134.598396,34.121576],[134.598412,34.121255],[134.598394,34.12049],[134.598942,34.120944],[134.599399,34.121359],[134.599495,34.121485],[134.599585,34.121669],[134.599676,34.121936],[134.599734,34.122195],[134.599763,34.122311],[134.600008,34.124473],[134.600074,34.125013],[134.600268,34.125757],[134.600447,34.126443],[134.60025,34.126844],[134.600113,34.127094],[134.599795,34.127453],[134.599511,34.127763],[134.599391,34.127988],[134.59898,34.128362]]]},"properties":{"S_NAME":"豊中","HCODE":8101}},{"type":"Feature","geometry":{"type":"Polygon","coordinates":[[[134.598433,34.111291],[134.598432,34.111231],[134.598437,34.111205],[134.59845,34.111174],[134.598433,34.111167],[134.598467,34.111079],[134.59859,34.110905],[134.59871,34.110748],[134.598899,34.110508],[134.599018,34.110371],[134.599274,34.110185],[134.599308,34.109936],[134.599339,34.109693],[134.599359,34.109518],[134.599395,34.109409],[134.599554,34.109189],[134.599636,34.109075],[134.599651,34.108874],[134.599662,34.108809],[134.599667,34.108801],[134.599715,34.108719],[134.600084,34.108236],[134.600206,34.108049],[134.600391,34.107798],[134.60047,34.10769],[134.600781,34.107387],[134.601012,34.107295],[134.601004,34.107279],[134.601072,34.107257],[134.601127,34.107253],[134.601209,34.107276],[134.601326,34.107345],[134.601357,34.107357],[134.601379,34.10734],[134.60141,34.107329],[134.601472,34.107315],[134.601552,34.107306],[134.601956,34.106916],[134.602825,34.106232],[134.602914,34.106166],[134.602999,34.106102],[134.603123,34.106011],[134.603232,34.105939],[134.603338,34.105855],[134.603464,34.105756],[134.603594,34.105655],[134.603729,34.105554],[134.603853,34.105467],[134.603958,34.105397],[134.60405,34.105342],[134.604138,34.105295],[134.604225,34.105252],[134.604305,34.105214],[134.604376,34.105179],[134.604455,34.105145],[134.604558,34.10511],[134.604689,34.105071],[134.604835,34.105031],[134.605371,34.104877],[134.606121,34.104656],[134.607322,34.104317],[134.608415,34.104012],[134.60843,34.104009],[134.609432,34.103969],[134.609434,34.104002],[134.608436,34.104041],[134.608414,34.104046],[134.607335,34.104348],[134.606134,34.104686],[134.605385,34.104907],[134.604847,34.105062],[134.604702,34.105101],[134.604572,34.105139],[134.604473,34.105173],[134.604396,34.105207],[134.604325,34.105242],[134.604245,34.10528],[134.604158,34.105322],[134.604073,34.105368],[134.603982,34.105423],[134.603878,34.105492],[134.603754,34.105579],[134.603621,34.105679],[134.60349,34.10578],[134.603365,34.105879],[134.603261,34.105962],[134.603197,34.106023],[134.603068,34.106129],[134.602991,34.106188],[134.602915,34.106247],[134.602868,34.106281],[134.602166,34.106842],[134.602088,34.106914],[134.60208,34.106921],[134.601546,34.107454],[134.601528,34.107466],[134.60159,34.107524],[134.601619,34.107498],[134.601623,34.107494],[134.601627,34.107492],[134.601631,34.107492],[134.601635,34.107494],[134.601638,34.107498],[134.601646,34.107509],[134.601669,34.107534],[134.601745,34.107637],[134.601793,34.10774],[134.601804,34.107872],[134.601816,34.10792],[134.601843,34.108021],[134.601865,34.108062],[134.601902,34.108134],[134.601931,34.108184],[134.601958,34.10824],[134.601968,34.108261],[134.601991,34.108307],[134.602005,34.108347],[134.602018,34.10849],[134.602032,34.108711],[134.602077,34.108922],[134.602126,34.10905],[134.602223,34.109214],[134.602344,34.109417],[134.602402,34.109535],[134.602423,34.109587],[134.602454,34.109662],[134.602516,34.10985],[134.602564,34.110039],[134.602605,34.110215],[134.602605,34.110258],[134.602609,34.110447],[134.602597,34.11055],[134.602584,34.110648],[134.602579,34.110728],[134.602578,34.110821],[134.602577,34.110879],[134.602576,34.110923],[134.602585,34.110962],[134.602607,34.111058],[134.602636,34.111184],[134.60268,34.111373],[134.602713,34.111579],[134.602775,34.111982],[134.602822,34.112284],[134.602855,34.112345],[134.602908,34.112413],[134.60295,34.112446],[134.603011,34.112475],[134.603077,34.112485],[134.603148,34.11249],[134.60319,34.112495],[134.603241,34.112505],[134.603259,34.112513],[134.603267,34.112535],[134.603255,34.112566],[134.603231,34.112595],[134.603202,34.112606],[134.60306,34.112634],[134.603036,34.112641],[134.602998,34.112656],[134.602956,34.112695],[134.60291,34.112736],[134.602992,34.113414],[134.603017,34.113649],[134.603061,34.113714],[134.603101,34.113755],[134.603191,34.113818],[134.60325,34.113857],[134.603255,34.113907],[134.603174,34.114004],[134.603063,34.114055],[134.603025,34.1141],[134.603029,34.114153],[134.603084,34.114719],[134.603164,34.115304],[134.603224,34.115673],[134.603327,34.116252],[134.603344,34.116353],[134.603451,34.116434],[134.603539,34.116532],[134.603626,34.116741],[134.603661,34.11683],[134.603633,34.116899],[134.603656,34.116965],[134.603692,34.11701],[134.603739,34.117072],[134.60377,34.117122],[134.603836,34.117165],[134.603885,34.117213],[134.603911,34.117261],[134.604001,34.117323],[134.604029,34.117345],[134.604073,34.11739],[134.604133,34.117467],[134.604148,34.117511],[134.604167,34.117564],[134.60419,34.117599],[134.604202,34.117649],[134.604216,34.117725],[134.60422,34.11776],[134.604225,34.117795],[134.604231,34.117855],[134.604212,34.117896],[134.604187,34.117951],[134.604185,34.117976],[134.604196,34.118025],[134.604205,34.118043],[134.60423,34.118079],[134.604256,34.118133],[134.604264,34.118162],[134.604264,34.118211],[134.604258,34.118243],[134.604262,34.118261],[134.604298,34.118326],[134.604353,34.11842],[134.604364,34.11844],[134.604392,34.118492],[134.604417,34.118542],[134.604432,34.118579],[134.604429,34.118602],[134.604425,34.118616],[134.604437,34.118667],[134.604451,34.118692],[134.604487,34.11873],[134.604518,34.118754],[134.604534,34.118774],[134.604538,34.118799],[134.604527,34.118833],[134.604512,34.11889],[134.604514,34.11899],[134.604529,34.119089],[134.604571,34.119246],[134.604598,34.119408],[134.604611,34.119532],[134.604619,34.119638],[134.60462,34.119639],[134.604621,34.11964],[134.604501,34.119655],[134.604483,34.119658],[134.60356,34.120198],[134.603281,34.12032],[134.602813,34.119724],[134.60247,34.11941],[134.60239,34.119258],[134.602238,34.118984],[134.602177,34.118895],[134.601835,34.1184],[134.60156,34.117862],[134.601362,34.117387],[134.601132,34.116543],[134.600913,34.115934],[134.600968,34.115846],[134.600778,34.115413],[134.600706,34.115308],[134.600525,34.114968],[134.600375,34.114835],[134.60029,34.114524],[134.599943,34.113869],[134.599816,34.113634],[134.599653,34.113436],[134.599518,34.113312],[134.599335,34.113188],[134.599179,34.113119],[134.599035,34.113032],[134.598955,34.112959],[134.598877,34.112804],[134.598794,34.112565],[134.598789,34.11251],[134.598774,34.11241],[134.598773,34.112307],[134.598675,34.112224],[134.598544,34.112087],[134.598536,34.111954],[134.598515,34.111754],[134.59845,34.111519],[134.598433,34.111291]]]},"properties":{"S_NAME":"長原","HCODE":8101}},{"type":"Feature","geometry":{"type":"Polygon","coordinates":[[[134.616201,34.128782],[134.61355,34.129264],[134.609905,34.129963],[134.608615,34.130201],[134.608446,34.130261],[134.6082,34.130307],[134.608087,34.130196],[134.60798,34.13006],[134.607845,34.130042],[134.607671,34.13018],[134.607555,34.130274],[134.607411,34.130328],[134.606809,34.130431],[134.606335,34.130528],[134.606082,34.130467],[134.602864,34.131208],[134.600565,34.129235],[134.600391,34.129373],[134.599751,34.128823],[134.599626,34.128897],[134.59898,34.128362],[134.599391,34.127988],[134.599511,34.127763],[134.599795,34.127453],[134.600113,34.127094],[134.60025,34.126844],[134.600447,34.126443],[134.600268,34.125757],[134.600074,34.125013],[134.600008,34.124473],[134.599763,34.122311],[134.599734,34.122195],[134.599676,34.121936],[134.599585,34.121669],[134.599495,34.121485],[134.599399,34.121359],[134.598942,34.120944],[134.598394,34.12049],[134.596828,34.119978],[134.594664,34.119325],[134.593222,34.118995],[134.594035,34.117803],[134.594829,34.116695],[134.59559,34.115668],[134.596014,34.114965],[134.596339,34.113965],[134.596762,34.112821],[134.597131,34.111551],[134.597226,34.111169],[134.597304,34.110858],[134.597509,34.110011],[134.597824,34.109111],[134.598433,34.111291],[134.59845,34.111519],[134.598515,34.111754],[134.598536,34.111954],[134.598544,34.112087],[134.598675,34.112224],[134.598773,34.112307],[134.598774,34.11241],[134.598789,34.11251],[134.598794,34.112565],[134.598877,34.112804],[134.598955,34.112959],[134.599035,34.113032],[134.599179,34.113119],[134.599335,34.113188],[134.599518,34.113312],[134.599653,34.113436],[134.599816,34.113634],[134.599943,34.113869],[134.60029,34.114524],[134.600375,34.114835],[134.600525,34.114968],[134.600706,34.115308],[134.600778,34.115413],[134.600968,34.115846],[134.600913,34.115934],[134.601132,34.116543],[134.601362,34.117387],[134.60156,34.117862],[134.601835,34.1184],[134.602177,34.118895],[134.602238,34.118984],[134.60239,34.119258],[134.60247,34.11941],[134.602813,34.119724],[134.603281,34.12032],[134.60356,34.120198],[134.604483,34.119658],[134.604501,34.119655],[134.604621,34.11964],[134.604624,34.119647],[134.604638,34.119677],[134.604648,34.119706],[134.604665,34.119764],[134.604684,34.119821],[134.604707,34.119873],[134.604737,34.119918],[134.60477,34.119958],[134.604804,34.119994],[134.604841,34.120025],[134.604879,34.120054],[134.604916,34.12008],[134.604954,34.120103],[134.604988,34.120124],[134.605011,34.120148],[134.605017,34.120177],[134.605014,34.120206],[134.60501,34.120233],[134.605009,34.120259],[134.605013,34.120287],[134.605017,34.120323],[134.605022,34.120367],[134.605029,34.120413],[134.605032,34.120459],[134.605034,34.120508],[134.605029,34.120559],[134.605024,34.120606],[134.605021,34.120646],[134.605022,34.120682],[134.60503,34.120725],[134.605044,34.12078],[134.605063,34.120841],[134.605088,34.120894],[134.605116,34.120938],[134.605133,34.120955],[134.605171,34.120984],[134.605216,34.121006],[134.605254,34.121025],[134.605258,34.121026],[134.605289,34.121051],[134.605315,34.121081],[134.605337,34.121115],[134.605355,34.121153],[134.605365,34.12119],[134.605365,34.121207],[134.605363,34.12124],[134.605366,34.121268],[134.605377,34.121291],[134.605391,34.121312],[134.605399,34.121334],[134.605399,34.12136],[134.605392,34.121391],[134.605382,34.121426],[134.60537,34.121467],[134.605353,34.12151],[134.605335,34.121554],[134.605315,34.121599],[134.605309,34.121588],[134.605266,34.121509],[134.605194,34.121528],[134.605237,34.121607],[134.605282,34.121689],[134.605375,34.12186],[134.605454,34.122018],[134.605489,34.122098],[134.605533,34.122192],[134.605585,34.122304],[134.605619,34.122373],[134.605642,34.122252],[134.6057,34.122286],[134.605704,34.122284],[134.605744,34.122312],[134.605788,34.122364],[134.605818,34.122438],[134.605833,34.122491],[134.605837,34.122509],[134.605847,34.122601],[134.605853,34.122659],[134.605866,34.122701],[134.605916,34.122783],[134.605957,34.122825],[134.60601,34.12287],[134.606131,34.122973],[134.606187,34.123026],[134.6065,34.123678],[134.607649,34.125283],[134.607671,34.125275],[134.608461,34.12497],[134.6089,34.124743],[134.608915,34.124738],[134.6099,34.124286],[134.6103,34.1241],[134.610647,34.123943],[134.610967,34.123825],[134.611271,34.123752],[134.611569,34.123713],[134.611806,34.123704],[134.61204,34.123721],[134.612283,34.123765],[134.612238,34.123927],[134.612219,34.124067],[134.612073,34.124553],[134.612159,34.124575],[134.612155,34.124678],[134.612162,34.124827],[134.612458,34.125925],[134.612469,34.125965],[134.612513,34.126103],[134.612581,34.126237],[134.61264,34.12631],[134.612776,34.126419],[134.612894,34.126467],[134.613148,34.126542],[134.613148,34.126632],[134.613263,34.126618],[134.61328,34.126558],[134.613588,34.126619],[134.613889,34.126677],[134.614126,34.126675],[134.614595,34.126596],[134.614636,34.126668],[134.615394,34.126516],[134.615534,34.126495],[134.615704,34.126467],[134.615989,34.127549],[134.615991,34.12755],[134.615911,34.127592],[134.616114,34.128341],[134.61613,34.128519],[134.616154,34.128607],[134.616201,34.128782]]]},"properties":{"S_NAME":"豊岡","HCODE":8101}}]}