{"type":"FeatureCollection","features":[{"type":"Feature","geometry":{"type":"Polygon","coordinates":[[[134.426251,34.137869],[134.426214,34.137975],[134.426143,34.138077],[134.425922,34.138275],[134.425757,34.138406],[134.425699,34.13847],[134.425696,34.138552],[134.425814,34.138843],[134.426089,34.139414],[134.426674,34.140424],[134.426771,34.140569],[134.426853,34.140768],[134.427021,34.14102],[134.42711,34.141179],[134.427111,34.141269],[134.427084,34.141514],[134.426966,34.141701],[134.426935,34.141801],[134.426957,34.141935],[134.426968,34.142015],[134.427004,34.142215],[134.427033,34.14238],[134.427256,34.142863],[134.427369,34.142971],[134.427488,34.143097],[134.427479,34.143278],[134.427341,34.143448],[134.427307,34.143491],[134.427037,34.143798],[134.426615,34.144216],[134.426227,34.144542],[134.425624,34.144995],[134.425358,34.145152],[134.425141,34.14519],[134.424839,34.145194],[134.424439,34.145197],[134.424177,34.145193],[134.423522,34.145431],[134.423237,34.1458],[134.423221,34.145809],[134.422982,34.145948],[134.422623,34.146118],[134.422047,34.146222],[134.421729,34.146335],[134.421528,34.14641],[134.42139,34.146465],[134.421246,34.146512],[134.420908,34.146551],[134.420807,34.14658],[134.4206,34.146674],[134.420434,34.14675],[134.420163,34.146933],[134.419973,34.147186],[134.419842,34.147476],[134.419825,34.147813],[134.419771,34.147934],[134.419608,34.148089],[134.419438,34.148308],[134.419303,34.148497],[134.418913,34.148723],[134.418585,34.149018],[134.418511,34.149159],[134.418458,34.149223],[134.418052,34.149517],[134.41799,34.1499],[134.41819,34.150575],[134.418292,34.150823],[134.418337,34.151089],[134.418356,34.151278],[134.418303,34.151486],[134.41817,34.151648],[134.417936,34.151902],[134.417669,34.152213],[134.417428,34.152502],[134.417192,34.152977],[134.417127,34.153195],[134.416911,34.153484],[134.416802,34.15359],[134.416089,34.154037],[134.415964,34.154164],[134.415812,34.154555],[134.415705,34.154808],[134.415489,34.155083],[134.415021,34.155395],[134.414864,34.155518],[134.414274,34.155948],[134.414026,34.156182],[134.413673,34.156513],[134.413539,34.156611],[134.412893,34.156951],[134.412871,34.15701],[134.412846,34.157058],[134.412824,34.157116],[134.412808,34.157183],[134.412798,34.157257],[134.412797,34.157339],[134.412802,34.15743],[134.412823,34.157625],[134.412829,34.157717],[134.412827,34.157795],[134.412816,34.157864],[134.412799,34.157925],[134.412775,34.157982],[134.41272,34.158091],[134.412622,34.158273],[134.412498,34.158495],[134.412459,34.158559],[134.41239,34.158672],[134.412358,34.158729],[134.412323,34.158793],[134.41229,34.15885],[134.412258,34.158898],[134.412211,34.158948],[134.412143,34.158994],[134.412131,34.159001],[134.412096,34.15902],[134.411912,34.159113],[134.411822,34.159161],[134.411776,34.15919],[134.411722,34.159233],[134.411689,34.159272],[134.411678,34.15929],[134.411668,34.159315],[134.411663,34.159334],[134.411656,34.159394],[134.41166,34.159459],[134.411665,34.159495],[134.411689,34.159566],[134.411701,34.159594],[134.411739,34.159649],[134.41178,34.159692],[134.411794,34.159703],[134.411834,34.159724],[134.411875,34.159738],[134.41192,34.159752],[134.411971,34.159773],[134.412011,34.159793],[134.412038,34.159811],[134.412069,34.159848],[134.41209,34.159897],[134.412099,34.15995],[134.412102,34.16002],[134.4121,34.160096],[134.412103,34.160173],[134.412106,34.160209],[134.412116,34.160283],[134.412125,34.16035],[134.412123,34.160415],[134.412109,34.160483],[134.412093,34.160525],[134.412061,34.160588],[134.411989,34.160706],[134.411945,34.160768],[134.411862,34.160874],[134.411788,34.160959],[134.411692,34.161054],[134.411595,34.161146],[134.411499,34.161238],[134.411409,34.16133],[134.411313,34.161421],[134.411226,34.161493],[134.41112,34.161572],[134.411032,34.161633],[134.410998,34.161656],[134.410945,34.161685],[134.410902,34.161705],[134.410835,34.161731],[134.410768,34.161749],[134.410655,34.161773],[134.410521,34.161798],[134.410431,34.161817],[134.410357,34.161838],[134.410295,34.161864],[134.410226,34.161897],[134.410166,34.161929],[134.410126,34.161952],[134.410098,34.161975],[134.410078,34.162004],[134.410052,34.162048],[134.410011,34.162097],[134.409943,34.162143],[134.409866,34.162179],[134.409823,34.162195],[134.409739,34.162213],[134.409664,34.162223],[134.409578,34.162227],[134.409502,34.16223],[134.409438,34.16223],[134.409395,34.16223],[134.409359,34.162237],[134.409302,34.162257],[134.409218,34.162293],[134.409129,34.162333],[134.409042,34.162372],[134.408966,34.162408],[134.408897,34.162439],[134.408825,34.162464],[134.408755,34.16248],[134.408678,34.162492],[134.408572,34.1625],[134.408432,34.162506],[134.40798,34.162538],[134.407821,34.162551],[134.407692,34.162562],[134.407577,34.16257],[134.407471,34.162576],[134.407379,34.162586],[134.407303,34.1626],[134.407244,34.162621],[134.407197,34.162643],[134.407175,34.162659],[134.40714,34.162691],[134.407113,34.162736],[134.407093,34.162793],[134.407073,34.162863],[134.407047,34.16294],[134.407021,34.163015],[134.407004,34.163076],[134.406989,34.163127],[134.406976,34.163149],[134.406959,34.16317],[134.40693,34.163193],[134.406868,34.163221],[134.406765,34.163268],[134.406695,34.163304],[134.406561,34.163387],[134.406471,34.163452],[134.406387,34.163515],[134.406357,34.163545],[134.406332,34.163577],[134.406316,34.163606],[134.406301,34.163642],[134.406266,34.163723],[134.406221,34.163826],[134.406172,34.163946],[134.406129,34.16406],[134.406105,34.164114],[134.406031,34.164225],[134.405955,34.164345],[134.405922,34.164409],[134.405891,34.164479],[134.405831,34.164623],[134.405781,34.164752],[134.405749,34.164848],[134.405738,34.164902],[134.405723,34.164925],[134.405699,34.164941],[134.405665,34.164958],[134.40559,34.164992],[134.405501,34.165037],[134.405388,34.16509],[134.405274,34.165145],[134.405168,34.165198],[134.404911,34.165328],[134.404809,34.16542],[134.404728,34.165483],[134.404669,34.165585],[134.403956,34.167206],[134.403721,34.167221],[134.403559,34.167258],[134.40345,34.167297],[134.403341,34.167353],[134.403085,34.167514],[134.403014,34.167553],[134.402813,34.167607],[134.402722,34.167661],[134.402389,34.168],[134.401264,34.167745],[134.400302,34.167712],[134.400255,34.167704],[134.400041,34.167325],[134.399893,34.167119],[134.399833,34.167057],[134.399728,34.166998],[134.399458,34.166906],[134.399369,34.16687],[134.399019,34.16663],[134.398689,34.16642],[134.398254,34.16627],[134.398235,34.166236],[134.398244,34.166186],[134.398368,34.165944],[134.398374,34.16589],[134.398358,34.165843],[134.398231,34.16569],[134.398003,34.165496],[134.397839,34.165372],[134.397656,34.165293],[134.397459,34.165212],[134.39739,34.165176],[134.397361,34.165137],[134.397345,34.165096],[134.397306,34.164955],[134.397271,34.164896],[134.397217,34.164841],[134.397106,34.164772],[134.396494,34.16449],[134.395258,34.163951],[134.394947,34.163759],[134.394592,34.163625],[134.393903,34.163544],[134.39361,34.163507],[134.393293,34.163404],[134.392825,34.16359],[134.392693,34.163643],[134.392435,34.162909],[134.392247,34.162233],[134.391962,34.160973],[134.391359,34.156239],[134.391349,34.15615],[134.391344,34.156063],[134.391342,34.155893],[134.391342,34.155807],[134.391332,34.155631],[134.391321,34.155449],[134.391311,34.15526],[134.39131,34.155072],[134.391314,34.15498],[134.391328,34.154807],[134.39135,34.154653],[134.391381,34.154313],[134.391699,34.150348],[134.391804,34.149987],[134.391859,34.149822],[134.391955,34.149596],[134.39208,34.149408],[134.393043,34.148171],[134.393522,34.147602],[134.393822,34.147266],[134.39414,34.147021],[134.394543,34.146738],[134.395827,34.145619],[134.39659,34.144437],[134.397136,34.143653],[134.397152,34.14363],[134.398245,34.14206],[134.398607,34.141318],[134.398674,34.140816],[134.398582,34.139995],[134.398341,34.139292],[134.398023,34.138733],[134.397613,34.138364],[134.397007,34.138109],[134.396927,34.138072],[134.395665,34.137369],[134.395497,34.13721],[134.395474,34.137153],[134.395476,34.137081],[134.395501,34.136851],[134.395536,34.136713],[134.395594,34.136539],[134.395685,34.136384],[134.395991,34.136276],[134.396224,34.136145],[134.39632,34.136082],[134.396485,34.135956],[134.396635,34.135818],[134.396726,34.135716],[134.396805,34.135627],[134.396862,34.135563],[134.397462,34.134669],[134.397601,34.134529],[134.397736,34.134446],[134.397958,34.134341],[134.39816,34.13427],[134.398269,34.134205],[134.39841,34.134037],[134.398579,34.133815],[134.399408,34.132992],[134.399504,34.132859],[134.399618,34.132701],[134.399806,34.132466],[134.399924,34.13234],[134.400074,34.132281],[134.4005,34.132147],[134.4007,34.132102],[134.400757,34.132056],[134.400811,34.132002],[134.400828,34.131924],[134.400823,34.131388],[134.400852,34.131339],[134.401248,34.130895],[134.401698,34.130719],[134.401791,34.130366],[134.401857,34.13021],[134.401928,34.130101],[134.402009,34.130021],[134.402137,34.129944],[134.402349,34.129867],[134.402635,34.129817],[134.402979,34.129806],[134.403907,34.128844],[134.403886,34.12868],[134.40385,34.128306],[134.403844,34.128241],[134.40382,34.127828],[134.403812,34.127733],[134.403812,34.127728],[134.403788,34.127423],[134.403925,34.127181],[134.404091,34.126901],[134.404458,34.126936],[134.404528,34.127032],[134.404572,34.127071],[134.404633,34.127082],[134.404748,34.127079],[134.404822,34.127058],[134.404913,34.127018],[134.404976,34.126973],[134.405017,34.126967],[134.406045,34.126992],[134.406129,34.126994],[134.406203,34.126977],[134.406271,34.126942],[134.406327,34.126877],[134.406382,34.126622],[134.406686,34.126653],[134.406769,34.126685],[134.407347,34.126892],[134.407435,34.126906],[134.407657,34.126887],[134.408102,34.126806],[134.408245,34.12678],[134.409263,34.126666],[134.409273,34.126159],[134.409277,34.126007],[134.409316,34.125906],[134.409386,34.125846],[134.409437,34.125818],[134.409517,34.125811],[134.409729,34.125786],[134.409809,34.125784],[134.410021,34.124073],[134.410642,34.124096],[134.411246,34.124125],[134.411611,34.124142],[134.411648,34.124144],[134.41167,34.124023],[134.411701,34.124015],[134.411738,34.124014],[134.41225,34.124011],[134.412268,34.124011],[134.412298,34.123985],[134.412331,34.123906],[134.41233,34.123839],[134.412977,34.123886],[134.413359,34.123887],[134.413664,34.123889],[134.41427,34.12301],[134.415084,34.121999],[134.415716,34.121306],[134.416127,34.121523],[134.416263,34.121556],[134.416368,34.122295],[134.41652,34.122294],[134.416542,34.122407],[134.416694,34.122433],[134.416756,34.12245],[134.416785,34.122487],[134.416807,34.122593],[134.416804,34.122709],[134.416768,34.122839],[134.416678,34.122888],[134.4166,34.122912],[134.416553,34.123117],[134.416672,34.12311],[134.416816,34.123119],[134.41694,34.123142],[134.417072,34.123189],[134.417207,34.123254],[134.417473,34.123391],[134.41762,34.12346],[134.417676,34.123522],[134.417738,34.123619],[134.4178,34.123746],[134.41782,34.123801],[134.41783,34.123947],[134.417845,34.124259],[134.417885,34.124656],[134.418309,34.124442],[134.418383,34.12441],[134.418442,34.124402],[134.418506,34.124416],[134.419701,34.124677],[134.418889,34.127393],[134.418822,34.127623],[134.418487,34.128762],[134.41843,34.128956],[134.418336,34.129247],[134.418266,34.129508],[134.418252,34.129664],[134.418253,34.129824],[134.41828,34.130039],[134.418341,34.130033],[134.418779,34.129987],[134.419002,34.129981],[134.419154,34.129995],[134.419426,34.130039],[134.420014,34.130171],[134.420278,34.130213],[134.42068,34.130251],[134.420952,34.130253],[134.420931,34.130722],[134.420928,34.130944],[134.420938,34.130989],[134.420977,34.131092],[134.420989,34.131206],[134.421011,34.131393],[134.420988,34.131465],[134.420913,34.131605],[134.420895,34.13165],[134.420861,34.131951],[134.420891,34.132189],[134.420895,34.132242],[134.42088,34.132395],[134.420843,34.132551],[134.420753,34.132659],[134.420653,34.132778],[134.42051,34.132909],[134.420413,34.132984],[134.420297,34.133054],[134.4201,34.13313],[134.420025,34.133153],[134.420247,34.133281],[134.42035,34.133316],[134.420404,34.133334],[134.420575,34.13335],[134.420742,34.133357],[134.421695,34.133356],[134.421425,34.133802],[134.421323,34.133976],[134.421298,34.134072],[134.421311,34.134177],[134.421773,34.134884],[134.421856,34.134995],[134.421904,34.135004],[134.421993,34.135],[134.422173,34.134951],[134.422244,34.134954],[134.422292,34.134966],[134.422513,34.135103],[134.422685,34.135237],[134.422756,34.135329],[134.422853,34.135487],[134.422975,34.135845],[134.423066,34.136011],[134.423161,34.136183],[134.423289,34.136373],[134.423666,34.136711],[134.424865,34.137799],[134.424947,34.137839],[134.425036,34.137857],[134.425162,34.137865],[134.426251,34.137869]]]},"properties":{"S_NAME":"神宅","HCODE":8101}},{"type":"Feature","geometry":{"type":"Polygon","coordinates":[[[134.433475,34.123552],[134.433416,34.123568],[134.433445,34.123769],[134.433441,34.124039],[134.433486,34.124252],[134.433332,34.124306],[134.432912,34.124443],[134.432762,34.124496],[134.432873,34.125297],[134.432912,34.125505],[134.432523,34.125526],[134.432374,34.125574],[134.432004,34.12572],[134.431755,34.12581],[134.431329,34.125974],[134.431066,34.126103],[134.430429,34.126492],[134.430223,34.126637],[134.429761,34.126995],[134.429631,34.127085],[134.429624,34.127091],[134.42955,34.12738],[134.429518,34.127498],[134.429451,34.127694],[134.429416,34.127771],[134.429373,34.127874],[134.429349,34.128164],[134.42931,34.128349],[134.429149,34.128674],[134.429112,34.128802],[134.429058,34.128928],[134.428998,34.129067],[134.428923,34.129245],[134.428777,34.129534],[134.428645,34.129775],[134.428514,34.130021],[134.42851,34.130046],[134.428456,34.130353],[134.428397,34.130807],[134.428421,34.130858],[134.428439,34.130895],[134.428424,34.131213],[134.428458,34.131682],[134.428442,34.132474],[134.428448,34.132938],[134.428447,34.133021],[134.428446,34.133054],[134.428446,34.133093],[134.42832,34.133115],[134.428245,34.133121],[134.428188,34.133232],[134.42799,34.13362],[134.427903,34.134134],[134.427883,34.13425],[134.427789,34.134827],[134.427803,34.135297],[134.42781,34.135535],[134.427814,34.135974],[134.427711,34.136207],[134.427443,34.13666],[134.4273,34.136615],[134.427004,34.136566],[134.426746,34.136558],[134.426564,34.136576],[134.426426,34.136613],[134.426331,34.136663],[134.426165,34.136778],[134.426063,34.136884],[134.42598,34.137049],[134.425954,34.13719],[134.425988,34.137295],[134.426114,34.137426],[134.426202,34.137545],[134.426247,34.137712],[134.426262,34.137837],[134.426251,34.137869],[134.425162,34.137865],[134.425036,34.137857],[134.424947,34.137839],[134.424865,34.137799],[134.423666,34.136711],[134.423289,34.136373],[134.423161,34.136183],[134.423066,34.136011],[134.422975,34.135845],[134.422853,34.135487],[134.422756,34.135329],[134.422685,34.135237],[134.422513,34.135103],[134.422292,34.134966],[134.422244,34.134954],[134.422173,34.134951],[134.421993,34.135],[134.421904,34.135004],[134.421856,34.134995],[134.421773,34.134884],[134.421311,34.134177],[134.421298,34.134072],[134.421323,34.133976],[134.421425,34.133802],[134.421695,34.133356],[134.420742,34.133357],[134.420575,34.13335],[134.420404,34.133334],[134.42035,34.133316],[134.420247,34.133281],[134.420025,34.133153],[134.4201,34.13313],[134.420297,34.133054],[134.420413,34.132984],[134.42051,34.132909],[134.420653,34.132778],[134.420753,34.132659],[134.420843,34.132551],[134.42088,34.132395],[134.420895,34.132242],[134.420891,34.132189],[134.420861,34.131951],[134.420895,34.13165],[134.420913,34.131605],[134.420988,34.131465],[134.421011,34.131393],[134.420989,34.131206],[134.420977,34.131092],[134.420938,34.130989],[134.420928,34.130944],[134.420931,34.130722],[134.420952,34.130253],[134.42068,34.130251],[134.420278,34.130213],[134.420014,34.130171],[134.419426,34.130039],[134.419154,34.129995],[134.419002,34.129981],[134.418779,34.129987],[134.418341,34.130033],[134.41828,34.130039],[134.418253,34.129824],[134.418252,34.129664],[134.418266,34.129508],[134.418336,34.129247],[134.41843,34.128956],[134.418487,34.128762],[134.418822,34.127623],[134.418889,34.127393],[134.419701,34.124677],[134.418506,34.124416],[134.418442,34.124402],[134.418383,34.12441],[134.418309,34.124442],[134.417885,34.124656],[134.417845,34.124259],[134.41783,34.123947],[134.41782,34.123801],[134.4178,34.123746],[134.417738,34.123619],[134.417676,34.123522],[134.41762,34.12346],[134.417473,34.123391],[134.417207,34.123254],[134.417072,34.123189],[134.41694,34.123142],[134.416816,34.123119],[134.416672,34.12311],[134.416553,34.123117],[134.4166,34.122912],[134.416678,34.122888],[134.416768,34.122839],[134.416804,34.122709],[134.416807,34.122593],[134.416785,34.122487],[134.416756,34.12245],[134.416694,34.122433],[134.416542,34.122407],[134.41652,34.122294],[134.416368,34.122295],[134.416263,34.121556],[134.416127,34.121523],[134.415716,34.121306],[134.415804,34.121211],[134.416259,34.12079],[134.417103,34.120137],[134.417282,34.118766],[134.417864,34.118893],[134.417936,34.118535],[134.418603,34.118565],[134.418226,34.117886],[134.418089,34.117616],[134.417985,34.117384],[134.417837,34.117005],[134.417677,34.116639],[134.417598,34.116368],[134.417313,34.115074],[134.417467,34.11507],[134.417611,34.115046],[134.417728,34.115014],[134.417806,34.114962],[134.417884,34.114892],[134.417891,34.114821],[134.417886,34.114709],[134.418177,34.114774],[134.418281,34.113701],[134.418319,34.11331],[134.418387,34.112608],[134.418817,34.112684],[134.418893,34.111761],[134.418687,34.111729],[134.418529,34.111724],[134.41851,34.111918],[134.418225,34.111938],[134.418242,34.111872],[134.418248,34.111815],[134.418237,34.111766],[134.418168,34.11175],[134.418037,34.111702],[134.417909,34.11162],[134.417712,34.111482],[134.417656,34.111413],[134.417416,34.111407],[134.417744,34.109538],[134.417907,34.109313],[134.418133,34.10841],[134.418321,34.108442],[134.418964,34.108626],[134.419952,34.108918],[134.420962,34.109157],[134.422678,34.109517],[134.422335,34.111256],[134.423133,34.111393],[134.423407,34.111497],[134.423804,34.111546],[134.424298,34.111607],[134.42726,34.112],[134.427387,34.112017],[134.429251,34.112263],[134.431062,34.112516],[134.431979,34.112638],[134.431988,34.113425],[134.431567,34.113447],[134.43077,34.113621],[134.43097,34.113852],[134.431244,34.114211],[134.431371,34.114416],[134.431575,34.114854],[134.431698,34.115035],[134.431762,34.115189],[134.431807,34.115367],[134.431801,34.115432],[134.431824,34.115467],[134.431873,34.115516],[134.431935,34.115713],[134.431968,34.115781],[134.432012,34.115836],[134.432062,34.115873],[134.432642,34.115926],[134.432591,34.116039],[134.432495,34.11613],[134.432223,34.116173],[134.43223,34.116412],[134.431731,34.116426],[134.431741,34.116853],[134.431861,34.116879],[134.431865,34.119207],[134.431864,34.120108],[134.431871,34.120205],[134.431979,34.12077],[134.432003,34.120852],[134.432042,34.120894],[134.432103,34.120924],[134.432176,34.120933],[134.432236,34.120933],[134.432296,34.120955],[134.432552,34.121204],[134.432564,34.121223],[134.43255,34.121246],[134.432267,34.121422],[134.432227,34.121488],[134.432219,34.12154],[134.432225,34.121712],[134.432743,34.121729],[134.432736,34.122302],[134.432807,34.122472],[134.432916,34.123337],[134.433458,34.123274],[134.433475,34.123552]]]},"properties":{"S_NAME":"西分","HCODE":8101}},{"type":"Feature","geometry":{"type":"Polygon","coordinates":[[[134.441356,34.114182],[134.441347,34.114237],[134.441336,34.114313],[134.44132,34.114419],[134.441304,34.114528],[134.441288,34.114628],[134.44128,34.114685],[134.441269,34.11476],[134.44126,34.114817],[134.441247,34.114903],[134.441232,34.115004],[134.44122,34.115083],[134.441206,34.115175],[134.441197,34.115234],[134.441195,34.115253],[134.441188,34.115317],[134.441175,34.115446],[134.441162,34.115567],[134.441156,34.115627],[134.441254,34.115635],[134.441395,34.115647],[134.441424,34.11565],[134.441391,34.116271],[134.441359,34.116806],[134.441315,34.117222],[134.44122,34.118013],[134.441189,34.118341],[134.441287,34.118356],[134.441255,34.118712],[134.441195,34.11871],[134.441144,34.119243],[134.441135,34.11933],[134.441045,34.119896],[134.441005,34.119899],[134.44093,34.119826],[134.440634,34.119681],[134.440527,34.119654],[134.440438,34.119651],[134.440297,34.119672],[134.440225,34.119682],[134.440127,34.119687],[134.44007,34.119707],[134.44001,34.119753],[134.439979,34.119802],[134.439935,34.119837],[134.439864,34.119857],[134.43977,34.11986],[134.439532,34.119841],[134.439284,34.11981],[134.43907,34.119811],[134.438855,34.119804],[134.438798,34.119824],[134.438751,34.119857],[134.438602,34.119978],[134.438534,34.120009],[134.438368,34.120057],[134.437965,34.120128],[134.437792,34.120177],[134.437499,34.1203],[134.437377,34.120339],[134.437204,34.120377],[134.437089,34.120391],[134.436955,34.120403],[134.436919,34.120419],[134.436893,34.120445],[134.43688,34.120506],[134.436897,34.120635],[134.436908,34.120683],[134.436943,34.120757],[134.436978,34.12088],[134.437004,34.121093],[134.437007,34.12124],[134.43699,34.121374],[134.436912,34.121611],[134.436912,34.121761],[134.43695,34.1218],[134.437089,34.121879],[134.43714,34.121919],[134.437161,34.121975],[134.437155,34.122055],[134.437121,34.122182],[134.437044,34.122253],[134.436854,34.122352],[134.436744,34.122376],[134.436574,34.122389],[134.436489,34.122378],[134.43638,34.122651],[134.436349,34.122705],[134.436247,34.122826],[134.436231,34.122903],[134.43624,34.122963],[134.436327,34.123142],[134.436345,34.123249],[134.436352,34.123487],[134.436184,34.123483],[134.435678,34.12346],[134.435662,34.123458],[134.435047,34.123403],[134.434881,34.123402],[134.434461,34.123434],[134.434138,34.123449],[134.433712,34.123499],[134.433536,34.123536],[134.433475,34.123552],[134.433458,34.123274],[134.432916,34.123337],[134.432807,34.122472],[134.432736,34.122302],[134.432743,34.121729],[134.432225,34.121712],[134.432219,34.12154],[134.432227,34.121488],[134.432267,34.121422],[134.43255,34.121246],[134.432564,34.121223],[134.432552,34.121204],[134.432296,34.120955],[134.432236,34.120933],[134.432176,34.120933],[134.432103,34.120924],[134.432042,34.120894],[134.432003,34.120852],[134.431979,34.12077],[134.431871,34.120205],[134.431864,34.120108],[134.431865,34.119207],[134.431861,34.116879],[134.431741,34.116853],[134.431731,34.116426],[134.43223,34.116412],[134.432223,34.116173],[134.432495,34.11613],[134.432591,34.116039],[134.432642,34.115926],[134.432062,34.115873],[134.432012,34.115836],[134.431968,34.115781],[134.431935,34.115713],[134.431873,34.115516],[134.431824,34.115467],[134.431801,34.115432],[134.431807,34.115367],[134.431762,34.115189],[134.431698,34.115035],[134.431575,34.114854],[134.431371,34.114416],[134.431244,34.114211],[134.43097,34.113852],[134.43077,34.113621],[134.431567,34.113447],[134.431988,34.113425],[134.431979,34.112638],[134.432839,34.112752],[134.433752,34.112901],[134.434931,34.113124],[134.435303,34.113184],[134.435317,34.113185],[134.436255,34.113303],[134.436385,34.113319],[134.436694,34.113358],[134.436702,34.113359],[134.437156,34.113417],[134.437562,34.113474],[134.437812,34.113535],[134.438507,34.113684],[134.439083,34.113786],[134.439219,34.11381],[134.439532,34.113865],[134.439917,34.113938],[134.440179,34.113984],[134.440517,34.114065],[134.441356,34.114182]]]},"properties":{"S_NAME":"椎本","HCODE":8101}},{"type":"Feature","geometry":{"type":"Polygon","coordinates":[[[134.415716,34.121306],[134.415084,34.121999],[134.41427,34.12301],[134.413664,34.123889],[134.413359,34.123887],[134.412977,34.123886],[134.41233,34.123839],[134.412331,34.123906],[134.412298,34.123985],[134.412268,34.124011],[134.41225,34.124011],[134.411738,34.124014],[134.411701,34.124015],[134.41167,34.124023],[134.411648,34.124144],[134.411611,34.124142],[134.411246,34.124125],[134.410642,34.124096],[134.410021,34.124073],[134.409809,34.125784],[134.409729,34.125786],[134.409517,34.125811],[134.409437,34.125818],[134.409386,34.125846],[134.409316,34.125906],[134.409277,34.126007],[134.409273,34.126159],[134.409263,34.126666],[134.408245,34.12678],[134.408102,34.126806],[134.407657,34.126887],[134.407435,34.126906],[134.407347,34.126892],[134.406769,34.126685],[134.406686,34.126653],[134.406382,34.126622],[134.406327,34.126877],[134.406271,34.126942],[134.406203,34.126977],[134.406129,34.126994],[134.406045,34.126992],[134.405017,34.126967],[134.404976,34.126973],[134.404913,34.127018],[134.404822,34.127058],[134.404748,34.127079],[134.404633,34.127082],[134.404572,34.127071],[134.404528,34.127032],[134.404458,34.126936],[134.404091,34.126901],[134.403925,34.127181],[134.403788,34.127423],[134.403812,34.127728],[134.40352,34.127943],[134.403096,34.12772],[134.403083,34.127583],[134.402895,34.127463],[134.402852,34.127433],[134.402751,34.127416],[134.402582,34.127313],[134.402973,34.126855],[134.402019,34.126428],[134.402291,34.125965],[134.402252,34.125939],[134.40204,34.125835],[134.401859,34.125767],[134.401694,34.125725],[134.401426,34.125692],[134.401216,34.125703],[134.401105,34.125721],[134.400902,34.125688],[134.40068,34.12565],[134.400439,34.125633],[134.400289,34.125634],[134.400195,34.12565],[134.400274,34.125227],[134.400002,34.125243],[134.400099,34.124725],[134.399323,34.124387],[134.399549,34.123756],[134.399752,34.123549],[134.399747,34.122893],[134.399749,34.122409],[134.400087,34.122363],[134.400083,34.122016],[134.400444,34.121992],[134.400475,34.121751],[134.400893,34.121807],[134.401,34.121603],[134.401182,34.121301],[134.401286,34.121159],[134.40139,34.12104],[134.401452,34.121],[134.402148,34.120408],[134.402168,34.120347],[134.402168,34.120303],[134.402106,34.120191],[134.401963,34.119962],[134.402095,34.119145],[134.401828,34.119147],[134.401592,34.119161],[134.401473,34.119164],[134.401422,34.11817],[134.401424,34.118052],[134.401446,34.11797],[134.401491,34.117932],[134.401599,34.117894],[134.401749,34.117846],[134.401722,34.117589],[134.401323,34.117579],[134.401309,34.116929],[134.401396,34.116682],[134.401451,34.116525],[134.401451,34.116304],[134.401386,34.115899],[134.401581,34.115839],[134.401598,34.115635],[134.40135,34.115634],[134.401084,34.115535],[134.401164,34.114052],[134.400937,34.114142],[134.400794,34.114227],[134.400686,34.114291],[134.400228,34.114591],[134.399878,34.114787],[134.399678,34.114887],[134.399432,34.114974],[134.399475,34.114883],[134.399492,34.114847],[134.399605,34.114639],[134.399676,34.114508],[134.399746,34.114379],[134.399787,34.114301],[134.399799,34.114276],[134.399897,34.114087],[134.400016,34.113849],[134.400091,34.113686],[134.400108,34.113648],[134.400178,34.113478],[134.400199,34.113413],[134.400228,34.113314],[134.400107,34.113294],[134.400092,34.113289],[134.400093,34.113271],[134.400106,34.113228],[134.400123,34.113148],[134.400137,34.113078],[134.40016,34.112954],[134.400175,34.112802],[134.400194,34.112594],[134.40022,34.112334],[134.400224,34.11223],[134.400223,34.112147],[134.400219,34.112077],[134.400211,34.112013],[134.400191,34.111895],[134.400278,34.111797],[134.400312,34.111743],[134.400336,34.111686],[134.400372,34.11157],[134.400396,34.111521],[134.400455,34.111412],[134.40052,34.111268],[134.400558,34.111191],[134.400601,34.11112],[134.400692,34.11097],[134.400733,34.110884],[134.400825,34.110674],[134.40095,34.110417],[134.401068,34.110174],[134.401161,34.109972],[134.401241,34.1098],[134.401282,34.109727],[134.401321,34.109665],[134.401343,34.109637],[134.401418,34.109539],[134.401547,34.109377],[134.401654,34.109238],[134.401706,34.109166],[134.401731,34.109124],[134.40174,34.109091],[134.40175,34.108954],[134.401762,34.108804],[134.401773,34.108655],[134.40178,34.108516],[134.401779,34.108393],[134.40177,34.108274],[134.401756,34.108145],[134.40174,34.108034],[134.401736,34.107998],[134.401714,34.107834],[134.401692,34.107653],[134.401667,34.10746],[134.401639,34.107262],[134.401611,34.107098],[134.401604,34.107056],[134.401582,34.10694],[134.401479,34.106544],[134.401387,34.106169],[134.401467,34.10628],[134.401763,34.106666],[134.40192,34.106879],[134.402145,34.107196],[134.402226,34.107341],[134.402308,34.107598],[134.402492,34.107482],[134.40275,34.107478],[134.402754,34.107295],[134.404717,34.107386],[134.404718,34.107647],[134.404564,34.107648],[134.404555,34.107777],[134.40495,34.107828],[134.404991,34.10774],[134.405026,34.107715],[134.405187,34.107654],[134.405368,34.107578],[134.405485,34.10752],[134.407483,34.107859],[134.407493,34.107861],[134.409219,34.10817],[134.40933,34.108174],[134.409441,34.108178],[134.410221,34.108314],[134.410252,34.108348],[134.41028,34.108379],[134.410349,34.108396],[134.411548,34.108602],[134.412147,34.108695],[134.412498,34.10875],[134.412824,34.108834],[134.413302,34.108951],[134.413684,34.109014],[134.413953,34.109034],[134.414246,34.109045],[134.414446,34.109052],[134.414575,34.109073],[134.414628,34.109082],[134.414918,34.109169],[134.415021,34.109171],[134.415154,34.109135],[134.415267,34.109083],[134.415475,34.108879],[134.415648,34.108917],[134.416088,34.109014],[134.41693,34.109215],[134.417295,34.109287],[134.417436,34.109306],[134.417907,34.109313],[134.417744,34.109538],[134.417416,34.111407],[134.417656,34.111413],[134.417712,34.111482],[134.417909,34.11162],[134.418037,34.111702],[134.418168,34.11175],[134.418237,34.111766],[134.418248,34.111815],[134.418242,34.111872],[134.418225,34.111938],[134.41851,34.111918],[134.418529,34.111724],[134.418687,34.111729],[134.418893,34.111761],[134.418817,34.112684],[134.418387,34.112608],[134.418319,34.11331],[134.418281,34.113701],[134.418177,34.114774],[134.417886,34.114709],[134.417891,34.114821],[134.417884,34.114892],[134.417806,34.114962],[134.417728,34.115014],[134.417611,34.115046],[134.417467,34.11507],[134.417313,34.115074],[134.417598,34.116368],[134.417677,34.116639],[134.417837,34.117005],[134.417985,34.117384],[134.418089,34.117616],[134.418226,34.117886],[134.418603,34.118565],[134.417936,34.118535],[134.417864,34.118893],[134.417282,34.118766],[134.417103,34.120137],[134.416259,34.12079],[134.415804,34.121211],[134.415716,34.121306]]]},"properties":{"S_NAME":"七條","HCODE":8101}},{"type":"Feature","geometry":{"type":"Polygon","coordinates":[[[134.399747,34.122893],[134.399376,34.122857],[134.399251,34.122671],[134.399148,34.122537],[134.399057,34.122453],[134.398587,34.122459],[134.398538,34.12246],[134.397743,34.122524],[134.397799,34.122018],[134.397834,34.121798],[134.396944,34.121722],[134.39554,34.121603],[134.39558,34.120279],[134.395044,34.12026],[134.39498,34.120245],[134.39495,34.120204],[134.394938,34.120145],[134.394955,34.119614],[134.394384,34.119593],[134.394201,34.118459],[134.394131,34.117408],[134.394139,34.116151],[134.394171,34.11569],[134.394176,34.115625],[134.39436,34.115619],[134.394807,34.115556],[134.394893,34.115558],[134.394991,34.11557],[134.395085,34.115608],[134.395174,34.115657],[134.396036,34.116912],[134.396073,34.116965],[134.396644,34.116768],[134.397832,34.116471],[134.399017,34.116196],[134.398985,34.116083],[134.398945,34.115958],[134.398893,34.115823],[134.399245,34.115745],[134.399419,34.115709],[134.399366,34.115312],[134.399349,34.115148],[134.399432,34.114974],[134.399678,34.114887],[134.399878,34.114787],[134.400228,34.114591],[134.400686,34.114291],[134.400794,34.114227],[134.400937,34.114142],[134.401164,34.114052],[134.401084,34.115535],[134.40135,34.115634],[134.401598,34.115635],[134.401581,34.115839],[134.401386,34.115899],[134.401451,34.116304],[134.401451,34.116525],[134.401396,34.116682],[134.401309,34.116929],[134.401323,34.117579],[134.401722,34.117589],[134.401749,34.117846],[134.401599,34.117894],[134.401491,34.117932],[134.401446,34.11797],[134.401424,34.118052],[134.401422,34.11817],[134.401473,34.119164],[134.401592,34.119161],[134.401828,34.119147],[134.402095,34.119145],[134.401963,34.119962],[134.402106,34.120191],[134.402168,34.120303],[134.402168,34.120347],[134.402148,34.120408],[134.401452,34.121],[134.40139,34.12104],[134.401286,34.121159],[134.401182,34.121301],[134.401,34.121603],[134.400893,34.121807],[134.400475,34.121751],[134.400444,34.121992],[134.400083,34.122016],[134.400087,34.122363],[134.399749,34.122409],[134.399747,34.122893]]]},"properties":{"S_NAME":"鍛冶屋原","HCODE":8101}},{"type":"Feature","geometry":{"type":"Polygon","coordinates":[[[134.392693,34.163643],[134.392176,34.1636],[134.392122,34.163596],[134.392058,34.163597],[134.391992,34.163599],[134.391923,34.163605],[134.391847,34.163613],[134.391764,34.163625],[134.391668,34.163642],[134.391561,34.163662],[134.391449,34.163687],[134.391338,34.163716],[134.391239,34.163747],[134.391153,34.163779],[134.391075,34.163809],[134.39105,34.163817],[134.390546,34.164009],[134.390373,34.164083],[134.390222,34.164153],[134.390089,34.164221],[134.389965,34.164292],[134.389842,34.164367],[134.389717,34.164448],[134.389596,34.164527],[134.389487,34.164601],[134.389392,34.164665],[134.389311,34.164719],[134.389243,34.164766],[134.389186,34.164807],[134.389134,34.164842],[134.389084,34.164874],[134.389028,34.164904],[134.388962,34.16493],[134.388887,34.164956],[134.388806,34.164983],[134.388722,34.165011],[134.388633,34.165043],[134.38854,34.165076],[134.388443,34.16511],[134.388339,34.165144],[134.38824,34.165178],[134.388152,34.165209],[134.388086,34.165237],[134.388037,34.16526],[134.387983,34.165279],[134.387906,34.165294],[134.387789,34.165304],[134.387644,34.165311],[134.387484,34.165315],[134.387327,34.165316],[134.387178,34.165314],[134.387041,34.165307],[134.386916,34.165295],[134.386857,34.165285],[134.386749,34.165264],[134.386648,34.165237],[134.386554,34.165209],[134.386438,34.165176],[134.386383,34.165162],[134.386271,34.165134],[134.386176,34.165123],[134.38608,34.165119],[134.38598,34.165118],[134.385878,34.165115],[134.385772,34.165105],[134.385665,34.165089],[134.385564,34.165073],[134.385471,34.165056],[134.385387,34.16504],[134.385309,34.165024],[134.385235,34.16501],[134.384879,34.165601],[134.384832,34.16568],[134.384789,34.165759],[134.384749,34.165837],[134.384714,34.165912],[134.384684,34.165983],[134.384659,34.166048],[134.384643,34.166106],[134.384638,34.166161],[134.384642,34.166186],[134.384657,34.166233],[134.384684,34.166278],[134.384718,34.166324],[134.384756,34.166372],[134.384793,34.166426],[134.384828,34.166487],[134.384861,34.166556],[134.384873,34.166592],[134.384895,34.166672],[134.384914,34.166752],[134.384928,34.166827],[134.38494,34.166894],[134.384948,34.166953],[134.384953,34.167008],[134.384951,34.167059],[134.384944,34.167109],[134.384933,34.16716],[134.384921,34.167211],[134.384908,34.167295],[134.384906,34.167356],[134.38491,34.167423],[134.384921,34.1675],[134.384942,34.16758],[134.384966,34.167658],[134.384993,34.167727],[134.385018,34.167787],[134.385035,34.167843],[134.385037,34.167871],[134.385036,34.167889],[134.385036,34.167899],[134.385029,34.167929],[134.385017,34.167961],[134.384983,34.168028],[134.384962,34.168061],[134.384917,34.168132],[134.384894,34.168168],[134.384852,34.168226],[134.384817,34.168273],[134.384771,34.168326],[134.384725,34.168385],[134.384681,34.168458],[134.384641,34.168559],[134.384623,34.168616],[134.384593,34.168742],[134.384566,34.168866],[134.384543,34.168972],[134.384523,34.169057],[134.384506,34.169129],[134.384489,34.169193],[134.384409,34.169486],[134.384383,34.169566],[134.38436,34.16964],[134.384334,34.169717],[134.384306,34.16981],[134.38427,34.169927],[134.384164,34.170256],[134.384042,34.170765],[134.383926,34.170983],[134.383259,34.17172],[134.383042,34.171957],[134.38286,34.172067],[134.381979,34.172152],[134.381424,34.172264],[134.380826,34.172234],[134.37993,34.172267],[134.379641,34.172314],[134.379217,34.172285],[134.378956,34.172208],[134.378463,34.17201],[134.378195,34.171918],[134.376917,34.171933],[134.376227,34.171856],[134.375825,34.17184],[134.375611,34.171802],[134.375498,34.171734],[134.375321,34.171506],[134.375063,34.17112],[134.374534,34.170376],[134.374373,34.17023],[134.373904,34.169965],[134.373791,34.169902],[134.373652,34.169826],[134.373593,34.169789],[134.373547,34.169752],[134.373515,34.169711],[134.373499,34.169665],[134.373484,34.169563],[134.373468,34.169509],[134.373443,34.169452],[134.373366,34.169317],[134.373265,34.169143],[134.373158,34.168945],[134.373064,34.168774],[134.37302,34.168705],[134.372972,34.168641],[134.372913,34.168579],[134.372851,34.168521],[134.372786,34.168471],[134.37272,34.168434],[134.372597,34.168375],[134.37254,34.168343],[134.372492,34.168308],[134.372457,34.168273],[134.372436,34.168237],[134.372426,34.168196],[134.372418,34.168075],[134.372415,34.167979],[134.372412,34.167921],[134.372404,34.167787],[134.372402,34.167663],[134.372406,34.167604],[134.372417,34.167556],[134.372435,34.167521],[134.372461,34.167497],[134.372492,34.167476],[134.372553,34.167428],[134.372576,34.167403],[134.372586,34.167374],[134.372584,34.167339],[134.372565,34.167291],[134.372527,34.167226],[134.372426,34.167072],[134.372325,34.166931],[134.372306,34.166908],[134.372275,34.16687],[134.372224,34.166815],[134.372169,34.166766],[134.37211,34.166722],[134.372045,34.166682],[134.371973,34.166648],[134.371898,34.166619],[134.371742,34.16657],[134.37168,34.166545],[134.371634,34.166512],[134.371604,34.166469],[134.371585,34.166411],[134.37157,34.166335],[134.37156,34.166253],[134.37155,34.166113],[134.371549,34.166016],[134.371545,34.165971],[134.371534,34.165927],[134.371507,34.165881],[134.371459,34.165832],[134.371393,34.16578],[134.371318,34.165726],[134.371154,34.165612],[134.371078,34.165563],[134.370954,34.165487],[134.370913,34.165454],[134.370884,34.165417],[134.370863,34.165372],[134.37084,34.165314],[134.370771,34.165156],[134.370706,34.165001],[134.370658,34.164883],[134.370632,34.164833],[134.370602,34.164786],[134.370568,34.16474],[134.37049,34.164637],[134.37046,34.164583],[134.370443,34.164528],[134.370442,34.164471],[134.370451,34.164417],[134.37047,34.164363],[134.370501,34.164309],[134.370547,34.164254],[134.370606,34.164194],[134.370729,34.164083],[134.370773,34.16404],[134.37084,34.163958],[134.370919,34.163837],[134.370969,34.16377],[134.371025,34.163703],[134.371129,34.163583],[134.3712,34.16348],[134.37123,34.163426],[134.371254,34.163362],[134.371266,34.163284],[134.37127,34.163212],[134.37127,34.163144],[134.371261,34.163079],[134.371245,34.163019],[134.371235,34.162992],[134.371207,34.162942],[134.371189,34.16292],[134.371169,34.162902],[134.371124,34.162873],[134.371072,34.162853],[134.371022,34.162835],[134.370975,34.162813],[134.370932,34.16279],[134.370885,34.162769],[134.370837,34.162749],[134.370815,34.162736],[134.370796,34.162719],[134.370778,34.162696],[134.370752,34.162643],[134.370735,34.16259],[134.370719,34.162544],[134.370704,34.162502],[134.37069,34.162454],[134.370674,34.162401],[134.37066,34.162346],[134.370647,34.162293],[134.37063,34.162242],[134.370601,34.162188],[134.370563,34.162134],[134.370519,34.162086],[134.370474,34.162046],[134.370431,34.162013],[134.370389,34.161987],[134.370347,34.16196],[134.370306,34.161931],[134.370264,34.161897],[134.370228,34.161856],[134.370199,34.161813],[134.370188,34.16179],[134.370174,34.161738],[134.370168,34.161674],[134.370166,34.161598],[134.370165,34.161518],[134.37016,34.161435],[134.37015,34.161349],[134.370138,34.161258],[134.370123,34.161163],[134.370104,34.161068],[134.370078,34.160978],[134.370049,34.160893],[134.370016,34.160809],[134.369978,34.160728],[134.369934,34.160653],[134.369908,34.160617],[134.36988,34.160583],[134.369849,34.160552],[134.369814,34.160522],[134.369775,34.160495],[134.36973,34.16047],[134.369636,34.160428],[134.36955,34.160393],[134.369484,34.160363],[134.369434,34.160335],[134.369392,34.160304],[134.369355,34.160268],[134.36932,34.160227],[134.369287,34.160179],[134.369258,34.160129],[134.369239,34.160081],[134.36923,34.160034],[134.369229,34.160009],[134.369236,34.159948],[134.369249,34.159879],[134.369266,34.159813],[134.369279,34.159758],[134.369295,34.15971],[134.369317,34.15966],[134.369345,34.159599],[134.369367,34.15952],[134.369374,34.159418],[134.36937,34.159302],[134.36936,34.15918],[134.369345,34.15906],[134.369334,34.158986],[134.369328,34.158945],[134.36931,34.158837],[134.369293,34.158744],[134.369281,34.15867],[134.369269,34.158613],[134.369259,34.158589],[134.369244,34.158565],[134.369198,34.158514],[134.369136,34.158455],[134.369068,34.158383],[134.368999,34.158302],[134.368935,34.158222],[134.368878,34.158151],[134.368828,34.158088],[134.368786,34.158025],[134.368748,34.15796],[134.368708,34.157893],[134.368663,34.157822],[134.368613,34.157752],[134.368562,34.157685],[134.368506,34.157622],[134.368477,34.157592],[134.368414,34.157536],[134.368346,34.157482],[134.368278,34.157426],[134.368214,34.157365],[134.368186,34.157332],[134.368163,34.157299],[134.368146,34.157267],[134.368135,34.157234],[134.368131,34.1572],[134.368131,34.157132],[134.368132,34.15706],[134.368132,34.15704],[134.368132,34.156984],[134.368131,34.156909],[134.368131,34.156836],[134.368134,34.156765],[134.368134,34.156692],[134.36813,34.156618],[134.36812,34.156546],[134.368104,34.156476],[134.368092,34.156446],[134.368078,34.156418],[134.368032,34.156337],[134.367798,34.155944],[134.36775,34.15587],[134.36771,34.155806],[134.367692,34.155773],[134.36768,34.15575],[134.367656,34.155698],[134.367635,34.155639],[134.367619,34.155574],[134.367616,34.155541],[134.367618,34.15551],[134.367626,34.15548],[134.367639,34.155453],[134.367656,34.155426],[134.367688,34.155384],[134.367696,34.155373],[134.367739,34.155315],[134.367783,34.155253],[134.367825,34.155185],[134.367867,34.155111],[134.367915,34.155034],[134.367968,34.154949],[134.368021,34.154866],[134.368044,34.154825],[134.36808,34.154748],[134.368108,34.154672],[134.368129,34.154596],[134.368142,34.154487],[134.368177,34.154077],[134.36819,34.154003],[134.368213,34.153909],[134.368246,34.153805],[134.368285,34.153708],[134.368306,34.153666],[134.368352,34.153587],[134.368408,34.153515],[134.368472,34.153442],[134.368533,34.153368],[134.368559,34.153328],[134.368583,34.153287],[134.36862,34.153209],[134.368643,34.153142],[134.368648,34.153113],[134.36865,34.153054],[134.368645,34.153023],[134.368627,34.15295],[134.368602,34.15287],[134.36858,34.15279],[134.368561,34.152716],[134.36855,34.152648],[134.368546,34.15259],[134.368553,34.152535],[134.368572,34.152481],[134.368601,34.15242],[134.368638,34.152347],[134.368678,34.152262],[134.368719,34.152178],[134.368758,34.152112],[134.368779,34.152087],[134.368825,34.152034],[134.368886,34.151962],[134.368955,34.15187],[134.36902,34.151776],[134.369063,34.151693],[134.369089,34.151624],[134.369095,34.151593],[134.369097,34.151563],[134.369096,34.151506],[134.369093,34.151453],[134.369094,34.151423],[134.369095,34.1514],[134.369107,34.151353],[134.369118,34.151335],[134.369131,34.15132],[134.369147,34.151309],[134.369422,34.151129],[134.370444,34.150989],[134.370805,34.150952],[134.371011,34.150867],[134.371411,34.150609],[134.371961,34.149995],[134.372311,34.14957],[134.37284,34.149113],[134.373325,34.149054],[134.374576,34.148697],[134.375219,34.148278],[134.37569,34.147495],[134.3769,34.145408],[134.376924,34.145305],[134.376954,34.145193],[134.376991,34.145079],[134.377035,34.144959],[134.377089,34.14484],[134.377154,34.144726],[134.377228,34.144621],[134.377311,34.144528],[134.377401,34.144451],[134.377493,34.144388],[134.377588,34.144337],[134.377777,34.144249],[134.377878,34.144209],[134.377993,34.144174],[134.378125,34.144142],[134.378423,34.144088],[134.378703,34.144034],[134.37888,34.143999],[134.378928,34.143986],[134.378965,34.143964],[134.379051,34.143878],[134.379112,34.143821],[134.379267,34.143687],[134.379353,34.143606],[134.379435,34.143512],[134.379513,34.143412],[134.379657,34.14321],[134.379733,34.143106],[134.379826,34.142988],[134.380064,34.142701],[134.380185,34.142553],[134.380384,34.142284],[134.38048,34.142158],[134.380584,34.142031],[134.380797,34.141787],[134.380989,34.141561],[134.381205,34.141315],[134.381463,34.141032],[134.38161,34.140867],[134.38171,34.140752],[134.381799,34.140651],[134.381847,34.14059],[134.381872,34.140551],[134.381916,34.140441],[134.381982,34.140263],[134.382006,34.140171],[134.382024,34.14008],[134.382053,34.139893],[134.382069,34.139801],[134.382095,34.139719],[134.382132,34.139651],[134.382175,34.139598],[134.382223,34.139555],[134.382268,34.139519],[134.382321,34.139488],[134.382394,34.13946],[134.382493,34.139432],[134.382712,34.139377],[134.382797,34.139348],[134.382864,34.139316],[134.382919,34.139278],[134.382964,34.13923],[134.383006,34.139172],[134.383045,34.139109],[134.383124,34.138953],[134.383169,34.138856],[134.383321,34.138472],[134.383337,34.138421],[134.383216,34.137878],[134.383204,34.137827],[134.383168,34.137781],[134.383071,34.137718],[134.382912,34.13768],[134.382887,34.13768],[134.382831,34.137685],[134.38273,34.137684],[134.382678,34.137682],[134.382634,34.137676],[134.382595,34.137664],[134.382558,34.137648],[134.38248,34.137591],[134.382412,34.137536],[134.382384,34.13751],[134.382358,34.137479],[134.382332,34.137437],[134.38228,34.13734],[134.38222,34.137244],[134.382148,34.137128],[134.382078,34.137],[134.382051,34.136944],[134.382031,34.13689],[134.381999,34.136755],[134.38197,34.136584],[134.381925,34.136357],[134.381919,34.136333],[134.38189,34.136241],[134.381851,34.136161],[134.381826,34.136127],[134.383766,34.135435],[134.385298,34.134723],[134.385379,34.134675],[134.387181,34.133627],[134.38745,34.133541],[134.387697,34.133463],[134.38786,34.133491],[134.388153,34.133628],[134.388392,34.133715],[134.38868,34.133761],[134.389017,34.133759],[134.38927,34.133661],[134.389347,34.133589],[134.389404,34.1335],[134.389419,34.133411],[134.389406,34.133319],[134.389297,34.133142],[134.389256,34.133068],[134.389519,34.13312],[134.389831,34.133139],[134.390134,34.133055],[134.390493,34.132909],[134.392707,34.131619],[134.393247,34.132517],[134.393478,34.132412],[134.393484,34.132409],[134.393716,34.132193],[134.393728,34.132182],[134.393981,34.131817],[134.394336,34.130767],[134.394427,34.130458],[134.394536,34.129888],[134.394623,34.129528],[134.394657,34.129431],[134.394691,34.129282],[134.394709,34.129248],[134.394755,34.129202],[134.394855,34.12917],[134.394987,34.129151],[134.395332,34.129135],[134.395388,34.12911],[134.395458,34.12906],[134.395525,34.128978],[134.395698,34.128691],[134.395821,34.128434],[134.39564,34.128251],[134.395847,34.128038],[134.39639,34.127576],[134.396796,34.126797],[134.397174,34.126118],[134.397284,34.126266],[134.397355,34.126331],[134.397441,34.126371],[134.397578,34.126403],[134.3977,34.126402],[134.397804,34.126394],[134.397981,34.126357],[134.398175,34.126297],[134.398346,34.126225],[134.39861,34.126132],[134.398656,34.126111],[134.398655,34.126995],[134.399988,34.126973],[134.399992,34.126322],[134.400031,34.126218],[134.400058,34.125949],[134.400094,34.125809],[134.400139,34.125707],[134.400195,34.12565],[134.400289,34.125634],[134.400439,34.125633],[134.40068,34.12565],[134.400902,34.125688],[134.401105,34.125721],[134.401216,34.125703],[134.401426,34.125692],[134.401694,34.125725],[134.401859,34.125767],[134.40204,34.125835],[134.402252,34.125939],[134.402291,34.125965],[134.402019,34.126428],[134.402973,34.126855],[134.402582,34.127313],[134.402751,34.127416],[134.402852,34.127433],[134.402895,34.127463],[134.403083,34.127583],[134.403096,34.12772],[134.40352,34.127943],[134.403812,34.127728],[134.403812,34.127733],[134.40382,34.127828],[134.403844,34.128241],[134.40385,34.128306],[134.403886,34.12868],[134.403907,34.128844],[134.402979,34.129806],[134.402635,34.129817],[134.402349,34.129867],[134.402137,34.129944],[134.402009,34.130021],[134.401928,34.130101],[134.401857,34.13021],[134.401791,34.130366],[134.401698,34.130719],[134.401248,34.130895],[134.400852,34.131339],[134.400823,34.131388],[134.400828,34.131924],[134.400811,34.132002],[134.400757,34.132056],[134.4007,34.132102],[134.4005,34.132147],[134.400074,34.132281],[134.399924,34.13234],[134.399806,34.132466],[134.399618,34.132701],[134.399504,34.132859],[134.399408,34.132992],[134.398579,34.133815],[134.39841,34.134037],[134.398269,34.134205],[134.39816,34.13427],[134.397958,34.134341],[134.397736,34.134446],[134.397601,34.134529],[134.397462,34.134669],[134.396862,34.135563],[134.396805,34.135627],[134.396726,34.135716],[134.396635,34.135818],[134.396485,34.135956],[134.39632,34.136082],[134.396224,34.136145],[134.395991,34.136276],[134.395685,34.136384],[134.395594,34.136539],[134.395536,34.136713],[134.395501,34.136851],[134.395476,34.137081],[134.395474,34.137153],[134.395497,34.13721],[134.395665,34.137369],[134.396927,34.138072],[134.397007,34.138109],[134.397613,34.138364],[134.398023,34.138733],[134.398341,34.139292],[134.398582,34.139995],[134.398674,34.140816],[134.398607,34.141318],[134.398245,34.14206],[134.397152,34.14363],[134.397136,34.143653],[134.39659,34.144437],[134.395827,34.145619],[134.394543,34.146738],[134.39414,34.147021],[134.393822,34.147266],[134.393522,34.147602],[134.393043,34.148171],[134.39208,34.149408],[134.391955,34.149596],[134.391859,34.149822],[134.391804,34.149987],[134.391699,34.150348],[134.391381,34.154313],[134.39135,34.154653],[134.391328,34.154807],[134.391314,34.15498],[134.39131,34.155072],[134.391311,34.15526],[134.391321,34.155449],[134.391332,34.155631],[134.391342,34.155807],[134.391342,34.155893],[134.391344,34.156063],[134.391349,34.15615],[134.391359,34.156239],[134.391962,34.160973],[134.392247,34.162233],[134.392435,34.162909],[134.392693,34.163643]]]},"properties":{"S_NAME":"泉谷","HCODE":8101}},{"type":"Feature","geometry":{"type":"Polygon","coordinates":[[[134.400195,34.12565],[134.400139,34.125707],[134.400094,34.125809],[134.400058,34.125949],[134.400031,34.126218],[134.399992,34.126322],[134.399988,34.126973],[134.398655,34.126995],[134.398656,34.126111],[134.39861,34.126132],[134.398346,34.126225],[134.398175,34.126297],[134.397981,34.126357],[134.397804,34.126394],[134.3977,34.126402],[134.397578,34.126403],[134.397441,34.126371],[134.397355,34.126331],[134.397284,34.126266],[134.397174,34.126118],[134.396796,34.126797],[134.39639,34.127576],[134.395847,34.128038],[134.39564,34.128251],[134.395821,34.128434],[134.395698,34.128691],[134.395525,34.128978],[134.395458,34.12906],[134.395388,34.12911],[134.395332,34.129135],[134.394987,34.129151],[134.394855,34.12917],[134.394755,34.129202],[134.394709,34.129248],[134.394691,34.129282],[134.394657,34.129431],[134.394623,34.129528],[134.394536,34.129888],[134.394427,34.130458],[134.394336,34.130767],[134.393981,34.131817],[134.393728,34.132182],[134.393716,34.132193],[134.393484,34.132409],[134.393478,34.132412],[134.393247,34.132517],[134.392707,34.131619],[134.390493,34.132909],[134.390134,34.133055],[134.389831,34.133139],[134.389519,34.13312],[134.389256,34.133068],[134.389297,34.133142],[134.389406,34.133319],[134.389419,34.133411],[134.389404,34.1335],[134.389347,34.133589],[134.38927,34.133661],[134.389017,34.133759],[134.38868,34.133761],[134.388392,34.133715],[134.388153,34.133628],[134.38786,34.133491],[134.387697,34.133463],[134.38745,34.133541],[134.387181,34.133627],[134.385379,34.134675],[134.385298,34.134723],[134.383766,34.135435],[134.381826,34.136127],[134.381799,34.136096],[134.381382,34.135305],[134.38127,34.135177],[134.381154,34.135053],[134.380444,34.134535],[134.380325,34.13447],[134.380205,34.134444],[134.380182,34.134395],[134.380159,34.134347],[134.380103,34.134256],[134.380043,34.134173],[134.379983,34.134097],[134.379957,34.134056],[134.379935,34.134012],[134.37992,34.13396],[134.379909,34.133905],[134.379894,34.133786],[134.379871,34.13366],[134.379839,34.133533],[134.379805,34.133398],[134.379775,34.13325],[134.379758,34.133174],[134.379737,34.133096],[134.37971,34.13302],[134.379678,34.132943],[134.37964,34.13287],[134.37956,34.132729],[134.379521,34.132664],[134.379457,34.132542],[134.379397,34.132426],[134.379331,34.132305],[134.379253,34.132175],[134.379163,34.132038],[134.379162,34.132037],[134.378639,34.131189],[134.378358,34.130829],[134.377911,34.130173],[134.3779,34.130103],[134.377915,34.130017],[134.37835,34.128906],[134.378404,34.128751],[134.378499,34.128505],[134.378539,34.128357],[134.378585,34.127317],[134.378615,34.127206],[134.378642,34.127103],[134.378665,34.12701],[134.378689,34.126924],[134.378713,34.126838],[134.378739,34.126753],[134.378765,34.126666],[134.378792,34.126578],[134.378821,34.126493],[134.378849,34.126412],[134.378879,34.126331],[134.378907,34.126238],[134.378934,34.126138],[134.378955,34.126042],[134.378957,34.126025],[134.378966,34.125962],[134.378974,34.125893],[134.378982,34.12583],[134.378993,34.125767],[134.379007,34.125706],[134.379021,34.125644],[134.379038,34.125577],[134.379053,34.125499],[134.379067,34.125415],[134.379076,34.125335],[134.379075,34.125266],[134.379069,34.125203],[134.379059,34.125139],[134.379054,34.125068],[134.379055,34.125032],[134.379061,34.124998],[134.379072,34.124964],[134.379087,34.12493],[134.379127,34.12487],[134.379174,34.124821],[134.379224,34.12478],[134.379291,34.124716],[134.379335,34.124664],[134.379363,34.124619],[134.379406,34.124524],[134.379438,34.124461],[134.37947,34.124394],[134.379504,34.124317],[134.379511,34.1243],[134.37954,34.12424],[134.379572,34.124174],[134.379602,34.124118],[134.379637,34.124054],[134.379681,34.12397],[134.379728,34.123875],[134.379749,34.123828],[134.379783,34.123738],[134.379801,34.123696],[134.379823,34.123657],[134.379851,34.123621],[134.379887,34.123586],[134.379928,34.123555],[134.380022,34.123494],[134.380072,34.123465],[134.380163,34.123404],[134.38025,34.123342],[134.38033,34.123281],[134.380404,34.123221],[134.380466,34.12316],[134.380511,34.123092],[134.380554,34.12302],[134.380603,34.122941],[134.380658,34.122857],[134.380666,34.122843],[134.380708,34.122773],[134.38074,34.122691],[134.380752,34.122652],[134.380763,34.122584],[134.380762,34.122527],[134.380757,34.122478],[134.380752,34.122426],[134.380753,34.12237],[134.380767,34.122313],[134.380777,34.122285],[134.380809,34.122229],[134.380828,34.122203],[134.380871,34.122157],[134.380918,34.122117],[134.380961,34.122079],[134.380996,34.122038],[134.38101,34.122018],[134.381029,34.121978],[134.381033,34.12194],[134.381028,34.121908],[134.381019,34.121883],[134.381008,34.121863],[134.380994,34.121841],[134.380976,34.121811],[134.380963,34.121779],[134.380962,34.121752],[134.380973,34.121729],[134.380989,34.1217],[134.381003,34.121658],[134.381015,34.121615],[134.381029,34.121581],[134.381047,34.12156],[134.381074,34.12154],[134.381111,34.121511],[134.381154,34.121478],[134.381195,34.121442],[134.381231,34.121409],[134.381269,34.121375],[134.381308,34.121339],[134.381348,34.1213],[134.38138,34.121257],[134.381403,34.121223],[134.381432,34.121173],[134.381467,34.121119],[134.381495,34.12107],[134.381522,34.12102],[134.38154,34.120975],[134.381546,34.120961],[134.381569,34.120901],[134.381593,34.120851],[134.381621,34.120811],[134.381639,34.120793],[134.38169,34.120762],[134.381757,34.120732],[134.381794,34.120719],[134.381868,34.1207],[134.381938,34.120685],[134.382006,34.120673],[134.38207,34.120658],[134.382127,34.120644],[134.382175,34.120633],[134.382213,34.120621],[134.382229,34.120611],[134.382245,34.120597],[134.382276,34.120554],[134.38231,34.120499],[134.382351,34.120443],[134.382396,34.12039],[134.382407,34.120378],[134.38244,34.120343],[134.382477,34.120301],[134.382511,34.120261],[134.382545,34.120218],[134.382579,34.120165],[134.382596,34.120129],[134.382611,34.120089],[134.38264,34.119981],[134.382665,34.119846],[134.38269,34.119686],[134.382738,34.119321],[134.382734,34.119306],[134.383085,34.11937],[134.383316,34.119422],[134.383569,34.119507],[134.383619,34.119388],[134.383666,34.11926],[134.383704,34.119149],[134.383733,34.119058],[134.383757,34.118981],[134.383775,34.118912],[134.383792,34.11885],[134.383804,34.118792],[134.383817,34.118741],[134.383824,34.118722],[134.383835,34.118709],[134.383847,34.118702],[134.383862,34.118699],[134.383898,34.118704],[134.383938,34.118708],[134.383977,34.118704],[134.384014,34.11869],[134.384043,34.118664],[134.384067,34.118631],[134.384086,34.118598],[134.384103,34.118561],[134.384121,34.118519],[134.384178,34.118366],[134.384892,34.118304],[134.384971,34.118297],[134.385069,34.118034],[134.385069,34.118003],[134.384903,34.117971],[134.38512,34.117103],[134.385177,34.117111],[134.385254,34.117121],[134.385351,34.117141],[134.385409,34.117163],[134.385428,34.117135],[134.385447,34.117071],[134.38551,34.116862],[134.385546,34.116706],[134.385565,34.116598],[134.385583,34.116512],[134.385627,34.116434],[134.385634,34.116421],[134.385697,34.116319],[134.385748,34.116232],[134.385773,34.11613],[134.385803,34.115953],[134.385813,34.115679],[134.385824,34.115502],[134.385874,34.115238],[134.385909,34.114991],[134.385948,34.114422],[134.385991,34.113861],[134.386008,34.113779],[134.386033,34.113749],[134.386102,34.113731],[134.386298,34.113737],[134.386872,34.113781],[134.387403,34.113852],[134.387648,34.113907],[134.388214,34.114045],[134.388508,34.114133],[134.39012,34.114616],[134.390764,34.114791],[134.391741,34.115037],[134.391822,34.115057],[134.392083,34.115123],[134.393795,34.115562],[134.394048,34.115614],[134.394171,34.115625],[134.394176,34.115625],[134.394171,34.11569],[134.394139,34.116151],[134.394131,34.117408],[134.394201,34.118459],[134.394384,34.119593],[134.394955,34.119614],[134.394938,34.120145],[134.39495,34.120204],[134.39498,34.120245],[134.395044,34.12026],[134.39558,34.120279],[134.39554,34.121603],[134.396944,34.121722],[134.397834,34.121798],[134.397799,34.122018],[134.397743,34.122524],[134.398538,34.12246],[134.398587,34.122459],[134.399057,34.122453],[134.399148,34.122537],[134.399251,34.122671],[134.399376,34.122857],[134.399747,34.122893],[134.399752,34.123549],[134.399549,34.123756],[134.399323,34.124387],[134.400099,34.124725],[134.400002,34.125243],[134.400274,34.125227],[134.400195,34.12565]]]},"properties":{"S_NAME":"引野","HCODE":8101}},{"type":"Feature","geometry":{"type":"Polygon","coordinates":[[[134.40933,34.108174],[134.409219,34.10817],[134.407493,34.107861],[134.407483,34.107859],[134.405485,34.10752],[134.405368,34.107578],[134.405187,34.107654],[134.405026,34.107715],[134.404991,34.10774],[134.40495,34.107828],[134.404555,34.107777],[134.404564,34.107648],[134.404718,34.107647],[134.404717,34.107386],[134.402754,34.107295],[134.40275,34.107478],[134.402492,34.107482],[134.402308,34.107598],[134.402226,34.107341],[134.402145,34.107196],[134.40192,34.106879],[134.401763,34.106666],[134.401467,34.10628],[134.401387,34.106169],[134.401321,34.106092],[134.40122,34.105971],[134.401044,34.10576],[134.40096,34.10566],[134.400603,34.105201],[134.400235,34.104927],[134.40002,34.104778],[134.399653,34.104619],[134.399092,34.104372],[134.398891,34.104664],[134.398629,34.104554],[134.398554,34.104633],[134.397988,34.104391],[134.39799,34.104288],[134.397226,34.103792],[134.396975,34.103701],[134.39692,34.104636],[134.396278,34.104615],[134.395569,34.104527],[134.394136,34.104226],[134.39417,34.103539],[134.394198,34.102639],[134.394484,34.101418],[134.394636,34.100633],[134.394517,34.099579],[134.394506,34.099429],[134.394479,34.099065],[134.394458,34.098491],[134.394363,34.097814],[134.394521,34.09721],[134.394776,34.096318],[134.395789,34.092767],[134.396767,34.089338],[134.396367,34.089091],[134.396488,34.088883],[134.396779,34.087545],[134.397264,34.087203],[134.39951,34.088294],[134.400739,34.088864],[134.401253,34.089102],[134.401846,34.089366],[134.403597,34.090163],[134.405176,34.090882],[134.405593,34.091112],[134.406686,34.09175],[134.407586,34.092294],[134.408375,34.092843],[134.408389,34.092853],[134.408998,34.093292],[134.409401,34.093593],[134.409838,34.093877],[134.410544,34.094356],[134.410671,34.094453],[134.409471,34.099401],[134.409004,34.10179],[134.408149,34.101698],[134.407973,34.102787],[134.408881,34.102922],[134.410303,34.103138],[134.410215,34.103531],[134.409932,34.104793],[134.409802,34.105229],[134.409788,34.105273],[134.409625,34.106611],[134.409522,34.10716],[134.40933,34.108174]]]},"properties":{"S_NAME":"瀬部","HCODE":8101}},{"type":"Feature","geometry":{"type":"Polygon","coordinates":[[[134.42422,34.10227],[134.423428,34.105346],[134.423089,34.107178],[134.422706,34.107112],[134.422613,34.107429],[134.423034,34.107516],[134.422838,34.10862],[134.422678,34.109517],[134.420962,34.109157],[134.419952,34.108918],[134.418964,34.108626],[134.418321,34.108442],[134.418133,34.10841],[134.417907,34.109313],[134.417436,34.109306],[134.417295,34.109287],[134.41693,34.109215],[134.416088,34.109014],[134.415648,34.108917],[134.415475,34.108879],[134.415267,34.109083],[134.415154,34.109135],[134.415021,34.109171],[134.414918,34.109169],[134.414628,34.109082],[134.414575,34.109073],[134.414446,34.109052],[134.414246,34.109045],[134.413953,34.109034],[134.413684,34.109014],[134.413302,34.108951],[134.412824,34.108834],[134.412498,34.10875],[134.412147,34.108695],[134.411548,34.108602],[134.410349,34.108396],[134.41028,34.108379],[134.410252,34.108348],[134.410221,34.108314],[134.409441,34.108178],[134.40933,34.108174],[134.409522,34.10716],[134.409625,34.106611],[134.409788,34.105273],[134.409802,34.105229],[134.409932,34.104793],[134.410215,34.103531],[134.410303,34.103138],[134.408881,34.102922],[134.407973,34.102787],[134.408149,34.101698],[134.409004,34.10179],[134.409471,34.099401],[134.410671,34.094453],[134.410982,34.094689],[134.411289,34.094859],[134.41195,34.09524],[134.413052,34.095856],[134.415276,34.097152],[134.415813,34.097463],[134.418667,34.099112],[134.418699,34.099131],[134.419262,34.099444],[134.422825,34.101502],[134.423079,34.101648],[134.423448,34.101858],[134.423885,34.102117],[134.424192,34.102263],[134.42422,34.10227]]]},"properties":{"S_NAME":"高瀬","HCODE":8101}},{"type":"Feature","geometry":{"type":"Polygon","coordinates":[[[134.428287,34.103622],[134.427832,34.108264],[134.427747,34.109046],[134.427632,34.110105],[134.427595,34.110605],[134.427387,34.112017],[134.42726,34.112],[134.424298,34.111607],[134.423804,34.111546],[134.423407,34.111497],[134.423133,34.111393],[134.422335,34.111256],[134.422678,34.109517],[134.422838,34.10862],[134.423034,34.107516],[134.422613,34.107429],[134.422706,34.107112],[134.423089,34.107178],[134.423428,34.105346],[134.42422,34.10227],[134.42443,34.102327],[134.424727,34.102431],[134.424915,34.102495],[134.425203,34.1026],[134.425559,34.102696],[134.425861,34.102816],[134.426287,34.102944],[134.426584,34.103049],[134.427089,34.103176],[134.427664,34.103394],[134.428287,34.103622]]]},"properties":{"S_NAME":"高磯","HCODE":8101}},{"type":"Feature","geometry":{"type":"Polygon","coordinates":[[[134.437362,34.104649],[134.437284,34.105296],[134.437054,34.106976],[134.436889,34.108299],[134.436922,34.108301],[134.437072,34.108304],[134.437277,34.108284],[134.437495,34.108244],[134.43744,34.108281],[134.436936,34.108582],[134.43624,34.108991],[134.435968,34.109168],[134.435057,34.109832],[134.434778,34.110034],[134.434395,34.11031],[134.433533,34.111018],[134.433097,34.111376],[134.432867,34.111504],[134.432671,34.111591],[134.432562,34.111635],[134.433234,34.11175],[134.435406,34.112062],[134.435322,34.112678],[134.43531,34.112806],[134.435317,34.113185],[134.435303,34.113184],[134.434931,34.113124],[134.433752,34.112901],[134.432839,34.112752],[134.431979,34.112638],[134.431062,34.112516],[134.429251,34.112263],[134.427387,34.112017],[134.427595,34.110605],[134.427632,34.110105],[134.427747,34.109046],[134.427832,34.108264],[134.428287,34.103622],[134.428367,34.103651],[134.428961,34.103835],[134.429513,34.104026],[134.429813,34.104091],[134.430119,34.10413],[134.430356,34.104169],[134.430722,34.104191],[134.431018,34.104222],[134.431334,34.104244],[134.431561,34.104259],[134.432005,34.104272],[134.433336,34.104362],[134.434445,34.10441],[134.435433,34.104483],[134.436791,34.104595],[134.437362,34.104649]]]},"properties":{"S_NAME":"上六條","HCODE":8101}},{"type":"Feature","geometry":{"type":"Polygon","coordinates":[[[134.445103,34.114623],[134.444999,34.114611],[134.444612,34.114578],[134.444112,34.114537],[134.443842,34.114506],[134.443286,34.114413],[134.442679,34.114337],[134.442039,34.11427],[134.441646,34.114219],[134.441514,34.114204],[134.441356,34.114182],[134.440517,34.114065],[134.440179,34.113984],[134.439917,34.113938],[134.439532,34.113865],[134.439219,34.11381],[134.439083,34.113786],[134.438507,34.113684],[134.437812,34.113535],[134.437562,34.113474],[134.437156,34.113417],[134.436702,34.113359],[134.436694,34.113358],[134.436385,34.113319],[134.436255,34.113303],[134.435317,34.113185],[134.43531,34.112806],[134.435322,34.112678],[134.435406,34.112062],[134.433234,34.11175],[134.432562,34.111635],[134.432671,34.111591],[134.432867,34.111504],[134.433097,34.111376],[134.433533,34.111018],[134.434395,34.11031],[134.434778,34.110034],[134.435057,34.109832],[134.435968,34.109168],[134.43624,34.108991],[134.436936,34.108582],[134.43744,34.108281],[134.437495,34.108244],[134.437277,34.108284],[134.437072,34.108304],[134.436922,34.108301],[134.436889,34.108299],[134.437054,34.106976],[134.437284,34.105296],[134.437362,34.104649],[134.43753,34.104665],[134.437757,34.104686],[134.438666,34.104766],[134.439616,34.104855],[134.440532,34.104918],[134.441032,34.104967],[134.440401,34.106251],[134.440104,34.106744],[134.439531,34.107687],[134.439397,34.107909],[134.43894,34.108538],[134.438916,34.108578],[134.439169,34.108696],[134.439552,34.108884],[134.439896,34.10907],[134.440143,34.109224],[134.440361,34.109396],[134.440638,34.109592],[134.441341,34.110069],[134.441342,34.110092],[134.441342,34.110122],[134.440939,34.110422],[134.440716,34.11061],[134.440434,34.110867],[134.440311,34.111011],[134.440831,34.111208],[134.440935,34.111246],[134.441066,34.111332],[134.441851,34.111875],[134.442504,34.112321],[134.443122,34.112755],[134.443656,34.113155],[134.44445,34.113871],[134.444508,34.113886],[134.445108,34.113818],[134.445103,34.114623]]]},"properties":{"S_NAME":"下六條","HCODE":8101}},{"type":"Feature","geometry":{"type":"Polygon","coordinates":[[[134.445394,34.105643],[134.445289,34.106463],[134.445251,34.106975],[134.445246,34.107302],[134.44528,34.107502],[134.445352,34.107753],[134.445432,34.107899],[134.445531,34.108033],[134.445715,34.108243],[134.445922,34.108399],[134.446906,34.109001],[134.44825,34.109952],[134.450003,34.111152],[134.451299,34.112032],[134.452479,34.112787],[134.454051,34.113848],[134.455361,34.114659],[134.455825,34.114954],[134.456316,34.115378],[134.456823,34.115982],[134.457139,34.116471],[134.457089,34.116463],[134.456716,34.116407],[134.455987,34.116297],[134.455643,34.116237],[134.455591,34.116228],[134.454791,34.11609],[134.452852,34.115755],[134.450845,34.115494],[134.448319,34.115045],[134.448038,34.115004],[134.447973,34.114994],[134.447802,34.114967],[134.447543,34.11493],[134.447121,34.114866],[134.446509,34.114765],[134.445232,34.114638],[134.445103,34.114623],[134.445108,34.113818],[134.444508,34.113886],[134.44445,34.113871],[134.443656,34.113155],[134.443122,34.112755],[134.442504,34.112321],[134.441851,34.111875],[134.441066,34.111332],[134.440935,34.111246],[134.440831,34.111208],[134.440311,34.111011],[134.440434,34.110867],[134.440716,34.11061],[134.440939,34.110422],[134.441342,34.110122],[134.441342,34.110092],[134.441341,34.110069],[134.440638,34.109592],[134.440361,34.109396],[134.440143,34.109224],[134.439896,34.10907],[134.439552,34.108884],[134.439169,34.108696],[134.438916,34.108578],[134.43894,34.108538],[134.439397,34.107909],[134.439531,34.107687],[134.440104,34.106744],[134.440401,34.106251],[134.441032,34.104967],[134.441315,34.104994],[134.44189,34.105059],[134.442382,34.105125],[134.443999,34.105389],[134.445394,34.105643]]]},"properties":{"S_NAME":"佐藤塚","HCODE":8101}},{"type":"Feature","geometry":{"type":"Polygon","coordinates":[[[134.445394,34.105643],[134.445832,34.105723],[134.446238,34.105801],[134.447122,34.105971],[134.447927,34.106133],[134.448784,34.105379],[134.449525,34.104681],[134.449835,34.104389],[134.450145,34.104717],[134.45036,34.104932],[134.450512,34.105094],[134.450665,34.105218],[134.450832,34.10533],[134.451029,34.105441],[134.451284,34.105569],[134.4518,34.105917],[134.45209,34.106142],[134.452425,34.106359],[134.452907,34.106741],[134.45325,34.107061],[134.45385,34.1076],[134.454289,34.108001],[134.454586,34.108325],[134.454831,34.108568],[134.455136,34.108873],[134.45535,34.109135],[134.455473,34.109322],[134.455607,34.109516],[134.455669,34.109647],[134.455762,34.109816],[134.455901,34.110072],[134.456039,34.110315],[134.456162,34.110484],[134.456537,34.111259],[134.456668,34.111534],[134.456753,34.111684],[134.45688,34.111876],[134.457117,34.112023],[134.457365,34.112125],[134.457591,34.112222],[134.458105,34.112427],[134.458067,34.11323],[134.457786,34.11657],[134.457727,34.116561],[134.457454,34.116518],[134.457139,34.116471],[134.456823,34.115982],[134.456316,34.115378],[134.455825,34.114954],[134.455361,34.114659],[134.454051,34.113848],[134.452479,34.112787],[134.451299,34.112032],[134.450003,34.111152],[134.44825,34.109952],[134.446906,34.109001],[134.445922,34.108399],[134.445715,34.108243],[134.445531,34.108033],[134.445432,34.107899],[134.445352,34.107753],[134.44528,34.107502],[134.445246,34.107302],[134.445251,34.106975],[134.445289,34.106463],[134.445394,34.105643]]]},"properties":{"S_NAME":"第十新田","HCODE":8101}}]}