{"type":"FeatureCollection","features":[{"type":"Feature","geometry":{"type":"Polygon","coordinates":[[[134.50609,34.118463],[134.506274,34.118531],[134.506317,34.118544],[134.50673,34.118676],[134.507596,34.118713],[134.508071,34.11869],[134.508178,34.118702],[134.508213,34.11873],[134.508298,34.118931],[134.508717,34.119747],[134.509149,34.120475],[134.509296,34.120429],[134.50951,34.120363],[134.510021,34.120206],[134.510542,34.120093],[134.511147,34.120014],[134.511622,34.119982],[134.511768,34.120584],[134.511797,34.120978],[134.511798,34.121133],[134.511798,34.121181],[134.511957,34.121146],[134.512046,34.121144],[134.512213,34.121105],[134.51235,34.121044],[134.512538,34.120935],[134.512715,34.120811],[134.512738,34.120795],[134.51312,34.120627],[134.51355,34.120438],[134.514808,34.122122],[134.515218,34.122837],[134.515239,34.122881],[134.515544,34.123513],[134.515557,34.123541],[134.515805,34.124048],[134.515908,34.124009],[134.516101,34.123937],[134.516952,34.123605],[134.517017,34.123579],[134.5171,34.123507],[134.517252,34.123375],[134.517311,34.12334],[134.517379,34.123312],[134.517591,34.12327],[134.517687,34.123251],[134.517758,34.123245],[134.518432,34.122978],[134.518769,34.123355],[134.51923,34.123716],[134.519271,34.123681],[134.51997,34.124021],[134.520107,34.124049],[134.520195,34.123999],[134.52023,34.123717],[134.52101,34.124165],[134.521228,34.124219],[134.521496,34.124274],[134.521554,34.124287],[134.522159,34.124381],[134.52278,34.124426],[134.523015,34.124429],[134.52365,34.124439],[134.524194,34.124411],[134.524418,34.124378],[134.524623,34.124347],[134.525011,34.124293],[134.525376,34.124272],[134.525686,34.124255],[134.525919,34.124247],[134.525966,34.124254],[134.52673,34.124372],[134.528401,34.124575],[134.528432,34.124578],[134.52871,34.124615],[134.529148,34.124672],[134.528943,34.12492],[134.528728,34.12486],[134.528617,34.124845],[134.528534,34.1249],[134.528463,34.125163],[134.528423,34.125261],[134.528319,34.125519],[134.528072,34.125743],[134.527968,34.12584],[134.527775,34.126031],[134.527676,34.126157],[134.527709,34.12622],[134.52793,34.126394],[134.528092,34.126693],[134.528358,34.127159],[134.528414,34.127283],[134.528482,34.127429],[134.528758,34.128029],[134.529233,34.128531],[134.529403,34.128714],[134.529866,34.129152],[134.529206,34.129761],[134.529004,34.129975],[134.529111,34.130049],[134.529135,34.130065],[134.529348,34.130249],[134.529681,34.130556],[134.529859,34.130776],[134.529889,34.130813],[134.529925,34.130867],[134.529303,34.131078],[134.529391,34.131229],[134.529458,34.131342],[134.528969,34.131532],[134.527884,34.131968],[134.527113,34.132267],[134.526485,34.132508],[134.525293,34.133035],[134.524672,34.133327],[134.524274,34.133514],[134.523879,34.133736],[134.523062,34.134139],[134.52263,34.134357],[134.522054,34.13466],[134.521999,34.134691],[134.521874,34.134761],[134.521549,34.134949],[134.52137,34.135021],[134.521393,34.135061],[134.521621,34.135467],[134.520617,34.135944],[134.519557,34.13642],[134.518542,34.13681],[134.518531,34.136814],[134.517429,34.137296],[134.516946,34.137534],[134.516848,34.137594],[134.516804,34.137665],[134.516802,34.137706],[134.516802,34.137724],[134.516833,34.137801],[134.516845,34.13842],[134.516867,34.13856],[134.516946,34.138875],[134.517,34.139099],[134.517032,34.139428],[134.517032,34.139429],[134.517035,34.139452],[134.517036,34.139461],[134.516915,34.139488],[134.516799,34.139514],[134.516798,34.139514],[134.516786,34.139516],[134.516715,34.13953],[134.516694,34.139534],[134.516382,34.139594],[134.516381,34.139594],[134.516369,34.139597],[134.516365,34.139598],[134.516363,34.139598],[134.516325,34.139594],[134.516324,34.139594],[134.516218,34.139587],[134.516143,34.139599],[134.516043,34.139621],[134.516041,34.139622],[134.51604,34.139622],[134.516037,34.139623],[134.516028,34.139625],[134.516022,34.139626],[134.516012,34.139628],[134.515999,34.139631],[134.515989,34.139633],[134.515977,34.139636],[134.515965,34.139638],[134.51584,34.139644],[134.51579,34.139648],[134.515787,34.139649],[134.515783,34.139649],[134.515766,34.13965],[134.515711,34.139655],[134.515673,34.13966],[134.51564,34.139666],[134.515633,34.139667],[134.515632,34.139667],[134.515598,34.139674],[134.515306,34.139758],[134.515262,34.13977],[134.515168,34.139797],[134.515164,34.139798],[134.515152,34.139801],[134.515143,34.139804],[134.515135,34.139806],[134.515094,34.139818],[134.514919,34.139868],[134.514752,34.139916],[134.514688,34.139934],[134.514651,34.139945],[134.514613,34.139956],[134.514569,34.139969],[134.514568,34.139969],[134.514429,34.140009],[134.51442,34.140012],[134.51441,34.140015],[134.514398,34.140018],[134.514386,34.140021],[134.514369,34.140026],[134.514352,34.140031],[134.51433,34.140037],[134.514318,34.140041],[134.514305,34.140045],[134.514295,34.140047],[134.514285,34.14005],[134.514275,34.140053],[134.514261,34.140057],[134.514251,34.14006],[134.514235,34.140065],[134.514226,34.140067],[134.514218,34.140069],[134.514206,34.140073],[134.514191,34.140077],[134.514178,34.140081],[134.514166,34.140085],[134.514152,34.140089],[134.51407,34.140112],[134.514072,34.140118],[134.514176,34.14064],[134.514179,34.140642],[134.51429,34.141186],[134.514088,34.141229],[134.513937,34.141261],[134.513601,34.141354],[134.513599,34.141354],[134.513567,34.141363],[134.513545,34.14137],[134.513417,34.141405],[134.513328,34.14143],[134.513299,34.141438],[134.513223,34.14146],[134.513221,34.14146],[134.513185,34.14147],[134.513026,34.141514],[134.512751,34.141591],[134.512733,34.141595],[134.512726,34.141598],[134.512725,34.141598],[134.512705,34.141603],[134.51263,34.141623],[134.512616,34.141627],[134.512579,34.141637],[134.512568,34.14164],[134.511836,34.141837],[134.511835,34.141838],[134.511649,34.141889],[134.511648,34.142313],[134.511148,34.142324],[134.511027,34.142377],[134.510919,34.142423],[134.510853,34.142452],[134.510833,34.142461],[134.510829,34.142462],[134.510828,34.142463],[134.510819,34.142467],[134.510801,34.142474],[134.510113,34.142766],[134.510109,34.142767],[134.509184,34.143143],[134.508494,34.143366],[134.50701,34.143572],[134.506461,34.143618],[134.506136,34.143678],[134.505869,34.143705],[134.505458,34.143767],[134.504871,34.143811],[134.504396,34.143845],[134.50412,34.143862],[134.503698,34.143893],[134.503394,34.143907],[134.50333,34.14304],[134.503325,34.14304],[134.502859,34.143117],[134.502631,34.143159],[134.502536,34.143176],[134.502528,34.143178],[134.502523,34.143178],[134.502514,34.14318],[134.502508,34.143181],[134.502502,34.143182],[134.502497,34.143183],[134.502234,34.14323],[134.502032,34.143261],[134.501947,34.143279],[134.501731,34.143364],[134.501667,34.143391],[134.50158,34.143413],[134.50149,34.143418],[134.501254,34.143412],[134.501103,34.143404],[134.50091,34.143418],[134.500734,34.143442],[134.500548,34.14348],[134.500342,34.143534],[134.500171,34.143582],[134.499785,34.143753],[134.499725,34.14378],[134.499704,34.143789],[134.499692,34.143795],[134.499684,34.143798],[134.499679,34.143801],[134.49967,34.143804],[134.49966,34.143809],[134.499653,34.143812],[134.499646,34.143815],[134.499644,34.143816],[134.499636,34.143819],[134.499626,34.143824],[134.49962,34.143827],[134.499615,34.143829],[134.499609,34.143831],[134.499608,34.143832],[134.499606,34.143833],[134.499605,34.143833],[134.499587,34.143841],[134.499576,34.143847],[134.499562,34.143853],[134.49955,34.143859],[134.499539,34.143863],[134.499527,34.143869],[134.499526,34.143869],[134.499442,34.143909],[134.49938,34.143876],[134.499122,34.14374],[134.499015,34.143683],[134.498992,34.143671],[134.498832,34.143586],[134.498803,34.143571],[134.498788,34.143563],[134.49874,34.143538],[134.49871,34.143522],[134.498661,34.143496],[134.498622,34.143475],[134.498617,34.143473],[134.498391,34.143354],[134.498341,34.143409],[134.498321,34.143432],[134.498309,34.143446],[134.498308,34.143448],[134.498307,34.14345],[134.498305,34.143451],[134.498301,34.143458],[134.498295,34.143465],[134.498291,34.14347],[134.498287,34.143476],[134.498282,34.143482],[134.498279,34.143486],[134.498277,34.143489],[134.498264,34.143506],[134.498258,34.143514],[134.498257,34.143516],[134.498255,34.143519],[134.498254,34.143519],[134.498253,34.14352],[134.49825,34.143524],[134.498246,34.143531],[134.498239,34.14354],[134.498234,34.143547],[134.498231,34.143551],[134.498227,34.143556],[134.498225,34.143559],[134.498222,34.143564],[134.498219,34.143568],[134.498216,34.143571],[134.498214,34.143574],[134.498201,34.143592],[134.498199,34.143594],[134.498198,34.143596],[134.498172,34.143634],[134.498154,34.143659],[134.498127,34.143698],[134.498126,34.1437],[134.498125,34.1437],[134.49812,34.143707],[134.498072,34.143772],[134.498071,34.143775],[134.497997,34.143873],[134.497985,34.14389],[134.497905,34.143997],[134.497868,34.144047],[134.497865,34.144051],[134.497861,34.144056],[134.497858,34.144061],[134.497852,34.144068],[134.497837,34.14409],[134.497812,34.144124],[134.497804,34.144136],[134.497752,34.144208],[134.497747,34.144215],[134.497745,34.144217],[134.497743,34.144219],[134.49774,34.144224],[134.497739,34.144225],[134.497733,34.144234],[134.497711,34.144263],[134.497692,34.144288],[134.497671,34.144317],[134.497661,34.14433],[134.49765,34.144345],[134.497641,34.144357],[134.497638,34.144362],[134.497565,34.144461],[134.497561,34.144466],[134.497474,34.144584],[134.497472,34.144587],[134.497464,34.144598],[134.497457,34.144607],[134.497395,34.14469],[134.497381,34.14471],[134.497349,34.144753],[134.497349,34.144757],[134.49721,34.144917],[134.496883,34.145213],[134.496828,34.145254],[134.496164,34.145742],[134.495832,34.145971],[134.495322,34.14627],[134.494971,34.145445],[134.494106,34.145831],[134.493633,34.146096],[134.492845,34.146417],[134.491787,34.146699],[134.491548,34.146766],[134.490693,34.147027],[134.490324,34.147264],[134.490562,34.147611],[134.490709,34.147879],[134.490801,34.148259],[134.489887,34.148309],[134.489051,34.148323],[134.488,34.148237],[134.486963,34.147999],[134.486897,34.147983],[134.486855,34.147969],[134.486527,34.147832],[134.486491,34.147817],[134.486216,34.147669],[134.48591,34.147485],[134.485593,34.14727],[134.485273,34.146942],[134.484939,34.146562],[134.484769,34.14632],[134.484458,34.145937],[134.48425,34.145675],[134.484137,34.145557],[134.484022,34.145436],[134.483881,34.145296],[134.48369,34.145092],[134.48367,34.145071],[134.483668,34.145069],[134.483482,34.144887],[134.483263,34.144673],[134.483203,34.144602],[134.482908,34.144259],[134.482544,34.143928],[134.482329,34.143712],[134.482216,34.143621],[134.482137,34.143558],[134.482036,34.143494],[134.481963,34.143446],[134.482239,34.14303],[134.48195,34.142848],[134.481873,34.142916],[134.481319,34.142592],[134.480447,34.142066],[134.479248,34.141283],[134.478689,34.140869],[134.47831,34.140552],[134.477834,34.139998],[134.477478,34.139649],[134.47744,34.139565],[134.477375,34.138897],[134.477342,34.138564],[134.477202,34.137595],[134.477196,34.137556],[134.478181,34.137229],[134.477924,34.135573],[134.47792,34.135541],[134.477774,34.134402],[134.477599,34.133227],[134.477455,34.132562],[134.477112,34.130708],[134.476593,34.130679],[134.47661,34.130518],[134.475965,34.130268],[134.474034,34.129964],[134.473983,34.129956],[134.472945,34.129825],[134.470375,34.129503],[134.470391,34.129201],[134.470403,34.128504],[134.470493,34.126392],[134.470749,34.123039],[134.470761,34.122887],[134.470786,34.122556],[134.471072,34.120327],[134.471074,34.120298],[134.471088,34.120098],[134.471162,34.119011],[134.47118,34.118808],[134.469847,34.118658],[134.466577,34.118123],[134.466044,34.118036],[134.46413,34.117709],[134.461634,34.117233],[134.459322,34.116849],[134.457786,34.11657],[134.458067,34.11323],[134.458105,34.112427],[134.458156,34.11217],[134.458252,34.111851],[134.458368,34.111441],[134.458475,34.110963],[134.458572,34.110686],[134.458702,34.11026],[134.458822,34.110307],[134.459215,34.110457],[134.460662,34.110899],[134.461609,34.111149],[134.462307,34.11134],[134.462685,34.111443],[134.464,34.111743],[134.46473,34.111977],[134.465872,34.112288],[134.467558,34.112755],[134.468077,34.112826],[134.468524,34.112887],[134.469662,34.112973],[134.470682,34.113075],[134.470703,34.113077],[134.471267,34.113116],[134.471787,34.113155],[134.472285,34.113149],[134.472404,34.113143],[134.472989,34.113113],[134.473735,34.113032],[134.47436,34.112845],[134.474952,34.112639],[134.475447,34.112453],[134.476199,34.11212],[134.477091,34.111686],[134.477788,34.111281],[134.478462,34.110822],[134.478979,34.110385],[134.479053,34.110323],[134.479176,34.110219],[134.479317,34.1101],[134.479766,34.109751],[134.480268,34.109359],[134.481071,34.1088],[134.481126,34.108762],[134.481724,34.10835],[134.481709,34.108319],[134.482474,34.1079],[134.482818,34.107742],[134.48312,34.107631],[134.483507,34.107473],[134.484054,34.107196],[134.484442,34.107056],[134.484744,34.10698],[134.485067,34.106896],[134.485338,34.106901],[134.485444,34.106892],[134.485566,34.106881],[134.487326,34.106868],[134.48747,34.106867],[134.489343,34.106951],[134.489998,34.106948],[134.49078,34.106988],[134.491222,34.107011],[134.491238,34.107012],[134.491246,34.107013],[134.492419,34.107114],[134.493065,34.107171],[134.493195,34.107183],[134.493238,34.10719],[134.49374,34.107271],[134.494917,34.107441],[134.495446,34.10754],[134.495462,34.107543],[134.495476,34.107546],[134.496082,34.107675],[134.496627,34.107767],[134.497163,34.107836],[134.497199,34.107841],[134.497835,34.107897],[134.497859,34.107899],[134.498014,34.107911],[134.498294,34.107931],[134.49852,34.10794],[134.498809,34.108031],[134.499152,34.108163],[134.499403,34.108235],[134.499953,34.108283],[134.500571,34.108301],[134.500982,34.108289],[134.501169,34.108268],[134.502805,34.107938],[134.505254,34.107497],[134.505032,34.109882],[134.505036,34.11046],[134.505396,34.111931],[134.505424,34.112056],[134.505546,34.112533],[134.505595,34.112724],[134.505631,34.11283],[134.505668,34.112937],[134.505708,34.113028],[134.5057,34.113054],[134.505394,34.113116],[134.505007,34.113195],[134.505001,34.113197],[134.504956,34.113206],[134.504983,34.113315],[134.504583,34.113377],[134.504664,34.113609],[134.504724,34.113551],[134.504746,34.113607],[134.504694,34.113623],[134.504638,34.11374],[134.504639,34.113817],[134.504893,34.11453],[134.50524,34.115743],[134.505703,34.117359],[134.505965,34.118417],[134.50609,34.118463]]]},"properties":{"code":"36403","name":"藍住町"}}]}