{"type":"FeatureCollection","features":[{"type":"Feature","geometry":{"type":"Polygon","coordinates":[[[134.392693,34.163643],[134.392176,34.1636],[134.392122,34.163596],[134.392058,34.163597],[134.391992,34.163599],[134.391923,34.163605],[134.391847,34.163613],[134.391764,34.163625],[134.391668,34.163642],[134.391561,34.163662],[134.391449,34.163687],[134.391338,34.163716],[134.391239,34.163747],[134.391153,34.163779],[134.391075,34.163809],[134.39105,34.163817],[134.390546,34.164009],[134.390373,34.164083],[134.390222,34.164153],[134.390089,34.164221],[134.389965,34.164292],[134.389842,34.164367],[134.389717,34.164448],[134.389596,34.164527],[134.389487,34.164601],[134.389392,34.164665],[134.389311,34.164719],[134.389243,34.164766],[134.389186,34.164807],[134.389134,34.164842],[134.389084,34.164874],[134.389028,34.164904],[134.388962,34.16493],[134.388887,34.164956],[134.388806,34.164983],[134.388722,34.165011],[134.388633,34.165043],[134.38854,34.165076],[134.388443,34.16511],[134.388339,34.165144],[134.38824,34.165178],[134.388152,34.165209],[134.388086,34.165237],[134.388037,34.16526],[134.387983,34.165279],[134.387906,34.165294],[134.387789,34.165304],[134.387644,34.165311],[134.387484,34.165315],[134.387327,34.165316],[134.387178,34.165314],[134.387041,34.165307],[134.386916,34.165295],[134.386857,34.165285],[134.386749,34.165264],[134.386648,34.165237],[134.386554,34.165209],[134.386438,34.165176],[134.386383,34.165162],[134.386271,34.165134],[134.386176,34.165123],[134.38608,34.165119],[134.38598,34.165118],[134.385878,34.165115],[134.385772,34.165105],[134.385665,34.165089],[134.385564,34.165073],[134.385471,34.165056],[134.385387,34.16504],[134.385309,34.165024],[134.385235,34.16501],[134.384879,34.165601],[134.384832,34.16568],[134.384789,34.165759],[134.384749,34.165837],[134.384714,34.165912],[134.384684,34.165983],[134.384659,34.166048],[134.384643,34.166106],[134.384638,34.166161],[134.384642,34.166186],[134.384657,34.166233],[134.384684,34.166278],[134.384718,34.166324],[134.384756,34.166372],[134.384793,34.166426],[134.384828,34.166487],[134.384861,34.166556],[134.384873,34.166592],[134.384895,34.166672],[134.384914,34.166752],[134.384928,34.166827],[134.38494,34.166894],[134.384948,34.166953],[134.384953,34.167008],[134.384951,34.167059],[134.384944,34.167109],[134.384933,34.16716],[134.384921,34.167211],[134.384908,34.167295],[134.384906,34.167356],[134.38491,34.167423],[134.384921,34.1675],[134.384942,34.16758],[134.384966,34.167658],[134.384993,34.167727],[134.385018,34.167787],[134.385035,34.167843],[134.385037,34.167871],[134.385036,34.167889],[134.385036,34.167899],[134.385029,34.167929],[134.385017,34.167961],[134.384983,34.168028],[134.384962,34.168061],[134.384917,34.168132],[134.384894,34.168168],[134.384852,34.168226],[134.384817,34.168273],[134.384771,34.168326],[134.384725,34.168385],[134.384681,34.168458],[134.384641,34.168559],[134.384623,34.168616],[134.384593,34.168742],[134.384566,34.168866],[134.384543,34.168972],[134.384523,34.169057],[134.384506,34.169129],[134.384489,34.169193],[134.384409,34.169486],[134.384383,34.169566],[134.38436,34.16964],[134.384334,34.169717],[134.384306,34.16981],[134.38427,34.169927],[134.384164,34.170256],[134.384042,34.170765],[134.383926,34.170983],[134.383259,34.17172],[134.383042,34.171957],[134.38286,34.172067],[134.381979,34.172152],[134.381424,34.172264],[134.380826,34.172234],[134.37993,34.172267],[134.379641,34.172314],[134.379217,34.172285],[134.378956,34.172208],[134.378463,34.17201],[134.378195,34.171918],[134.376917,34.171933],[134.376227,34.171856],[134.375825,34.17184],[134.375611,34.171802],[134.375498,34.171734],[134.375321,34.171506],[134.375063,34.17112],[134.374534,34.170376],[134.374373,34.17023],[134.373904,34.169965],[134.373791,34.169902],[134.373652,34.169826],[134.373593,34.169789],[134.373547,34.169752],[134.373515,34.169711],[134.373499,34.169665],[134.373484,34.169563],[134.373468,34.169509],[134.373443,34.169452],[134.373366,34.169317],[134.373265,34.169143],[134.373158,34.168945],[134.373064,34.168774],[134.37302,34.168705],[134.372972,34.168641],[134.372913,34.168579],[134.372851,34.168521],[134.372786,34.168471],[134.37272,34.168434],[134.372597,34.168375],[134.37254,34.168343],[134.372492,34.168308],[134.372457,34.168273],[134.372436,34.168237],[134.372426,34.168196],[134.372418,34.168075],[134.372415,34.167979],[134.372412,34.167921],[134.372404,34.167787],[134.372402,34.167663],[134.372406,34.167604],[134.372417,34.167556],[134.372435,34.167521],[134.372461,34.167497],[134.372492,34.167476],[134.372553,34.167428],[134.372576,34.167403],[134.372586,34.167374],[134.372584,34.167339],[134.372565,34.167291],[134.372527,34.167226],[134.372426,34.167072],[134.372325,34.166931],[134.372306,34.166908],[134.372275,34.16687],[134.372224,34.166815],[134.372169,34.166766],[134.37211,34.166722],[134.372045,34.166682],[134.371973,34.166648],[134.371898,34.166619],[134.371742,34.16657],[134.37168,34.166545],[134.371634,34.166512],[134.371604,34.166469],[134.371585,34.166411],[134.37157,34.166335],[134.37156,34.166253],[134.37155,34.166113],[134.371549,34.166016],[134.371545,34.165971],[134.371534,34.165927],[134.371507,34.165881],[134.371459,34.165832],[134.371393,34.16578],[134.371318,34.165726],[134.371154,34.165612],[134.371078,34.165563],[134.370954,34.165487],[134.370913,34.165454],[134.370884,34.165417],[134.370863,34.165372],[134.37084,34.165314],[134.370771,34.165156],[134.370706,34.165001],[134.370658,34.164883],[134.370632,34.164833],[134.370602,34.164786],[134.370568,34.16474],[134.37049,34.164637],[134.37046,34.164583],[134.370443,34.164528],[134.370442,34.164471],[134.370451,34.164417],[134.37047,34.164363],[134.370501,34.164309],[134.370547,34.164254],[134.370606,34.164194],[134.370729,34.164083],[134.370773,34.16404],[134.37084,34.163958],[134.370919,34.163837],[134.370969,34.16377],[134.371025,34.163703],[134.371129,34.163583],[134.3712,34.16348],[134.37123,34.163426],[134.371254,34.163362],[134.371266,34.163284],[134.37127,34.163212],[134.37127,34.163144],[134.371261,34.163079],[134.371245,34.163019],[134.371235,34.162992],[134.371207,34.162942],[134.371189,34.16292],[134.371169,34.162902],[134.371124,34.162873],[134.371072,34.162853],[134.371022,34.162835],[134.370975,34.162813],[134.370932,34.16279],[134.370885,34.162769],[134.370837,34.162749],[134.370815,34.162736],[134.370796,34.162719],[134.370778,34.162696],[134.370752,34.162643],[134.370735,34.16259],[134.370719,34.162544],[134.370704,34.162502],[134.37069,34.162454],[134.370674,34.162401],[134.37066,34.162346],[134.370647,34.162293],[134.37063,34.162242],[134.370601,34.162188],[134.370563,34.162134],[134.370519,34.162086],[134.370474,34.162046],[134.370431,34.162013],[134.370389,34.161987],[134.370347,34.16196],[134.370306,34.161931],[134.370264,34.161897],[134.370228,34.161856],[134.370199,34.161813],[134.370188,34.16179],[134.370174,34.161738],[134.370168,34.161674],[134.370166,34.161598],[134.370165,34.161518],[134.37016,34.161435],[134.37015,34.161349],[134.370138,34.161258],[134.370123,34.161163],[134.370104,34.161068],[134.370078,34.160978],[134.370049,34.160893],[134.370016,34.160809],[134.369978,34.160728],[134.369934,34.160653],[134.369908,34.160617],[134.36988,34.160583],[134.369849,34.160552],[134.369814,34.160522],[134.369775,34.160495],[134.36973,34.16047],[134.369636,34.160428],[134.36955,34.160393],[134.369484,34.160363],[134.369434,34.160335],[134.369392,34.160304],[134.369355,34.160268],[134.36932,34.160227],[134.369287,34.160179],[134.369258,34.160129],[134.369239,34.160081],[134.36923,34.160034],[134.369229,34.160009],[134.369236,34.159948],[134.369249,34.159879],[134.369266,34.159813],[134.369279,34.159758],[134.369295,34.15971],[134.369317,34.15966],[134.369345,34.159599],[134.369367,34.15952],[134.369374,34.159418],[134.36937,34.159302],[134.36936,34.15918],[134.369345,34.15906],[134.369334,34.158986],[134.369328,34.158945],[134.36931,34.158837],[134.369293,34.158744],[134.369281,34.15867],[134.369269,34.158613],[134.369259,34.158589],[134.369244,34.158565],[134.369198,34.158514],[134.369136,34.158455],[134.369068,34.158383],[134.368999,34.158302],[134.368935,34.158222],[134.368878,34.158151],[134.368828,34.158088],[134.368786,34.158025],[134.368748,34.15796],[134.368708,34.157893],[134.368663,34.157822],[134.368613,34.157752],[134.368562,34.157685],[134.368506,34.157622],[134.368477,34.157592],[134.368414,34.157536],[134.368346,34.157482],[134.368278,34.157426],[134.368214,34.157365],[134.368186,34.157332],[134.368163,34.157299],[134.368146,34.157267],[134.368135,34.157234],[134.368131,34.1572],[134.368131,34.157132],[134.368132,34.15706],[134.368132,34.15704],[134.368132,34.156984],[134.368131,34.156909],[134.368131,34.156836],[134.368134,34.156765],[134.368134,34.156692],[134.36813,34.156618],[134.36812,34.156546],[134.368104,34.156476],[134.368092,34.156446],[134.368078,34.156418],[134.368032,34.156337],[134.367798,34.155944],[134.36775,34.15587],[134.36771,34.155806],[134.367692,34.155773],[134.36768,34.15575],[134.367656,34.155698],[134.367635,34.155639],[134.367619,34.155574],[134.367616,34.155541],[134.367618,34.15551],[134.367626,34.15548],[134.367639,34.155453],[134.367656,34.155426],[134.367688,34.155384],[134.367696,34.155373],[134.367739,34.155315],[134.367783,34.155253],[134.367825,34.155185],[134.367867,34.155111],[134.367915,34.155034],[134.367968,34.154949],[134.368021,34.154866],[134.368044,34.154825],[134.36808,34.154748],[134.368108,34.154672],[134.368129,34.154596],[134.368142,34.154487],[134.368177,34.154077],[134.36819,34.154003],[134.368213,34.153909],[134.368246,34.153805],[134.368285,34.153708],[134.368306,34.153666],[134.368352,34.153587],[134.368408,34.153515],[134.368472,34.153442],[134.368533,34.153368],[134.368559,34.153328],[134.368583,34.153287],[134.36862,34.153209],[134.368643,34.153142],[134.368648,34.153113],[134.36865,34.153054],[134.368645,34.153023],[134.368627,34.15295],[134.368602,34.15287],[134.36858,34.15279],[134.368561,34.152716],[134.36855,34.152648],[134.368546,34.15259],[134.368553,34.152535],[134.368572,34.152481],[134.368601,34.15242],[134.368638,34.152347],[134.368678,34.152262],[134.368719,34.152178],[134.368758,34.152112],[134.368779,34.152087],[134.368825,34.152034],[134.368886,34.151962],[134.368955,34.15187],[134.36902,34.151776],[134.369063,34.151693],[134.369089,34.151624],[134.369095,34.151593],[134.369097,34.151563],[134.369096,34.151506],[134.369093,34.151453],[134.369094,34.151423],[134.369095,34.1514],[134.369107,34.151353],[134.369118,34.151335],[134.369131,34.15132],[134.369147,34.151309],[134.369422,34.151129],[134.370444,34.150989],[134.370805,34.150952],[134.371011,34.150867],[134.371411,34.150609],[134.371961,34.149995],[134.372311,34.14957],[134.37284,34.149113],[134.373325,34.149054],[134.374576,34.148697],[134.375219,34.148278],[134.37569,34.147495],[134.3769,34.145408],[134.376924,34.145305],[134.376954,34.145193],[134.376991,34.145079],[134.377035,34.144959],[134.377089,34.14484],[134.377154,34.144726],[134.377228,34.144621],[134.377311,34.144528],[134.377401,34.144451],[134.377493,34.144388],[134.377588,34.144337],[134.377777,34.144249],[134.377878,34.144209],[134.377993,34.144174],[134.378125,34.144142],[134.378423,34.144088],[134.378703,34.144034],[134.37888,34.143999],[134.378928,34.143986],[134.378965,34.143964],[134.379051,34.143878],[134.379112,34.143821],[134.379267,34.143687],[134.379353,34.143606],[134.379435,34.143512],[134.379513,34.143412],[134.379657,34.14321],[134.379733,34.143106],[134.379826,34.142988],[134.380064,34.142701],[134.380185,34.142553],[134.380384,34.142284],[134.38048,34.142158],[134.380584,34.142031],[134.380797,34.141787],[134.380989,34.141561],[134.381205,34.141315],[134.381463,34.141032],[134.38161,34.140867],[134.38171,34.140752],[134.381799,34.140651],[134.381847,34.14059],[134.381872,34.140551],[134.381916,34.140441],[134.381982,34.140263],[134.382006,34.140171],[134.382024,34.14008],[134.382053,34.139893],[134.382069,34.139801],[134.382095,34.139719],[134.382132,34.139651],[134.382175,34.139598],[134.382223,34.139555],[134.382268,34.139519],[134.382321,34.139488],[134.382394,34.13946],[134.382493,34.139432],[134.382712,34.139377],[134.382797,34.139348],[134.382864,34.139316],[134.382919,34.139278],[134.382964,34.13923],[134.383006,34.139172],[134.383045,34.139109],[134.383124,34.138953],[134.383169,34.138856],[134.383321,34.138472],[134.383337,34.138421],[134.383216,34.137878],[134.383204,34.137827],[134.383168,34.137781],[134.383071,34.137718],[134.382912,34.13768],[134.382887,34.13768],[134.382831,34.137685],[134.38273,34.137684],[134.382678,34.137682],[134.382634,34.137676],[134.382595,34.137664],[134.382558,34.137648],[134.38248,34.137591],[134.382412,34.137536],[134.382384,34.13751],[134.382358,34.137479],[134.382332,34.137437],[134.38228,34.13734],[134.38222,34.137244],[134.382148,34.137128],[134.382078,34.137],[134.382051,34.136944],[134.382031,34.13689],[134.381999,34.136755],[134.38197,34.136584],[134.381925,34.136357],[134.381919,34.136333],[134.38189,34.136241],[134.381851,34.136161],[134.381826,34.136127],[134.381799,34.136096],[134.381382,34.135305],[134.38127,34.135177],[134.381154,34.135053],[134.380444,34.134535],[134.380325,34.13447],[134.380205,34.134444],[134.380182,34.134395],[134.380159,34.134347],[134.380103,34.134256],[134.380043,34.134173],[134.379983,34.134097],[134.379957,34.134056],[134.379935,34.134012],[134.37992,34.13396],[134.379909,34.133905],[134.379894,34.133786],[134.379871,34.13366],[134.379839,34.133533],[134.379805,34.133398],[134.379775,34.13325],[134.379758,34.133174],[134.379737,34.133096],[134.37971,34.13302],[134.379678,34.132943],[134.37964,34.13287],[134.37956,34.132729],[134.379521,34.132664],[134.379457,34.132542],[134.379397,34.132426],[134.379331,34.132305],[134.379253,34.132175],[134.379163,34.132038],[134.379162,34.132037],[134.378639,34.131189],[134.378358,34.130829],[134.377911,34.130173],[134.3779,34.130103],[134.377915,34.130017],[134.37835,34.128906],[134.378404,34.128751],[134.378499,34.128505],[134.378539,34.128357],[134.378585,34.127317],[134.378615,34.127206],[134.378642,34.127103],[134.378665,34.12701],[134.378689,34.126924],[134.378713,34.126838],[134.378739,34.126753],[134.378765,34.126666],[134.378792,34.126578],[134.378821,34.126493],[134.378849,34.126412],[134.378879,34.126331],[134.378907,34.126238],[134.378934,34.126138],[134.378955,34.126042],[134.378957,34.126025],[134.378966,34.125962],[134.378974,34.125893],[134.378982,34.12583],[134.378993,34.125767],[134.379007,34.125706],[134.379021,34.125644],[134.379038,34.125577],[134.379053,34.125499],[134.379067,34.125415],[134.379076,34.125335],[134.379075,34.125266],[134.379069,34.125203],[134.379059,34.125139],[134.379054,34.125068],[134.379055,34.125032],[134.379061,34.124998],[134.379072,34.124964],[134.379087,34.12493],[134.379127,34.12487],[134.379174,34.124821],[134.379224,34.12478],[134.379291,34.124716],[134.379335,34.124664],[134.379363,34.124619],[134.379406,34.124524],[134.379438,34.124461],[134.37947,34.124394],[134.379504,34.124317],[134.379511,34.1243],[134.37954,34.12424],[134.379572,34.124174],[134.379602,34.124118],[134.379637,34.124054],[134.379681,34.12397],[134.379728,34.123875],[134.379749,34.123828],[134.379783,34.123738],[134.379801,34.123696],[134.379823,34.123657],[134.379851,34.123621],[134.379887,34.123586],[134.379928,34.123555],[134.380022,34.123494],[134.380072,34.123465],[134.380163,34.123404],[134.38025,34.123342],[134.38033,34.123281],[134.380404,34.123221],[134.380466,34.12316],[134.380511,34.123092],[134.380554,34.12302],[134.380603,34.122941],[134.380658,34.122857],[134.380666,34.122843],[134.380708,34.122773],[134.38074,34.122691],[134.380752,34.122652],[134.380763,34.122584],[134.380762,34.122527],[134.380757,34.122478],[134.380752,34.122426],[134.380753,34.12237],[134.380767,34.122313],[134.380777,34.122285],[134.380809,34.122229],[134.380828,34.122203],[134.380871,34.122157],[134.380918,34.122117],[134.380961,34.122079],[134.380996,34.122038],[134.38101,34.122018],[134.381029,34.121978],[134.381033,34.12194],[134.381028,34.121908],[134.381019,34.121883],[134.381008,34.121863],[134.380994,34.121841],[134.380976,34.121811],[134.380963,34.121779],[134.380962,34.121752],[134.380973,34.121729],[134.380989,34.1217],[134.381003,34.121658],[134.381015,34.121615],[134.381029,34.121581],[134.381047,34.12156],[134.381074,34.12154],[134.381111,34.121511],[134.381154,34.121478],[134.381195,34.121442],[134.381231,34.121409],[134.381269,34.121375],[134.381308,34.121339],[134.381348,34.1213],[134.38138,34.121257],[134.381403,34.121223],[134.381432,34.121173],[134.381467,34.121119],[134.381495,34.12107],[134.381522,34.12102],[134.38154,34.120975],[134.381546,34.120961],[134.381569,34.120901],[134.381593,34.120851],[134.381621,34.120811],[134.381639,34.120793],[134.38169,34.120762],[134.381757,34.120732],[134.381794,34.120719],[134.381868,34.1207],[134.381938,34.120685],[134.382006,34.120673],[134.38207,34.120658],[134.382127,34.120644],[134.382175,34.120633],[134.382213,34.120621],[134.382229,34.120611],[134.382245,34.120597],[134.382276,34.120554],[134.38231,34.120499],[134.382351,34.120443],[134.382396,34.12039],[134.382407,34.120378],[134.38244,34.120343],[134.382477,34.120301],[134.382511,34.120261],[134.382545,34.120218],[134.382579,34.120165],[134.382596,34.120129],[134.382611,34.120089],[134.38264,34.119981],[134.382665,34.119846],[134.38269,34.119686],[134.382738,34.119321],[134.382734,34.119306],[134.383085,34.11937],[134.383316,34.119422],[134.383569,34.119507],[134.383619,34.119388],[134.383666,34.11926],[134.383704,34.119149],[134.383733,34.119058],[134.383757,34.118981],[134.383775,34.118912],[134.383792,34.11885],[134.383804,34.118792],[134.383817,34.118741],[134.383824,34.118722],[134.383835,34.118709],[134.383847,34.118702],[134.383862,34.118699],[134.383898,34.118704],[134.383938,34.118708],[134.383977,34.118704],[134.384014,34.11869],[134.384043,34.118664],[134.384067,34.118631],[134.384086,34.118598],[134.384103,34.118561],[134.384121,34.118519],[134.384178,34.118366],[134.384892,34.118304],[134.384971,34.118297],[134.385069,34.118034],[134.385069,34.118003],[134.384903,34.117971],[134.38512,34.117103],[134.385177,34.117111],[134.385254,34.117121],[134.385351,34.117141],[134.385409,34.117163],[134.385428,34.117135],[134.385447,34.117071],[134.38551,34.116862],[134.385546,34.116706],[134.385565,34.116598],[134.385583,34.116512],[134.385627,34.116434],[134.385634,34.116421],[134.385697,34.116319],[134.385748,34.116232],[134.385773,34.11613],[134.385803,34.115953],[134.385813,34.115679],[134.385824,34.115502],[134.385874,34.115238],[134.385909,34.114991],[134.385948,34.114422],[134.385991,34.113861],[134.386008,34.113779],[134.386033,34.113749],[134.386102,34.113731],[134.386298,34.113737],[134.386872,34.113781],[134.387403,34.113852],[134.387648,34.113907],[134.388214,34.114045],[134.388508,34.114133],[134.39012,34.114616],[134.390764,34.114791],[134.391741,34.115037],[134.391822,34.115057],[134.392083,34.115123],[134.393795,34.115562],[134.394048,34.115614],[134.394171,34.115625],[134.394176,34.115625],[134.39436,34.115619],[134.394807,34.115556],[134.394893,34.115558],[134.394991,34.11557],[134.395085,34.115608],[134.395174,34.115657],[134.396036,34.116912],[134.396073,34.116965],[134.396644,34.116768],[134.397832,34.116471],[134.399017,34.116196],[134.398985,34.116083],[134.398945,34.115958],[134.398893,34.115823],[134.399245,34.115745],[134.399419,34.115709],[134.399366,34.115312],[134.399349,34.115148],[134.399432,34.114974],[134.399475,34.114883],[134.399492,34.114847],[134.399605,34.114639],[134.399676,34.114508],[134.399746,34.114379],[134.399787,34.114301],[134.399799,34.114276],[134.399897,34.114087],[134.400016,34.113849],[134.400091,34.113686],[134.400108,34.113648],[134.400178,34.113478],[134.400199,34.113413],[134.400228,34.113314],[134.400107,34.113294],[134.400092,34.113289],[134.400093,34.113271],[134.400106,34.113228],[134.400123,34.113148],[134.400137,34.113078],[134.40016,34.112954],[134.400175,34.112802],[134.400194,34.112594],[134.40022,34.112334],[134.400224,34.11223],[134.400223,34.112147],[134.400219,34.112077],[134.400211,34.112013],[134.400191,34.111895],[134.400278,34.111797],[134.400312,34.111743],[134.400336,34.111686],[134.400372,34.11157],[134.400396,34.111521],[134.400455,34.111412],[134.40052,34.111268],[134.400558,34.111191],[134.400601,34.11112],[134.400692,34.11097],[134.400733,34.110884],[134.400825,34.110674],[134.40095,34.110417],[134.401068,34.110174],[134.401161,34.109972],[134.401241,34.1098],[134.401282,34.109727],[134.401321,34.109665],[134.401343,34.109637],[134.401418,34.109539],[134.401547,34.109377],[134.401654,34.109238],[134.401706,34.109166],[134.401731,34.109124],[134.40174,34.109091],[134.40175,34.108954],[134.401762,34.108804],[134.401773,34.108655],[134.40178,34.108516],[134.401779,34.108393],[134.40177,34.108274],[134.401756,34.108145],[134.40174,34.108034],[134.401736,34.107998],[134.401714,34.107834],[134.401692,34.107653],[134.401667,34.10746],[134.401639,34.107262],[134.401611,34.107098],[134.401604,34.107056],[134.401582,34.10694],[134.401479,34.106544],[134.401387,34.106169],[134.401321,34.106092],[134.40122,34.105971],[134.401044,34.10576],[134.40096,34.10566],[134.400603,34.105201],[134.400235,34.104927],[134.40002,34.104778],[134.399653,34.104619],[134.399092,34.104372],[134.398891,34.104664],[134.398629,34.104554],[134.398554,34.104633],[134.397988,34.104391],[134.39799,34.104288],[134.397226,34.103792],[134.396975,34.103701],[134.39692,34.104636],[134.396278,34.104615],[134.395569,34.104527],[134.394136,34.104226],[134.39417,34.103539],[134.394198,34.102639],[134.394484,34.101418],[134.394636,34.100633],[134.394517,34.099579],[134.394506,34.099429],[134.394479,34.099065],[134.394458,34.098491],[134.394363,34.097814],[134.394521,34.09721],[134.394776,34.096318],[134.395789,34.092767],[134.396767,34.089338],[134.396367,34.089091],[134.396488,34.088883],[134.396779,34.087545],[134.397264,34.087203],[134.39951,34.088294],[134.400739,34.088864],[134.401253,34.089102],[134.401846,34.089366],[134.403597,34.090163],[134.405176,34.090882],[134.405593,34.091112],[134.406686,34.09175],[134.407586,34.092294],[134.408375,34.092843],[134.408389,34.092853],[134.408998,34.093292],[134.409401,34.093593],[134.409838,34.093877],[134.410544,34.094356],[134.410671,34.094453],[134.410982,34.094689],[134.411289,34.094859],[134.41195,34.09524],[134.413052,34.095856],[134.415276,34.097152],[134.415813,34.097463],[134.418667,34.099112],[134.418699,34.099131],[134.419262,34.099444],[134.422825,34.101502],[134.423079,34.101648],[134.423448,34.101858],[134.423885,34.102117],[134.424192,34.102263],[134.42422,34.10227],[134.42443,34.102327],[134.424727,34.102431],[134.424915,34.102495],[134.425203,34.1026],[134.425559,34.102696],[134.425861,34.102816],[134.426287,34.102944],[134.426584,34.103049],[134.427089,34.103176],[134.427664,34.103394],[134.428287,34.103622],[134.428367,34.103651],[134.428961,34.103835],[134.429513,34.104026],[134.429813,34.104091],[134.430119,34.10413],[134.430356,34.104169],[134.430722,34.104191],[134.431018,34.104222],[134.431334,34.104244],[134.431561,34.104259],[134.432005,34.104272],[134.433336,34.104362],[134.434445,34.10441],[134.435433,34.104483],[134.436791,34.104595],[134.437362,34.104649],[134.43753,34.104665],[134.437757,34.104686],[134.438666,34.104766],[134.439616,34.104855],[134.440532,34.104918],[134.441032,34.104967],[134.441315,34.104994],[134.44189,34.105059],[134.442382,34.105125],[134.443999,34.105389],[134.445394,34.105643],[134.445832,34.105723],[134.446238,34.105801],[134.447122,34.105971],[134.447927,34.106133],[134.448784,34.105379],[134.449525,34.104681],[134.449835,34.104389],[134.450145,34.104717],[134.45036,34.104932],[134.450512,34.105094],[134.450665,34.105218],[134.450832,34.10533],[134.451029,34.105441],[134.451284,34.105569],[134.4518,34.105917],[134.45209,34.106142],[134.452425,34.106359],[134.452907,34.106741],[134.45325,34.107061],[134.45385,34.1076],[134.454289,34.108001],[134.454586,34.108325],[134.454831,34.108568],[134.455136,34.108873],[134.45535,34.109135],[134.455473,34.109322],[134.455607,34.109516],[134.455669,34.109647],[134.455762,34.109816],[134.455901,34.110072],[134.456039,34.110315],[134.456162,34.110484],[134.456537,34.111259],[134.456668,34.111534],[134.456753,34.111684],[134.45688,34.111876],[134.457117,34.112023],[134.457365,34.112125],[134.457591,34.112222],[134.458105,34.112427],[134.458067,34.11323],[134.457786,34.11657],[134.457727,34.116561],[134.457454,34.116518],[134.457139,34.116471],[134.457089,34.116463],[134.456716,34.116407],[134.455987,34.116297],[134.455643,34.116237],[134.455591,34.116228],[134.454791,34.11609],[134.452852,34.115755],[134.450845,34.115494],[134.448319,34.115045],[134.448038,34.115004],[134.447973,34.114994],[134.447802,34.114967],[134.447543,34.11493],[134.447121,34.114866],[134.446509,34.114765],[134.445232,34.114638],[134.445103,34.114623],[134.444999,34.114611],[134.444612,34.114578],[134.444112,34.114537],[134.443842,34.114506],[134.443286,34.114413],[134.442679,34.114337],[134.442039,34.11427],[134.441646,34.114219],[134.441514,34.114204],[134.441356,34.114182],[134.441347,34.114237],[134.441336,34.114313],[134.44132,34.114419],[134.441304,34.114528],[134.441288,34.114628],[134.44128,34.114685],[134.441269,34.11476],[134.44126,34.114817],[134.441247,34.114903],[134.441232,34.115004],[134.44122,34.115083],[134.441206,34.115175],[134.441197,34.115234],[134.441195,34.115253],[134.441188,34.115317],[134.441175,34.115446],[134.441162,34.115567],[134.441156,34.115627],[134.441254,34.115635],[134.441395,34.115647],[134.441424,34.11565],[134.441391,34.116271],[134.441359,34.116806],[134.441315,34.117222],[134.44122,34.118013],[134.441189,34.118341],[134.441287,34.118356],[134.441255,34.118712],[134.441195,34.11871],[134.441144,34.119243],[134.441135,34.11933],[134.441045,34.119896],[134.441005,34.119899],[134.44093,34.119826],[134.440634,34.119681],[134.440527,34.119654],[134.440438,34.119651],[134.440297,34.119672],[134.440225,34.119682],[134.440127,34.119687],[134.44007,34.119707],[134.44001,34.119753],[134.439979,34.119802],[134.439935,34.119837],[134.439864,34.119857],[134.43977,34.11986],[134.439532,34.119841],[134.439284,34.11981],[134.43907,34.119811],[134.438855,34.119804],[134.438798,34.119824],[134.438751,34.119857],[134.438602,34.119978],[134.438534,34.120009],[134.438368,34.120057],[134.437965,34.120128],[134.437792,34.120177],[134.437499,34.1203],[134.437377,34.120339],[134.437204,34.120377],[134.437089,34.120391],[134.436955,34.120403],[134.436919,34.120419],[134.436893,34.120445],[134.43688,34.120506],[134.436897,34.120635],[134.436908,34.120683],[134.436943,34.120757],[134.436978,34.12088],[134.437004,34.121093],[134.437007,34.12124],[134.43699,34.121374],[134.436912,34.121611],[134.436912,34.121761],[134.43695,34.1218],[134.437089,34.121879],[134.43714,34.121919],[134.437161,34.121975],[134.437155,34.122055],[134.437121,34.122182],[134.437044,34.122253],[134.436854,34.122352],[134.436744,34.122376],[134.436574,34.122389],[134.436489,34.122378],[134.43638,34.122651],[134.436349,34.122705],[134.436247,34.122826],[134.436231,34.122903],[134.43624,34.122963],[134.436327,34.123142],[134.436345,34.123249],[134.436352,34.123487],[134.436184,34.123483],[134.435678,34.12346],[134.435662,34.123458],[134.435047,34.123403],[134.434881,34.123402],[134.434461,34.123434],[134.434138,34.123449],[134.433712,34.123499],[134.433536,34.123536],[134.433475,34.123552],[134.433416,34.123568],[134.433445,34.123769],[134.433441,34.124039],[134.433486,34.124252],[134.433332,34.124306],[134.432912,34.124443],[134.432762,34.124496],[134.432873,34.125297],[134.432912,34.125505],[134.432523,34.125526],[134.432374,34.125574],[134.432004,34.12572],[134.431755,34.12581],[134.431329,34.125974],[134.431066,34.126103],[134.430429,34.126492],[134.430223,34.126637],[134.429761,34.126995],[134.429631,34.127085],[134.429624,34.127091],[134.42955,34.12738],[134.429518,34.127498],[134.429451,34.127694],[134.429416,34.127771],[134.429373,34.127874],[134.429349,34.128164],[134.42931,34.128349],[134.429149,34.128674],[134.429112,34.128802],[134.429058,34.128928],[134.428998,34.129067],[134.428923,34.129245],[134.428777,34.129534],[134.428645,34.129775],[134.428514,34.130021],[134.42851,34.130046],[134.428456,34.130353],[134.428397,34.130807],[134.428421,34.130858],[134.428439,34.130895],[134.428424,34.131213],[134.428458,34.131682],[134.428442,34.132474],[134.428448,34.132938],[134.428447,34.133021],[134.428446,34.133054],[134.428446,34.133093],[134.42832,34.133115],[134.428245,34.133121],[134.428188,34.133232],[134.42799,34.13362],[134.427903,34.134134],[134.427883,34.13425],[134.427789,34.134827],[134.427803,34.135297],[134.42781,34.135535],[134.427814,34.135974],[134.427711,34.136207],[134.427443,34.13666],[134.4273,34.136615],[134.427004,34.136566],[134.426746,34.136558],[134.426564,34.136576],[134.426426,34.136613],[134.426331,34.136663],[134.426165,34.136778],[134.426063,34.136884],[134.42598,34.137049],[134.425954,34.13719],[134.425988,34.137295],[134.426114,34.137426],[134.426202,34.137545],[134.426247,34.137712],[134.426262,34.137837],[134.426251,34.137869],[134.426214,34.137975],[134.426143,34.138077],[134.425922,34.138275],[134.425757,34.138406],[134.425699,34.13847],[134.425696,34.138552],[134.425814,34.138843],[134.426089,34.139414],[134.426674,34.140424],[134.426771,34.140569],[134.426853,34.140768],[134.427021,34.14102],[134.42711,34.141179],[134.427111,34.141269],[134.427084,34.141514],[134.426966,34.141701],[134.426935,34.141801],[134.426957,34.141935],[134.426968,34.142015],[134.427004,34.142215],[134.427033,34.14238],[134.427256,34.142863],[134.427369,34.142971],[134.427488,34.143097],[134.427479,34.143278],[134.427341,34.143448],[134.427307,34.143491],[134.427037,34.143798],[134.426615,34.144216],[134.426227,34.144542],[134.425624,34.144995],[134.425358,34.145152],[134.425141,34.14519],[134.424839,34.145194],[134.424439,34.145197],[134.424177,34.145193],[134.423522,34.145431],[134.423237,34.1458],[134.423221,34.145809],[134.422982,34.145948],[134.422623,34.146118],[134.422047,34.146222],[134.421729,34.146335],[134.421528,34.14641],[134.42139,34.146465],[134.421246,34.146512],[134.420908,34.146551],[134.420807,34.14658],[134.4206,34.146674],[134.420434,34.14675],[134.420163,34.146933],[134.419973,34.147186],[134.419842,34.147476],[134.419825,34.147813],[134.419771,34.147934],[134.419608,34.148089],[134.419438,34.148308],[134.419303,34.148497],[134.418913,34.148723],[134.418585,34.149018],[134.418511,34.149159],[134.418458,34.149223],[134.418052,34.149517],[134.41799,34.1499],[134.41819,34.150575],[134.418292,34.150823],[134.418337,34.151089],[134.418356,34.151278],[134.418303,34.151486],[134.41817,34.151648],[134.417936,34.151902],[134.417669,34.152213],[134.417428,34.152502],[134.417192,34.152977],[134.417127,34.153195],[134.416911,34.153484],[134.416802,34.15359],[134.416089,34.154037],[134.415964,34.154164],[134.415812,34.154555],[134.415705,34.154808],[134.415489,34.155083],[134.415021,34.155395],[134.414864,34.155518],[134.414274,34.155948],[134.414026,34.156182],[134.413673,34.156513],[134.413539,34.156611],[134.412893,34.156951],[134.412871,34.15701],[134.412846,34.157058],[134.412824,34.157116],[134.412808,34.157183],[134.412798,34.157257],[134.412797,34.157339],[134.412802,34.15743],[134.412823,34.157625],[134.412829,34.157717],[134.412827,34.157795],[134.412816,34.157864],[134.412799,34.157925],[134.412775,34.157982],[134.41272,34.158091],[134.412622,34.158273],[134.412498,34.158495],[134.412459,34.158559],[134.41239,34.158672],[134.412358,34.158729],[134.412323,34.158793],[134.41229,34.15885],[134.412258,34.158898],[134.412211,34.158948],[134.412143,34.158994],[134.412131,34.159001],[134.412096,34.15902],[134.411912,34.159113],[134.411822,34.159161],[134.411776,34.15919],[134.411722,34.159233],[134.411689,34.159272],[134.411678,34.15929],[134.411668,34.159315],[134.411663,34.159334],[134.411656,34.159394],[134.41166,34.159459],[134.411665,34.159495],[134.411689,34.159566],[134.411701,34.159594],[134.411739,34.159649],[134.41178,34.159692],[134.411794,34.159703],[134.411834,34.159724],[134.411875,34.159738],[134.41192,34.159752],[134.411971,34.159773],[134.412011,34.159793],[134.412038,34.159811],[134.412069,34.159848],[134.41209,34.159897],[134.412099,34.15995],[134.412102,34.16002],[134.4121,34.160096],[134.412103,34.160173],[134.412106,34.160209],[134.412116,34.160283],[134.412125,34.16035],[134.412123,34.160415],[134.412109,34.160483],[134.412093,34.160525],[134.412061,34.160588],[134.411989,34.160706],[134.411945,34.160768],[134.411862,34.160874],[134.411788,34.160959],[134.411692,34.161054],[134.411595,34.161146],[134.411499,34.161238],[134.411409,34.16133],[134.411313,34.161421],[134.411226,34.161493],[134.41112,34.161572],[134.411032,34.161633],[134.410998,34.161656],[134.410945,34.161685],[134.410902,34.161705],[134.410835,34.161731],[134.410768,34.161749],[134.410655,34.161773],[134.410521,34.161798],[134.410431,34.161817],[134.410357,34.161838],[134.410295,34.161864],[134.410226,34.161897],[134.410166,34.161929],[134.410126,34.161952],[134.410098,34.161975],[134.410078,34.162004],[134.410052,34.162048],[134.410011,34.162097],[134.409943,34.162143],[134.409866,34.162179],[134.409823,34.162195],[134.409739,34.162213],[134.409664,34.162223],[134.409578,34.162227],[134.409502,34.16223],[134.409438,34.16223],[134.409395,34.16223],[134.409359,34.162237],[134.409302,34.162257],[134.409218,34.162293],[134.409129,34.162333],[134.409042,34.162372],[134.408966,34.162408],[134.408897,34.162439],[134.408825,34.162464],[134.408755,34.16248],[134.408678,34.162492],[134.408572,34.1625],[134.408432,34.162506],[134.40798,34.162538],[134.407821,34.162551],[134.407692,34.162562],[134.407577,34.16257],[134.407471,34.162576],[134.407379,34.162586],[134.407303,34.1626],[134.407244,34.162621],[134.407197,34.162643],[134.407175,34.162659],[134.40714,34.162691],[134.407113,34.162736],[134.407093,34.162793],[134.407073,34.162863],[134.407047,34.16294],[134.407021,34.163015],[134.407004,34.163076],[134.406989,34.163127],[134.406976,34.163149],[134.406959,34.16317],[134.40693,34.163193],[134.406868,34.163221],[134.406765,34.163268],[134.406695,34.163304],[134.406561,34.163387],[134.406471,34.163452],[134.406387,34.163515],[134.406357,34.163545],[134.406332,34.163577],[134.406316,34.163606],[134.406301,34.163642],[134.406266,34.163723],[134.406221,34.163826],[134.406172,34.163946],[134.406129,34.16406],[134.406105,34.164114],[134.406031,34.164225],[134.405955,34.164345],[134.405922,34.164409],[134.405891,34.164479],[134.405831,34.164623],[134.405781,34.164752],[134.405749,34.164848],[134.405738,34.164902],[134.405723,34.164925],[134.405699,34.164941],[134.405665,34.164958],[134.40559,34.164992],[134.405501,34.165037],[134.405388,34.16509],[134.405274,34.165145],[134.405168,34.165198],[134.404911,34.165328],[134.404809,34.16542],[134.404728,34.165483],[134.404669,34.165585],[134.403956,34.167206],[134.403721,34.167221],[134.403559,34.167258],[134.40345,34.167297],[134.403341,34.167353],[134.403085,34.167514],[134.403014,34.167553],[134.402813,34.167607],[134.402722,34.167661],[134.402389,34.168],[134.401264,34.167745],[134.400302,34.167712],[134.400255,34.167704],[134.400041,34.167325],[134.399893,34.167119],[134.399833,34.167057],[134.399728,34.166998],[134.399458,34.166906],[134.399369,34.16687],[134.399019,34.16663],[134.398689,34.16642],[134.398254,34.16627],[134.398235,34.166236],[134.398244,34.166186],[134.398368,34.165944],[134.398374,34.16589],[134.398358,34.165843],[134.398231,34.16569],[134.398003,34.165496],[134.397839,34.165372],[134.397656,34.165293],[134.397459,34.165212],[134.39739,34.165176],[134.397361,34.165137],[134.397345,34.165096],[134.397306,34.164955],[134.397271,34.164896],[134.397217,34.164841],[134.397106,34.164772],[134.396494,34.16449],[134.395258,34.163951],[134.394947,34.163759],[134.394592,34.163625],[134.393903,34.163544],[134.39361,34.163507],[134.393293,34.163404],[134.392825,34.16359],[134.392693,34.163643]]]},"properties":{"code":"36405","name":"上板町"}}]}