{"type":"FeatureCollection","features":[{"type":"Feature","geometry":{"type":"Polygon","coordinates":[[[134.051212,34.044144],[134.050863,34.044084],[134.050702,34.044055],[134.049336,34.043821],[134.047808,34.043648],[134.046646,34.043452],[134.04519,34.043246],[134.04422,34.043125],[134.043033,34.043035],[134.04227,34.04299],[134.041916,34.04302],[134.041639,34.043101],[134.041161,34.043084],[134.04097,34.043153],[134.040235,34.043247],[134.039434,34.043332],[134.039129,34.043373],[134.03859,34.043408],[134.038508,34.043416],[134.038414,34.043425],[134.036425,34.043613],[134.035906,34.043677],[134.035739,34.043698],[134.035215,34.043763],[134.0351,34.043777],[134.034135,34.04388],[134.032692,34.044033],[134.03129,34.044335],[134.030425,34.044421],[134.029315,34.044536],[134.029236,34.044537],[134.028266,34.044624],[134.027219,34.044621],[134.026162,34.044618],[134.025562,34.044639],[134.025107,34.044574],[134.024831,34.044535],[134.024352,34.04461],[134.023931,34.044636],[134.023635,34.044598],[134.023157,34.044492],[134.02268,34.044404],[134.022217,34.044287],[134.02166,34.044148],[134.021334,34.043996],[134.020703,34.043666],[134.020539,34.043468],[134.020134,34.042983],[134.019582,34.042351],[134.019577,34.042345],[134.019128,34.041833],[134.018507,34.041295],[134.017875,34.040884],[134.017687,34.040744],[134.0172,34.040382],[134.016978,34.040222],[134.016481,34.039862],[134.016205,34.039677],[134.015852,34.039411],[134.015627,34.039272],[134.015403,34.039133],[134.014813,34.038865],[134.014147,34.038588],[134.013786,34.038436],[134.013491,34.038338],[134.012148,34.037966],[134.011194,34.037849],[134.010988,34.037824],[134.010872,34.03781],[134.008952,34.037594],[134.007317,34.037576],[134.007152,34.037585],[134.00602,34.037647],[134.004286,34.037647],[134.003305,34.03767],[134.003033,34.037735],[134.002652,34.037737],[134.001223,34.0376],[134.000982,34.037557],[134.000241,34.037425],[133.999951,34.037348],[133.999831,34.037315],[134.000117,34.03698],[134.000243,34.036772],[134.00029,34.036601],[134.000214,34.036109],[133.999507,34.035933],[133.999144,34.035796],[133.999061,34.035735],[133.999124,34.035641],[133.999411,34.035408],[133.999906,34.034898],[134.000397,34.034351],[134.000704,34.033882],[134.001094,34.033136],[134.001139,34.033011],[134.001281,34.032622],[134.001379,34.032175],[134.001479,34.031739],[134.001585,34.031539],[134.001721,34.031396],[134.002016,34.03124],[134.002377,34.03108],[134.002445,34.031003],[134.002483,34.030929],[134.002502,34.030758],[134.002592,34.030571],[134.002603,34.030547],[134.002778,34.030269],[134.002833,34.030086],[134.002851,34.029895],[134.002811,34.029712],[134.002785,34.029525],[134.002824,34.029358],[134.002949,34.02917],[134.003012,34.029028],[134.003042,34.028735],[134.003088,34.02823],[134.003121,34.027986],[134.003198,34.027815],[134.003331,34.027635],[134.00355,34.027382],[134.003671,34.027178],[134.003825,34.026799],[134.003887,34.026579],[134.003932,34.026266],[134.003887,34.026059],[134.003812,34.025913],[134.00368,34.025771],[134.003461,34.025621],[134.003304,34.025459],[134.003225,34.025333],[134.003217,34.025187],[134.003258,34.024703],[134.003193,34.024569],[134.003095,34.02448],[134.002933,34.024362],[134.002766,34.0242],[134.002677,34.023993],[134.002636,34.023717],[134.002291,34.022146],[134.002256,34.022],[134.002196,34.021788],[134.002195,34.021697],[134.002236,34.021624],[134.002296,34.021559],[134.002379,34.021415],[134.002388,34.021287],[134.002398,34.020996],[134.002424,34.020651],[134.002399,34.020469],[134.002329,34.020349],[134.00223,34.020183],[134.002197,34.020063],[134.002151,34.019885],[134.002085,34.01978],[134.002033,34.019621],[134.002023,34.019439],[134.00205,34.019296],[134.002075,34.018885],[134.002019,34.018462],[134.001872,34.018005],[134.001789,34.017626],[134.001689,34.017378],[134.001659,34.01734],[134.001548,34.0172],[134.001361,34.017081],[134.00109,34.016869],[134.000888,34.016649],[134.000681,34.016304],[134.000638,34.016095],[134.000757,34.015695],[134.000758,34.015291],[134.00061,34.014675],[134.00071,34.014228],[134.000812,34.014039],[134.001056,34.013541],[134.001074,34.013026],[134.000652,34.011313],[134.000465,34.011108],[133.999363,34.011096],[133.998415,34.011099],[133.998665,34.009254],[133.998909,34.007445],[133.998864,34.006776],[133.998677,34.006503],[133.998263,34.006264],[133.997973,34.00594],[133.997929,34.00546],[133.998221,34.004361],[133.998463,34.004056],[133.99863,34.003845],[133.998814,34.003553],[133.999018,34.00326],[133.999347,34.003122],[134.000661,34.002362],[134.001625,34.001706],[134.002074,34.00095],[134.002,34.000642],[134.001875,34.000385],[134.00174,34.000214],[134.001646,34.000009],[134.001557,33.998997],[134.001582,33.998817],[134.001734,33.998431],[134.001465,33.998166],[134.001175,33.997824],[134.0011,33.997464],[134.001222,33.997112],[134.001415,33.996709],[134.001663,33.995936],[134.001688,33.995001],[134.001736,33.994451],[134.001765,33.994109],[134.001762,33.993466],[134.001628,33.992549],[134.001747,33.991803],[134.00188,33.990851],[134.001703,33.990534],[134.000992,33.990547],[134.000704,33.990523],[134.000584,33.990512],[134.00051,33.990506],[134.000505,33.990506],[134.000436,33.990423],[134.000442,33.990214],[134.0007,33.98984],[134.000805,33.989689],[134.001055,33.989106],[134.00083,33.988789],[134.000694,33.988738],[133.999267,33.988206],[133.998817,33.987889],[133.99863,33.987414],[133.998442,33.986698],[133.997993,33.985614],[133.997968,33.983498],[133.997893,33.983065],[133.997393,33.982798],[133.997343,33.982848],[133.996693,33.982631],[133.996143,33.982381],[133.99598,33.982115],[133.995891,33.981871],[133.995618,33.981123],[133.995568,33.979115],[133.99548,33.978715],[133.994931,33.97799],[133.994543,33.977407],[133.994406,33.97714],[133.994106,33.976757],[133.993143,33.976707],[133.992981,33.97664],[133.992481,33.976257],[133.991906,33.975874],[133.991631,33.97574],[133.990881,33.975132],[133.990852,33.975117],[133.989956,33.974641],[133.989231,33.973849],[133.988794,33.973716],[133.988194,33.973699],[133.987669,33.973541],[133.985194,33.973499],[133.984919,33.973449],[133.984419,33.973291],[133.984256,33.973132],[133.984032,33.972616],[133.983732,33.972232],[133.983019,33.971874],[133.982494,33.971158],[133.982057,33.970683],[133.981532,33.96875],[133.981057,33.968433],[133.979957,33.967891],[133.978995,33.96735],[133.978961,33.967291],[133.97872,33.966875],[133.978258,33.966341],[133.97792,33.965775],[133.977708,33.965033],[133.977458,33.96465],[133.976908,33.964017],[133.975996,33.962717],[133.974784,33.961292],[133.974484,33.960825],[133.974371,33.960709],[133.973846,33.960458],[133.972584,33.960242],[133.972259,33.960242],[133.972309,33.960125],[133.972422,33.959425],[133.972584,33.958934],[133.972884,33.958659],[133.972947,33.958117],[133.97297,33.957999],[133.973072,33.957492],[133.973022,33.9569],[133.973047,33.955976],[133.973097,33.955509],[133.972959,33.953817],[133.972659,33.952959],[133.972747,33.952576],[133.973122,33.952401],[133.974384,33.952084],[133.975184,33.951676],[133.975597,33.951334],[133.976122,33.950343],[133.976609,33.94971],[133.976972,33.949101],[133.977084,33.948701],[133.977459,33.948002],[133.977459,33.947368],[133.977322,33.946402],[133.977197,33.945954],[133.977042,33.946031],[133.976919,33.946023],[133.976754,33.945947],[133.975508,33.94525],[133.974757,33.944971],[133.973687,33.944453],[133.97348,33.944292],[133.973305,33.944138],[133.973026,33.943798],[133.972341,33.943309],[133.972021,33.943147],[133.971507,33.942944],[133.96953,33.941772],[133.968921,33.941176],[133.968415,33.940664],[133.96763,33.939812],[133.967486,33.939702],[133.967321,33.939608],[133.967126,33.939532],[133.966982,33.939507],[133.966735,33.939508],[133.966622,33.93944],[133.966343,33.939082],[133.966255,33.938907],[133.966212,33.938522],[133.966323,33.938137],[133.966464,33.937726],[133.966662,33.937379],[133.966753,33.937148],[133.966813,33.936737],[133.966914,33.936412],[133.967268,33.935589],[133.967971,33.934509],[133.969195,33.933077],[133.969357,33.9327],[133.969471,33.932088],[133.969573,33.931406],[133.969641,33.931275],[133.969769,33.931185],[133.970301,33.930849],[133.9707,33.930574],[133.970976,33.930299],[133.971199,33.929965],[133.971437,33.929344],[133.971559,33.929173],[133.971682,33.929112],[133.97323,33.928756],[133.973671,33.928609],[133.973926,33.928437],[133.974054,33.928252],[133.974155,33.928055],[133.974193,33.927405],[133.974274,33.927234],[133.974671,33.926677],[133.974742,33.926497],[133.974801,33.926258],[133.974812,33.926214],[133.974879,33.925308],[133.974919,33.925111],[133.975123,33.924956],[133.97606,33.924615],[133.976563,33.92457],[133.977333,33.924567],[133.977861,33.924586],[133.978528,33.924558],[133.979507,33.924405],[133.979907,33.9243],[133.980798,33.923912],[133.98187,33.923653],[133.982441,33.923607],[133.983263,33.923662],[133.984103,33.923746],[133.984611,33.923817],[133.985278,33.923793],[133.986613,33.923748],[133.987645,33.923671],[133.987939,33.923619],[133.9895,33.92339],[133.989751,33.923355],[133.990054,33.923392],[133.990211,33.923392],[133.990503,33.923376],[133.991452,33.923207],[133.991729,33.923189],[133.992143,33.923212],[133.992353,33.923254],[133.992593,33.923312],[133.992698,33.923316],[133.992826,33.923316],[133.992942,33.923276],[133.993053,33.923218],[133.993686,33.922792],[133.993901,33.92266],[133.994123,33.922571],[133.994521,33.922515],[133.995131,33.922295],[133.995499,33.922139],[133.995678,33.92198],[133.99583,33.921569],[133.995983,33.921423],[133.997022,33.921022],[133.997421,33.92084],[133.997912,33.920607],[133.998312,33.920495],[133.999081,33.920415],[133.999419,33.920362],[134.000449,33.920029],[134.001259,33.919846],[134.002183,33.91956],[134.00236,33.919497],[134.002617,33.919441],[134.002729,33.919402],[134.002829,33.919256],[134.002877,33.919042],[134.003117,33.918448],[134.003246,33.918136],[134.003431,33.917769],[134.003504,33.917433],[134.003485,33.917088],[134.003333,33.916621],[134.003184,33.916311],[134.003009,33.916043],[134.002578,33.915564],[134.002291,33.915261],[134.001871,33.914955],[134.001765,33.914836],[134.001521,33.914579],[134.001428,33.914445],[134.001396,33.914326],[134.001717,33.913527],[134.001778,33.91332],[134.001801,33.913139],[134.001803,33.91294],[134.00177,33.912532],[134.00166,33.911876],[134.00156,33.911587],[134.001362,33.911223],[134.00133,33.911079],[134.001315,33.910919],[134.001393,33.910258],[134.001549,33.909782],[134.001599,33.908767],[134.001553,33.908015],[134.00158,33.907828],[134.001682,33.907671],[134.002602,33.90649],[134.002751,33.906403],[134.003003,33.90634],[134.0032,33.906347],[134.00351,33.906509],[134.00377,33.906596],[134.004275,33.906625],[134.004668,33.906608],[134.005042,33.906419],[134.005546,33.906183],[134.005789,33.906151],[134.006219,33.906149],[134.006585,33.906296],[134.007045,33.906489],[134.007298,33.906512],[134.007578,33.90637],[134.008724,33.905624],[134.009145,33.905506],[134.009781,33.905472],[134.010174,33.905439],[134.010472,33.905235],[134.010677,33.904953],[134.011066,33.904359],[134.011345,33.904108],[134.011952,33.903801],[134.012361,33.903425],[134.012584,33.903097],[134.012798,33.902885],[134.013789,33.90271],[134.014144,33.902521],[134.014609,33.902082],[134.015223,33.901425],[134.015691,33.900756],[134.015831,33.900708],[134.01599,33.900723],[134.016745,33.900958],[134.017513,33.900986],[134.018355,33.900904],[134.0191,33.900402],[134.020294,33.899648],[134.020592,33.899538],[134.022412,33.899236],[134.023366,33.899201],[134.02375,33.899223],[134.024162,33.899282],[134.024527,33.899257],[134.024782,33.899165],[134.025074,33.898989],[134.026902,33.89836],[134.027125,33.898355],[134.027913,33.898679],[134.028527,33.899019],[134.028867,33.899223],[134.029316,33.899518],[134.029537,33.899708],[134.029864,33.900114],[134.030342,33.900652],[134.030604,33.900884],[134.030783,33.900955],[134.031015,33.900927],[134.031362,33.900835],[134.031818,33.900673],[134.032493,33.900586],[134.033133,33.900575],[134.033673,33.900695],[134.033965,33.900694],[134.034284,33.900608],[134.034986,33.900316],[134.035187,33.900247],[134.036499,33.899738],[134.037425,33.899388],[134.037862,33.899142],[134.038198,33.898912],[134.038599,33.898689],[134.039408,33.898092],[134.040118,33.897594],[134.040484,33.897421],[134.040586,33.897394],[134.04087,33.897419],[134.041374,33.89747],[134.041513,33.89749],[134.041687,33.897551],[134.04187,33.897664],[134.041999,33.897743],[134.042118,33.897788],[134.042282,33.897822],[134.042471,33.897819],[134.042699,33.897759],[134.042966,33.89764],[134.044035,33.897261],[134.044246,33.897258],[134.044406,33.897296],[134.044537,33.897327],[134.044761,33.897279],[134.045256,33.897098],[134.045461,33.896964],[134.045647,33.896807],[134.045777,33.896627],[134.045804,33.896393],[134.045854,33.896291],[134.046058,33.896084],[134.046517,33.895595],[134.046662,33.895461],[134.047054,33.895269],[134.047285,33.895239],[134.047253,33.895141],[134.047177,33.89497],[134.047155,33.894857],[134.047051,33.894667],[134.046639,33.894315],[134.046184,33.893959],[134.046089,33.893828],[134.046063,33.893507],[134.045991,33.893271],[134.045836,33.893078],[134.0457,33.892816],[134.045287,33.892273],[134.044891,33.891809],[134.044596,33.891377],[134.04406,33.8907],[134.043901,33.890392],[134.04379,33.890274],[134.043664,33.890202],[134.043502,33.890108],[134.043454,33.889997],[134.043398,33.889846],[134.043073,33.889513],[134.043009,33.889408],[134.042975,33.889027],[134.042689,33.888687],[134.042503,33.888567],[134.042251,33.888535],[134.042205,33.888483],[134.041775,33.888005],[134.041244,33.887463],[134.041251,33.887338],[134.041556,33.886956],[134.041633,33.886647],[134.042128,33.885913],[134.042221,33.885545],[134.042943,33.884547],[134.043027,33.884205],[134.04308,33.883759],[134.043204,33.883548],[134.043243,33.883397],[134.043205,33.883052],[134.043105,33.882252],[134.04314,33.882071],[134.043287,33.88167],[134.043396,33.881538],[134.043905,33.880998],[134.044135,33.880698],[134.044347,33.880546],[134.044417,33.880434],[134.044518,33.880158],[134.044619,33.88002],[134.044736,33.879809],[134.044892,33.879658],[134.045002,33.879493],[134.045192,33.879082],[134.04545,33.878818],[134.045708,33.878489],[134.045958,33.878284],[134.046138,33.878086],[134.046329,33.87778],[134.046415,33.877701],[134.046627,33.877608],[134.046901,33.877364],[134.047073,33.87714],[134.047292,33.87687],[134.047737,33.876317],[134.047944,33.876043],[134.048021,33.875774],[134.048074,33.875419],[134.048048,33.875045],[134.047959,33.874724],[134.047931,33.874596],[134.048124,33.873978],[134.048154,33.873807],[134.048001,33.873151],[134.047927,33.872712],[134.047878,33.872377],[134.047908,33.872167],[134.047946,33.871937],[134.048015,33.871746],[134.048147,33.87147],[134.048239,33.871082],[134.048261,33.870695],[134.050109,33.871047],[134.051849,33.871648],[134.052085,33.871732],[134.052809,33.872029],[134.053008,33.872062],[134.053157,33.872075],[134.053353,33.872042],[134.053743,33.871893],[134.053914,33.87186],[134.054833,33.871822],[134.055083,33.871783],[134.055363,33.871666],[134.055569,33.871621],[134.056034,33.871602],[134.056294,33.871571],[134.05645,33.871517],[134.056653,33.871409],[134.056989,33.871229],[134.057101,33.871139],[134.057298,33.870874],[134.05739,33.870793],[134.057598,33.870694],[134.058062,33.870547],[134.058697,33.870453],[134.059248,33.870352],[134.059797,33.870309],[134.059991,33.87036],[134.060278,33.870426],[134.060462,33.870451],[134.060645,33.870437],[134.060839,33.870377],[134.061613,33.870012],[134.062018,33.869833],[134.062257,33.869781],[134.062553,33.869741],[134.062732,33.86977],[134.06285,33.869833],[134.063796,33.870436],[134.063889,33.870508],[134.064103,33.870888],[134.064325,33.871168],[134.064905,33.871651],[134.065054,33.871799],[134.065198,33.871896],[134.065387,33.871968],[134.065597,33.871992],[134.065987,33.871946],[134.066235,33.871938],[134.06648,33.871976],[134.066694,33.871979],[134.06697,33.871944],[134.067576,33.871758],[134.067933,33.87165],[134.068283,33.871595],[134.068441,33.871598],[134.068579,33.871661],[134.068723,33.871793],[134.068857,33.871882],[134.069028,33.871947],[134.069218,33.872023],[134.069371,33.872081],[134.06953,33.872136],[134.069821,33.87216],[134.06999,33.872189],[134.070123,33.872261],[134.070256,33.872329],[134.070348,33.872354],[134.070532,33.872357],[134.070777,33.87233],[134.071109,33.872265],[134.071374,33.872204],[134.071568,33.872191],[134.071706,33.872173],[134.071795,33.872123],[134.071942,33.872021],[134.07212,33.871943],[134.073387,33.871654],[134.073755,33.871601],[134.075046,33.871412],[134.076178,33.871279],[134.076576,33.87115],[134.076729,33.871089],[134.076856,33.871084],[134.077,33.871118],[134.077501,33.87132],[134.077747,33.871404],[134.077972,33.871437],[134.078381,33.871443],[134.078728,33.871433],[134.079045,33.871457],[134.079362,33.871524],[134.079546,33.871532],[134.079801,33.871522],[134.079924,33.871538],[134.080138,33.871597],[134.080323,33.871724],[134.08081,33.871922],[134.081598,33.872122],[134.08192,33.872219],[134.082206,33.872277],[134.082621,33.872364],[134.0828,33.872402],[134.083511,33.87265],[134.083967,33.872822],[134.084837,33.873057],[134.085031,33.873081],[134.085552,33.87307],[134.085736,33.873078],[134.085889,33.873145],[134.086074,33.873272],[134.086362,33.873518],[134.086506,33.873628],[134.08778,33.874086],[134.088067,33.874161],[134.088373,33.874177],[134.08867,33.874175],[134.088966,33.874174],[134.089395,33.874223],[134.089912,33.874412],[134.089928,33.874438],[134.089974,33.874514],[134.089975,33.874624],[134.089895,33.874846],[134.089855,33.875025],[134.089888,33.875315],[134.089878,33.875434],[134.089664,33.876214],[134.089058,33.877873],[134.088785,33.878351],[134.089,33.878342],[134.089541,33.878314],[134.08997,33.878312],[134.090348,33.878344],[134.090645,33.878385],[134.091509,33.878513],[134.091724,33.87864],[134.091899,33.878852],[134.092148,33.879378],[134.092221,33.879625],[134.092334,33.879778],[134.092468,33.879871],[134.092835,33.879904],[134.093459,33.879955],[134.093744,33.879943],[134.094108,33.879898],[134.097453,33.878929],[134.098886,33.878591],[134.099217,33.878584],[134.099568,33.878669],[134.100604,33.87907],[134.101151,33.879295],[134.101685,33.879542],[134.102207,33.879777],[134.10235,33.879885],[134.1026,33.880306],[134.102908,33.881252],[134.103255,33.881896],[134.103605,33.882444],[134.103813,33.882851],[134.103885,33.882943],[134.104413,33.883122],[134.105018,33.883409],[134.106736,33.884398],[134.10711,33.884596],[134.107516,33.884841],[134.108295,33.885556],[134.108468,33.885682],[134.10881,33.885788],[134.109109,33.885862],[134.10937,33.885947],[134.109539,33.886065],[134.109736,33.886335],[134.109829,33.886584],[134.109959,33.886691],[134.110124,33.88676],[134.111282,33.88689],[134.11224,33.88697],[134.112885,33.886992],[134.11338,33.887115],[134.113724,33.887194],[134.11393,33.887213],[134.114309,33.887216],[134.11461,33.887195],[134.114893,33.887138],[134.115068,33.887117],[134.115315,33.887136],[134.115526,33.88719],[134.115738,33.887294],[134.116407,33.887675],[134.116594,33.88777],[134.116896,33.887869],[134.117264,33.887932],[134.117916,33.888009],[134.118773,33.888201],[134.119234,33.888297],[134.119536,33.888345],[134.119898,33.888444],[134.120201,33.888573],[134.12064,33.88886],[134.120757,33.888928],[134.121106,33.889134],[134.121275,33.889273],[134.121397,33.889434],[134.121575,33.88986],[134.121731,33.890213],[134.121951,33.890589],[134.122289,33.891062],[134.122489,33.891231],[134.122665,33.891391],[134.122756,33.891496],[134.122878,33.891737],[134.122934,33.891938],[134.122978,33.892168],[134.122946,33.892817],[134.122983,33.892917],[134.123053,33.893014],[134.123363,33.893269],[134.12372,33.893518],[134.123887,33.893756],[134.124042,33.894303],[134.124164,33.894903],[134.124203,33.895354],[134.124235,33.895545],[134.124357,33.895756],[134.124465,33.895892],[134.124515,33.895956],[134.12455,33.896109],[134.124474,33.896431],[134.124439,33.896602],[134.124452,33.896843],[134.124613,33.897379],[134.124789,33.897934],[134.124899,33.898199],[134.124967,33.89844],[134.124981,33.898499],[134.125126,33.899135],[134.12525,33.899622],[134.125538,33.900173],[134.125859,33.900812],[134.125969,33.901097],[134.125968,33.901263],[134.125906,33.90174],[134.125695,33.90218],[134.125659,33.902624],[134.125659,33.903894],[134.125617,33.904882],[134.125559,33.90576],[134.125549,33.906182],[134.125434,33.907094],[134.125406,33.907534],[134.125398,33.907672],[134.12531,33.908084],[134.125186,33.908994],[134.125007,33.909309],[134.12424,33.910776],[134.124091,33.911039],[134.124098,33.911115],[134.124138,33.911197],[134.124693,33.911548],[134.124768,33.911644],[134.124911,33.911933],[134.125012,33.912105],[134.125087,33.91218],[134.125185,33.91224],[134.125533,33.912318],[134.125823,33.912423],[134.12607,33.912531],[134.127101,33.913175],[134.127252,33.913386],[134.127361,33.914013],[134.127315,33.914912],[134.127109,33.915184],[134.126884,33.915472],[134.126744,33.915798],[134.12672,33.916177],[134.126734,33.916584],[134.126975,33.917226],[134.126978,33.917594],[134.126289,33.918256],[134.126257,33.918393],[134.126278,33.918562],[134.126583,33.919974],[134.126624,33.920192],[134.126561,33.920574],[134.126501,33.920786],[134.126267,33.92082],[134.126119,33.920785],[134.125896,33.920733],[134.124634,33.920573],[134.124076,33.92063],[134.123283,33.920678],[134.121924,33.920593],[134.121574,33.920703],[134.121394,33.920855],[134.120884,33.92134],[134.120663,33.921417],[134.119857,33.921399],[134.116897,33.920845],[134.116467,33.920804],[134.115935,33.920883],[134.1153,33.921135],[134.11174,33.921261],[134.111311,33.921231],[134.111037,33.921135],[134.110764,33.921082],[134.110491,33.921094],[134.110238,33.921176],[134.109953,33.921319],[134.109486,33.921332],[134.108965,33.921269],[134.108314,33.921143],[134.107964,33.921144],[134.107535,33.921244],[134.106726,33.921589],[134.106389,33.921796],[134.106203,33.921982],[134.106055,33.922275],[134.105706,33.922547],[134.105408,33.922733],[134.104658,33.922998],[134.10364,33.923304],[134.103154,33.923437],[134.102869,33.923524],[134.102593,33.923603],[134.102308,33.92363],[134.101676,33.923562],[134.101384,33.923525],[134.101333,33.92352],[134.100898,33.92347],[134.100505,33.923427],[134.09982,33.923398],[134.099886,33.923566],[134.099902,33.923961],[134.099974,33.925707],[134.100098,33.92638],[134.100327,33.927705],[134.100546,33.92877],[134.100614,33.928972],[134.100774,33.929147],[134.101691,33.929668],[134.101948,33.929902],[134.102375,33.930261],[134.102948,33.930909],[134.103011,33.931099],[134.103022,33.931335],[134.102917,33.932761],[134.102824,33.933284],[134.102852,33.933556],[134.102938,33.933838],[134.103205,33.934131],[134.10348,33.934402],[134.103695,33.93482],[134.104016,33.935311],[134.104514,33.935838],[134.104768,33.936083],[134.104857,33.936252],[134.10489,33.937222],[134.104833,33.937832],[134.104843,33.937987],[134.104879,33.938082],[134.105164,33.938412],[134.105178,33.938526],[134.105117,33.938673],[134.105022,33.938953],[134.105066,33.939633],[134.105158,33.940147],[134.105339,33.94069],[134.105502,33.941388],[134.105527,33.941766],[134.105476,33.942075],[134.10525,33.942584],[134.105084,33.94271],[134.102919,33.943602],[134.102527,33.943777],[134.102396,33.943962],[134.102345,33.944175],[134.102159,33.945404],[134.102112,33.945672],[134.101775,33.946578],[134.101548,33.947554],[134.10141,33.948047],[134.101345,33.948271],[134.101271,33.948415],[134.101197,33.948529],[134.101087,33.9486],[134.099838,33.949187],[134.099169,33.949455],[134.098958,33.949573],[134.098844,33.949692],[134.098792,33.94989],[134.098803,33.950185],[134.098787,33.95039],[134.098617,33.950748],[134.098374,33.951212],[134.098375,33.951411],[134.098429,33.951616],[134.098663,33.95227],[134.098724,33.952773],[134.098542,33.953208],[134.098476,33.95364],[134.098473,33.953661],[134.098472,33.953665],[134.098402,33.954094],[134.098329,33.954889],[134.09823,33.955919],[134.098145,33.956448],[134.098165,33.956742],[134.098238,33.95708],[134.098386,33.957421],[134.098535,33.957802],[134.098907,33.958883],[134.098963,33.959266],[134.099,33.959249],[134.099192,33.959288],[134.09941,33.959402],[134.100347,33.960102],[134.100735,33.96051],[134.10121,33.96091],[134.101485,33.961094],[134.101752,33.961189],[134.103328,33.961644],[134.103482,33.961692],[134.103674,33.961786],[134.104172,33.962168],[134.105084,33.96271],[134.105909,33.963435],[134.106129,33.963648],[134.106297,33.963901],[134.106484,33.964851],[134.106643,33.965103],[134.106855,33.96531],[134.107284,33.965618],[134.108022,33.966018],[134.108229,33.966241],[134.108326,33.966433],[134.108409,33.966718],[134.108471,33.967234],[134.108634,33.968609],[134.108422,33.969417],[134.108384,33.969667],[134.108429,33.970107],[134.108534,33.970459],[134.108688,33.970852],[134.108946,33.971267],[134.108696,33.971942],[134.108421,33.973317],[134.106909,33.973367],[134.107846,33.974691],[134.108237,33.97546],[134.108646,33.976541],[134.10863,33.976712],[134.108534,33.976858],[134.10845,33.976938],[134.108184,33.977191],[134.107309,33.978232],[134.107084,33.978699],[134.106759,33.979357],[134.107409,33.979532],[134.107725,33.97966],[134.107934,33.979807],[134.108409,33.980482],[134.108896,33.981316],[134.109259,33.982149],[134.11054,33.984264],[134.110634,33.984424],[134.110763,33.984543],[134.111624,33.984998],[134.111683,33.985062],[134.111771,33.985457],[134.111958,33.986924],[134.111888,33.98724],[134.111862,33.987332],[134.11181,33.987398],[134.110259,33.988299],[134.110128,33.988381],[134.110033,33.988477],[134.109948,33.988621],[134.109771,33.989424],[134.109434,33.990349],[134.109059,33.991207],[134.108646,33.992623],[134.108621,33.992873],[134.108809,33.994265],[134.108946,33.994673],[134.108921,33.995398],[134.108922,33.995775],[134.108946,33.99594],[134.109084,33.996365],[134.109108,33.996861],[134.109121,33.997131],[134.109245,33.997335],[134.10937,33.99745],[134.109584,33.997556],[134.110546,33.997848],[134.110903,33.998032],[134.111258,33.998273],[134.111634,33.998617],[134.111896,33.998973],[134.112052,33.99935],[134.112095,33.999434],[134.112161,33.999515],[134.11288,34.000095],[134.112971,34.00019],[134.113039,34.000274],[134.114383,34.001989],[134.115146,34.002731],[134.115169,34.002749],[134.115621,34.003089],[134.116191,34.003518],[134.116295,34.003689],[134.116408,34.004389],[134.116415,34.004446],[134.116458,34.004773],[134.116434,34.005178],[134.116408,34.005606],[134.11642,34.006147],[134.11647,34.006239],[134.116908,34.006689],[134.117345,34.007156],[134.117551,34.007459],[134.11772,34.007789],[134.117783,34.007972],[134.117796,34.008141],[134.117773,34.008241],[134.11772,34.008355],[134.117483,34.008647],[134.117383,34.008847],[134.117321,34.009227],[134.117254,34.009803],[134.117258,34.010697],[134.117308,34.011038],[134.117883,34.012413],[134.118158,34.013222],[134.118237,34.013705],[134.118306,34.014122],[134.118512,34.015217],[134.118612,34.015528],[134.118876,34.016175],[134.118911,34.016466],[134.118906,34.016514],[134.118881,34.016784],[134.118777,34.017102],[134.118569,34.0174],[134.118177,34.017723],[134.11681,34.018453],[134.116527,34.01857],[134.116162,34.018632],[134.114472,34.018593],[134.114188,34.018595],[134.114124,34.018636],[134.114067,34.018731],[134.114068,34.018859],[134.113937,34.019806],[134.113729,34.020729],[134.113641,34.020953],[134.113634,34.021088],[134.113643,34.021244],[134.113722,34.021537],[134.113786,34.022483],[134.113807,34.023172],[134.113721,34.023605],[134.113521,34.02461],[134.113321,34.02503],[134.113084,34.025264],[134.112195,34.025857],[134.111944,34.026041],[134.11184,34.02621],[134.111817,34.026379],[134.111851,34.026582],[134.112114,34.027094],[134.112231,34.027492],[134.112295,34.027948],[134.112297,34.028178],[134.112144,34.028993],[134.112146,34.02927],[134.11218,34.029412],[134.112278,34.029506],[134.112409,34.029654],[134.112467,34.029904],[134.112437,34.030154],[134.112284,34.030398],[134.112147,34.030528],[134.111993,34.030582],[134.110963,34.03081],[134.110129,34.031146],[134.110005,34.031204],[134.109636,34.031378],[134.1095,34.031413],[134.109449,34.031426],[134.109165,34.031468],[134.10897,34.031496],[134.108735,34.031585],[134.108226,34.031899],[134.107886,34.031988],[134.107488,34.032024],[134.107114,34.032012],[134.106984,34.031959],[134.10664,34.031609],[134.106028,34.0312],[134.10558,34.030986],[134.105246,34.030913],[134.105149,34.030974],[134.105098,34.031103],[134.105114,34.031172],[134.1051,34.031332],[134.105072,34.031475],[134.104994,34.031643],[134.104862,34.031816],[134.104792,34.031962],[134.104734,34.032085],[134.10452,34.032405],[134.104432,34.032541],[134.104365,34.032729],[134.104333,34.033143],[134.104358,34.033456],[134.104329,34.033575],[134.104222,34.033768],[134.103842,34.034318],[134.10374,34.034417],[134.103676,34.034487],[134.103647,34.034573],[134.103654,34.034728],[134.103649,34.034847],[134.103591,34.034933],[134.103334,34.035096],[134.102374,34.035621],[134.102158,34.035765],[134.10201,34.035869],[134.101957,34.035905],[134.101599,34.036063],[134.100724,34.036482],[134.100235,34.036683],[134.100176,34.036707],[134.099905,34.036818],[134.099822,34.036876],[134.099529,34.037176],[134.099294,34.037361],[134.099025,34.0376],[134.098854,34.037736],[134.098722,34.037831],[134.098659,34.037905],[134.098615,34.037975],[134.098603,34.038087],[134.098624,34.038243],[134.098695,34.038476],[134.098705,34.038598],[134.098652,34.038726],[134.098555,34.038853],[134.098325,34.039108],[134.098095,34.039297],[134.098027,34.039359],[134.097898,34.039591],[134.097786,34.039722],[134.097669,34.039834],[134.097507,34.039982],[134.097356,34.040159],[134.097024,34.040434],[134.096902,34.040627],[134.096839,34.040763],[134.096649,34.040977],[134.096216,34.041341],[134.095504,34.042302],[134.095362,34.042413],[134.095102,34.042505],[134.09496,34.042575],[134.094625,34.042787],[134.093637,34.043631],[134.093559,34.043763],[134.093545,34.043878],[134.093555,34.043959],[134.093605,34.044053],[134.093814,34.044298],[134.093885,34.044436],[134.093918,34.044562],[134.093938,34.044705],[134.093912,34.044808],[134.093722,34.045221],[134.09362,34.045442],[134.093587,34.045603],[134.093597,34.045739],[134.093649,34.045838],[134.093822,34.045984],[134.094021,34.046229],[134.094081,34.046303],[134.094276,34.04671],[134.094461,34.047262],[134.094451,34.04762],[134.094376,34.047901],[134.094356,34.048033],[134.09433,34.048337],[134.094365,34.048669],[134.094476,34.049156],[134.094579,34.049475],[134.09465,34.049656],[134.094791,34.049836],[134.095317,34.050426],[134.095359,34.050528],[134.095359,34.050629],[134.095328,34.050778],[134.095224,34.051076],[134.095079,34.05133],[134.094783,34.051644],[134.094773,34.051665],[134.094507,34.052279],[134.094355,34.05264],[134.094039,34.053502],[134.093257,34.053369],[134.093158,34.053352],[134.090555,34.052964],[134.086423,34.052426],[134.086381,34.05242],[134.086287,34.053226],[134.086197,34.053859],[134.086662,34.055056],[134.087319,34.056471],[134.087038,34.056764],[134.086462,34.057302],[134.083537,34.055962],[134.07875,34.053795],[134.078446,34.053904],[134.074408,34.051995],[134.074324,34.051873],[134.07436,34.051719],[134.074432,34.051542],[134.074475,34.051407],[134.074427,34.051162],[134.074235,34.050322],[134.073992,34.049939],[134.073012,34.048626],[134.072501,34.048183],[134.071784,34.047637],[134.071497,34.047462],[134.07096,34.047272],[134.070424,34.047144],[134.069543,34.047003],[134.069149,34.046893],[134.067742,34.046736],[134.066092,34.04663],[134.066023,34.046625],[134.06564,34.046601],[134.065375,34.046584],[134.064327,34.046462],[134.063847,34.046496],[134.063425,34.046485],[134.061115,34.046103],[134.05885,34.045654],[134.057583,34.045342],[134.057108,34.045281],[134.055002,34.044833],[134.053619,34.044596],[134.051212,34.044144]]]},"properties":{"code":"36468","name":"つるぎ町"}}]}