{"type":"FeatureCollection","features":[{"type":"Feature","geometry":{"type":"Polygon","coordinates":[[[133.890856,34.035448],[133.890963,34.035502],[133.891378,34.035657],[133.891692,34.035697],[133.891831,34.035677],[133.891837,34.035645],[133.892121,34.035535],[133.89241,34.035481],[133.892513,34.035462],[133.892968,34.035301],[133.893038,34.035276],[133.893441,34.035177],[133.893718,34.035099],[133.89361,34.034666],[133.893485,34.034036],[133.893444,34.033816],[133.893405,34.033437],[133.893379,34.03328],[133.893366,34.033259],[133.893344,34.033236],[133.893316,34.033213],[133.893276,34.033189],[133.893222,34.033158],[133.893193,34.033139],[133.893168,34.033119],[133.893145,34.033095],[133.893131,34.03307],[133.893123,34.033045],[133.893121,34.033022],[133.893122,34.033005],[133.893126,34.032972],[133.893129,34.032958],[133.893148,34.03288],[133.893167,34.032813],[133.893191,34.032769],[133.893201,34.032756],[133.893208,34.032747],[133.89326,34.032711],[133.893318,34.032676],[133.893359,34.032657],[133.893417,34.032575],[133.893476,34.032454],[133.893525,34.032289],[133.893559,34.032244],[133.893635,34.03216],[133.893689,34.032104],[133.89371,34.032054],[133.893734,34.031982],[133.893743,34.031908],[133.893764,34.031831],[133.893793,34.031763],[133.893845,34.031694],[133.893908,34.031632],[133.893982,34.031589],[133.894088,34.031559],[133.894237,34.031537],[133.894424,34.031512],[133.894513,34.031496],[133.894614,34.031456],[133.894697,34.031411],[133.89475,34.031358],[133.894794,34.031291],[133.895009,34.031156],[133.895128,34.03107],[133.89517,34.031031],[133.895194,34.030996],[133.895201,34.030937],[133.895191,34.030877],[133.895152,34.03082],[133.895091,34.030757],[133.895029,34.030708],[133.894962,34.030659],[133.894947,34.030633],[133.894937,34.030604],[133.894947,34.030571],[133.894957,34.030545],[133.895001,34.030497],[133.895039,34.030445],[133.895051,34.03035],[133.895079,34.030045],[133.89513,34.029856],[133.895159,34.029733],[133.895159,34.029673],[133.895146,34.029608],[133.895085,34.0295],[133.894966,34.029312],[133.894944,34.029269],[133.894938,34.029232],[133.894951,34.029205],[133.894956,34.029089],[133.894953,34.028987],[133.894956,34.028917],[133.894945,34.028794],[133.894903,34.028706],[133.894797,34.028515],[133.894766,34.028438],[133.894738,34.028319],[133.894718,34.028213],[133.894696,34.028128],[133.894648,34.028026],[133.894578,34.027917],[133.894461,34.027757],[133.894358,34.02759],[133.894313,34.027502],[133.894302,34.027417],[133.894304,34.027343],[133.894312,34.027264],[133.894339,34.027167],[133.894341,34.027157],[133.894368,34.027065],[133.894389,34.026915],[133.894422,34.026709],[133.894445,34.026535],[133.894448,34.026442],[133.894435,34.026336],[133.894443,34.026079],[133.894488,34.025801],[133.894527,34.025587],[133.894553,34.025322],[133.894589,34.025162],[133.894615,34.025102],[133.894678,34.024951],[133.894794,34.024729],[133.895209,34.024057],[133.895703,34.023293],[133.895968,34.022897],[133.89621,34.02247],[133.896286,34.02236],[133.89641,34.022219],[133.896571,34.022087],[133.896782,34.021943],[133.897109,34.021774],[133.897415,34.021652],[133.897561,34.021584],[133.897794,34.021459],[133.898052,34.021355],[133.898115,34.021314],[133.898183,34.021203],[133.898313,34.020946],[133.898651,34.020342],[133.898937,34.019889],[133.899445,34.019581],[133.900082,34.019439],[133.900361,34.019204],[133.901205,34.017456],[133.901586,34.016389],[133.901783,34.015845],[133.901799,34.01533],[133.901763,34.014656],[133.901794,34.014529],[133.901828,34.014438],[133.901864,34.014321],[133.902007,34.014174],[133.902135,34.014032],[133.902415,34.013945],[133.902667,34.013843],[133.902947,34.013801],[133.903227,34.013676],[133.903944,34.013305],[133.903974,34.013272],[133.903987,34.013208],[133.903988,34.012803],[133.904005,34.012776],[133.904041,34.012751],[133.904603,34.012517],[133.904722,34.012453],[133.904794,34.012404],[133.904908,34.012307],[133.905121,34.012003],[133.905443,34.011546],[133.905516,34.011338],[133.905608,34.011016],[133.905644,34.010716],[133.905659,34.010614],[133.905715,34.010531],[133.905814,34.010427],[133.906016,34.010253],[133.906102,34.010097],[133.906199,34.009522],[133.906224,34.008996],[133.906289,34.008802],[133.906366,34.008663],[133.906287,34.008378],[133.906209,34.00813],[133.906219,34.007872],[133.906277,34.00741],[133.90609,34.006527],[133.906028,34.0062],[133.90606,34.005905],[133.906168,34.005472],[133.9062,34.005256],[133.906287,34.005142],[133.906413,34.005125],[133.906604,34.005134],[133.906798,34.00511],[133.906986,34.005101],[133.907296,34.005109],[133.907595,34.005154],[133.907738,34.005116],[133.907848,34.005006],[133.907936,34.004839],[133.908023,34.00459],[133.908142,34.003963],[133.908208,34.003825],[133.908365,34.003686],[133.908463,34.00361],[133.908623,34.003512],[133.908951,34.003066],[133.909107,34.002869],[133.909232,34.002581],[133.909325,34.002391],[133.909452,34.002344],[133.910393,34.002231],[133.910597,34.00223],[133.910837,34.002259],[133.911324,34.002342],[133.911718,34.002452],[133.911976,34.002373],[133.912054,34.00215],[133.912139,34.001961],[133.912267,34.001453],[133.912311,34.000969],[133.912255,34.000674],[133.912144,34.000407],[133.91212,34.000289],[133.912198,34.000204],[133.91244,33.999994],[133.912616,33.999833],[133.912686,33.99963],[133.912787,33.99944],[133.91292,33.999282],[133.91328,33.998967],[133.913417,33.998834],[133.91355,33.99858],[133.913594,33.998422],[133.913598,33.998288],[133.913567,33.998109],[133.913512,33.997968],[133.913436,33.997864],[133.913285,33.997722],[133.91344,33.997714],[133.913686,33.997704],[133.913886,33.997683],[133.914036,33.997645],[133.914116,33.997599],[133.914185,33.997511],[133.91419,33.997369],[133.914164,33.997198],[133.914092,33.996873],[133.91402,33.996486],[133.914017,33.996332],[133.914078,33.995966],[133.914202,33.995612],[133.914339,33.995168],[133.914418,33.994951],[133.914513,33.994813],[133.914778,33.994699],[133.915268,33.994564],[133.916564,33.994245],[133.916652,33.994087],[133.916702,33.993662],[133.916844,33.993375],[133.917033,33.993182],[133.917394,33.99309],[133.917473,33.993014],[133.917472,33.992681],[133.917491,33.992472],[133.917564,33.992184],[133.917383,33.991893],[133.917339,33.99152],[133.917369,33.99116],[133.917555,33.990359],[133.917454,33.990017],[133.917372,33.989784],[133.917461,33.989508],[133.917474,33.989029],[133.917433,33.988787],[133.91675,33.988448],[133.917029,33.988197],[133.917577,33.987596],[133.917714,33.987013],[133.917714,33.986129],[133.918152,33.985188],[133.91853,33.983856],[133.918428,33.983473],[133.918387,33.983223],[133.918405,33.982889],[133.918514,33.982681],[133.918613,33.982363],[133.918505,33.981909],[133.918484,33.981693],[133.918502,33.981284],[133.918401,33.980934],[133.918268,33.980493],[133.918181,33.980155],[133.918077,33.979255],[133.91804,33.978876],[133.918109,33.978584],[133.918264,33.978022],[133.918677,33.977364],[133.919078,33.976824],[133.919748,33.976143],[133.920327,33.975562],[133.920891,33.975288],[133.921229,33.974842],[133.92194,33.974968],[133.922914,33.974964],[133.923449,33.975034],[133.924222,33.97496],[133.924976,33.974654],[133.925444,33.974746],[133.925656,33.974766],[133.926867,33.974526],[133.927851,33.974431],[133.928373,33.974197],[133.928726,33.973973],[133.928863,33.973956],[133.929863,33.974198],[133.93063,33.974424],[133.930826,33.974556],[133.931563,33.974831],[133.93276,33.975002],[133.933241,33.975338],[133.933733,33.975387],[133.934038,33.975231],[133.934438,33.974978],[133.934834,33.974458],[133.935618,33.974067],[133.936183,33.973782],[133.936986,33.973524],[133.937113,33.973582],[133.937275,33.973765],[133.937576,33.974311],[133.938137,33.974573],[133.938725,33.974606],[133.9394,33.97464],[133.940387,33.97444],[133.940857,33.974624],[133.941244,33.974727],[133.941551,33.974758],[133.94191,33.97466],[133.942562,33.974673],[133.943483,33.97497],[133.944149,33.97554],[133.944635,33.975808],[133.945082,33.975782],[133.945779,33.975237],[133.946349,33.974998],[133.946975,33.974828],[133.947578,33.97481],[133.94818,33.9746],[133.948878,33.974598],[133.949786,33.974365],[133.950268,33.97419],[133.950311,33.974115],[133.950377,33.973989],[133.950159,33.973017],[133.950203,33.972947],[133.950628,33.97268],[133.951059,33.972532],[133.951191,33.972437],[133.951594,33.972023],[133.951725,33.971778],[133.951842,33.971704],[133.952401,33.971457],[133.953198,33.971405],[133.953551,33.971338],[133.953943,33.971194],[133.954369,33.971188],[133.955036,33.970974],[133.955136,33.970919],[133.955115,33.970593],[133.954982,33.97014],[133.955162,33.96978],[133.955287,33.96935],[133.955112,33.968338],[133.954969,33.968036],[133.954643,33.967788],[133.954602,33.967302],[133.954626,33.966857],[133.954713,33.966579],[133.954967,33.966312],[133.954951,33.966161],[133.954536,33.965191],[133.954451,33.963953],[133.954534,33.963891],[133.95526,33.963836],[133.956404,33.96386],[133.956838,33.963793],[133.957132,33.963725],[133.95754,33.963576],[133.957729,33.963453],[133.95782,33.963172],[133.957767,33.962846],[133.957934,33.962597],[133.957945,33.962229],[133.958898,33.961667],[133.959261,33.9609],[133.959336,33.960859],[133.960184,33.960889],[133.961789,33.961269],[133.962297,33.961583],[133.962501,33.961676],[133.962888,33.961739],[133.963562,33.961654],[133.964672,33.96151],[133.965341,33.961805],[133.965924,33.96178],[133.967285,33.961258],[133.968392,33.960641],[133.969872,33.960575],[133.970422,33.9606],[133.971434,33.960467],[133.972097,33.960258],[133.972259,33.960242],[133.972584,33.960242],[133.973846,33.960458],[133.974371,33.960709],[133.974484,33.960825],[133.974784,33.961292],[133.975996,33.962717],[133.976908,33.964017],[133.977458,33.96465],[133.977708,33.965033],[133.97792,33.965775],[133.978258,33.966341],[133.97872,33.966875],[133.978961,33.967291],[133.978995,33.96735],[133.979957,33.967891],[133.981057,33.968433],[133.981532,33.96875],[133.982057,33.970683],[133.982494,33.971158],[133.983019,33.971874],[133.983732,33.972232],[133.984032,33.972616],[133.984256,33.973132],[133.984419,33.973291],[133.984919,33.973449],[133.985194,33.973499],[133.987669,33.973541],[133.988194,33.973699],[133.988794,33.973716],[133.989231,33.973849],[133.989956,33.974641],[133.990852,33.975117],[133.990881,33.975132],[133.991631,33.97574],[133.991906,33.975874],[133.992481,33.976257],[133.992981,33.97664],[133.993143,33.976707],[133.994106,33.976757],[133.994406,33.97714],[133.994543,33.977407],[133.994931,33.97799],[133.99548,33.978715],[133.995568,33.979115],[133.995618,33.981123],[133.995891,33.981871],[133.99598,33.982115],[133.996143,33.982381],[133.996693,33.982631],[133.997343,33.982848],[133.997393,33.982798],[133.997893,33.983065],[133.997968,33.983498],[133.997993,33.985614],[133.998442,33.986698],[133.99863,33.987414],[133.998817,33.987889],[133.999267,33.988206],[134.000694,33.988738],[134.00083,33.988789],[134.001055,33.989106],[134.000805,33.989689],[134.0007,33.98984],[134.000442,33.990214],[134.000436,33.990423],[134.000505,33.990506],[134.00051,33.990506],[134.000584,33.990512],[134.000704,33.990523],[134.000992,33.990547],[134.001703,33.990534],[134.00188,33.990851],[134.001747,33.991803],[134.001628,33.992549],[134.001762,33.993466],[134.001765,33.994109],[134.001736,33.994451],[134.001688,33.995001],[134.001663,33.995936],[134.001415,33.996709],[134.001222,33.997112],[134.0011,33.997464],[134.001175,33.997824],[134.001465,33.998166],[134.001734,33.998431],[134.001582,33.998817],[134.001557,33.998997],[134.001646,34.000009],[134.00174,34.000214],[134.001875,34.000385],[134.002,34.000642],[134.002074,34.00095],[134.001625,34.001706],[134.000661,34.002362],[133.999347,34.003122],[133.999018,34.00326],[133.998814,34.003553],[133.99863,34.003845],[133.998463,34.004056],[133.998221,34.004361],[133.997929,34.00546],[133.997973,34.00594],[133.998263,34.006264],[133.998677,34.006503],[133.998864,34.006776],[133.998909,34.007445],[133.998665,34.009254],[133.998415,34.011099],[133.999363,34.011096],[134.000465,34.011108],[134.000652,34.011313],[134.001074,34.013026],[134.001056,34.013541],[134.000812,34.014039],[134.00071,34.014228],[134.00061,34.014675],[134.000758,34.015291],[134.000757,34.015695],[134.000638,34.016095],[134.000681,34.016304],[134.000888,34.016649],[134.00109,34.016869],[134.001361,34.017081],[134.001548,34.0172],[134.001659,34.01734],[134.001689,34.017378],[134.001789,34.017626],[134.001872,34.018005],[134.002019,34.018462],[134.002075,34.018885],[134.00205,34.019296],[134.002023,34.019439],[134.002033,34.019621],[134.002085,34.01978],[134.002151,34.019885],[134.002197,34.020063],[134.00223,34.020183],[134.002329,34.020349],[134.002399,34.020469],[134.002424,34.020651],[134.002398,34.020996],[134.002388,34.021287],[134.002379,34.021415],[134.002296,34.021559],[134.002236,34.021624],[134.002195,34.021697],[134.002196,34.021788],[134.002256,34.022],[134.002291,34.022146],[134.002636,34.023717],[134.002677,34.023993],[134.002766,34.0242],[134.002933,34.024362],[134.003095,34.02448],[134.003193,34.024569],[134.003258,34.024703],[134.003217,34.025187],[134.003225,34.025333],[134.003304,34.025459],[134.003461,34.025621],[134.00368,34.025771],[134.003812,34.025913],[134.003887,34.026059],[134.003932,34.026266],[134.003887,34.026579],[134.003825,34.026799],[134.003671,34.027178],[134.00355,34.027382],[134.003331,34.027635],[134.003198,34.027815],[134.003121,34.027986],[134.003088,34.02823],[134.003042,34.028735],[134.003012,34.029028],[134.002949,34.02917],[134.002824,34.029358],[134.002785,34.029525],[134.002811,34.029712],[134.002851,34.029895],[134.002833,34.030086],[134.002778,34.030269],[134.002603,34.030547],[134.002592,34.030571],[134.002502,34.030758],[134.002483,34.030929],[134.002445,34.031003],[134.002377,34.03108],[134.002016,34.03124],[134.001721,34.031396],[134.001585,34.031539],[134.001479,34.031739],[134.001379,34.032175],[134.001281,34.032622],[134.001139,34.033011],[134.001094,34.033136],[134.000704,34.033882],[134.000397,34.034351],[133.999906,34.034898],[133.999411,34.035408],[133.999124,34.035641],[133.999061,34.035735],[133.999144,34.035796],[133.999507,34.035933],[134.000214,34.036109],[134.00029,34.036601],[134.000243,34.036772],[134.000117,34.03698],[133.999831,34.037315],[133.999444,34.037212],[133.999348,34.037132],[133.999048,34.037027],[133.998776,34.036939],[133.99854,34.036864],[133.99844,34.036829],[133.998265,34.036757],[133.998101,34.036689],[133.998013,34.036658],[133.997914,34.036629],[133.997808,34.036602],[133.997694,34.03658],[133.997574,34.036562],[133.997451,34.03655],[133.997343,34.036543],[133.997325,34.036542],[133.997197,34.03654],[133.997067,34.036542],[133.996936,34.036548],[133.99667,34.036567],[133.996401,34.036594],[133.996135,34.036623],[133.995874,34.036654],[133.995634,34.036688],[133.99543,34.036725],[133.995262,34.036765],[133.995111,34.036807],[133.994548,34.037004],[133.994365,34.037074],[133.994185,34.037149],[133.99401,34.037227],[133.993842,34.037307],[133.993542,34.03746],[133.993304,34.037582],[133.993129,34.037666],[133.993057,34.037695],[133.99299,34.037717],[133.992861,34.037759],[133.99276,34.037793],[133.992587,34.037851],[133.992519,34.037875],[133.9924,34.037919],[133.992296,34.037959],[133.992203,34.037996],[133.991998,34.038083],[133.991783,34.038182],[133.991555,34.038291],[133.991318,34.038407],[133.991086,34.03852],[133.990865,34.038623],[133.990651,34.038723],[133.990437,34.03883],[133.990328,34.038889],[133.990105,34.039011],[133.989872,34.039142],[133.989616,34.039267],[133.989361,34.039379],[133.989276,34.03941],[133.989038,34.039497],[133.98879,34.039595],[133.988515,34.039698],[133.988237,34.039797],[133.987968,34.039887],[133.987685,34.039978],[133.987354,34.040077],[133.987073,34.040159],[133.98697,34.04019],[133.98656,34.04031],[133.986148,34.040433],[133.985747,34.040554],[133.985364,34.040671],[133.984757,34.040845],[133.984472,34.040914],[133.984294,34.040958],[133.984098,34.040999],[133.983897,34.041036],[133.983706,34.041068],[133.983534,34.041092],[133.983371,34.041113],[133.983196,34.041131],[133.982998,34.041149],[133.98279,34.041166],[133.982723,34.041171],[133.982593,34.041181],[133.982418,34.041193],[133.982279,34.0412],[133.982257,34.041201],[133.98209,34.041205],[133.981906,34.041205],[133.981712,34.041205],[133.981524,34.041207],[133.981346,34.041214],[133.981167,34.041222],[133.980969,34.041224],[133.98074,34.041215],[133.9805,34.041199],[133.980277,34.041183],[133.980087,34.041169],[133.979924,34.041154],[133.97977,34.041134],[133.979611,34.041105],[133.979454,34.041069],[133.979307,34.041032],[133.979172,34.040993],[133.979044,34.04095],[133.97899,34.04093],[133.978914,34.040902],[133.978772,34.040844],[133.978629,34.040783],[133.978499,34.040723],[133.978405,34.040677],[133.978388,34.040668],[133.978286,34.040616],[133.978179,34.040562],[133.978052,34.040501],[133.977917,34.040439],[133.977789,34.040379],[133.977675,34.040323],[133.977562,34.04027],[133.977433,34.04021],[133.977271,34.040138],[133.977089,34.040059],[133.976906,34.039981],[133.976732,34.039905],[133.976628,34.039861],[133.976565,34.039834],[133.976397,34.039769],[133.976221,34.039708],[133.976046,34.03965],[133.975881,34.039593],[133.975732,34.039537],[133.975594,34.039482],[133.975507,34.039433],[133.975394,34.039359],[133.975291,34.039287],[133.975238,34.039254],[133.97514,34.039198],[133.975056,34.039156],[133.974985,34.039125],[133.974902,34.039095],[133.974767,34.039048],[133.974531,34.038962],[133.974323,34.038888],[133.974116,34.038813],[133.973977,34.038764],[133.973882,34.038732],[133.973786,34.038703],[133.973655,34.038663],[133.9735,34.038617],[133.97334,34.038574],[133.973193,34.038537],[133.973057,34.038508],[133.972931,34.038482],[133.972807,34.038458],[133.972687,34.038433],[133.972568,34.038409],[133.972448,34.038383],[133.972321,34.038358],[133.972182,34.038332],[133.972028,34.038305],[133.971877,34.038278],[133.97175,34.038252],[133.97166,34.038227],[133.971596,34.038203],[133.971538,34.038178],[133.971469,34.038152],[133.971384,34.038123],[133.971282,34.038087],[133.971161,34.038041],[133.971027,34.037989],[133.970886,34.037937],[133.970743,34.037888],[133.9706,34.03784],[133.97046,34.037794],[133.97032,34.037745],[133.970181,34.037696],[133.97004,34.037648],[133.969892,34.037601],[133.969861,34.037592],[133.969742,34.037559],[133.969593,34.037521],[133.969444,34.037488],[133.969302,34.037459],[133.969173,34.037436],[133.969058,34.037416],[133.968952,34.037399],[133.968845,34.037384],[133.968728,34.037369],[133.968594,34.037358],[133.968492,34.037357],[133.968291,34.037356],[133.968095,34.037369],[133.967895,34.037385],[133.967716,34.037404],[133.967565,34.037432],[133.967491,34.037452],[133.967416,34.037477],[133.967335,34.037508],[133.96725,34.037545],[133.967076,34.03763],[133.966906,34.037724],[133.966737,34.037823],[133.966642,34.037879],[133.966554,34.037926],[133.966451,34.03798],[133.966233,34.038088],[133.966014,34.038191],[133.965806,34.038284],[133.965615,34.038373],[133.965436,34.038465],[133.965271,34.038559],[133.96512,34.038645],[133.96498,34.038715],[133.96485,34.038776],[133.96472,34.038838],[133.964586,34.038904],[133.964445,34.03897],[133.96437,34.039001],[133.96421,34.039065],[133.964033,34.039137],[133.963836,34.039225],[133.963641,34.039319],[133.963335,34.039479],[133.96321,34.039536],[133.963023,34.039623],[133.962871,34.039684],[133.962711,34.039753],[133.962549,34.039825],[133.962285,34.039952],[133.962231,34.039978],[133.96195,34.040122],[133.961705,34.040252],[133.961456,34.040377],[133.961317,34.040439],[133.961023,34.04056],[133.960872,34.040617],[133.960723,34.04067],[133.960576,34.040717],[133.960476,34.040747],[133.960388,34.040772],[133.960264,34.040806],[133.960083,34.040851],[133.959873,34.040898],[133.959363,34.041004],[133.958815,34.041116],[133.958329,34.041222],[133.958121,34.04127],[133.957735,34.041359],[133.957542,34.0414],[133.957336,34.04144],[133.956891,34.041515],[133.956653,34.041551],[133.956152,34.041623],[133.955633,34.04169],[133.95512,34.041753],[133.954734,34.041797],[133.954637,34.041808],[133.954197,34.041859],[133.953811,34.041913],[133.953635,34.041941],[133.953295,34.042004],[133.952943,34.042077],[133.952272,34.042202],[133.951866,34.042268],[133.951468,34.04234],[133.951062,34.042421],[133.950853,34.042468],[133.950436,34.042567],[133.95004,34.04267],[133.949684,34.04277],[133.949527,34.042817],[133.949253,34.042903],[133.949019,34.042982],[133.948808,34.043052],[133.948604,34.043118],[133.948396,34.043185],[133.948171,34.04326],[133.947934,34.043343],[133.947918,34.043348],[133.947712,34.043424],[133.947636,34.043452],[133.947337,34.043565],[133.947032,34.043681],[133.946728,34.0438],[133.94643,34.043916],[133.946135,34.044034],[133.946094,34.044051],[133.945881,34.044137],[133.945844,34.044152],[133.94555,34.044274],[133.945239,34.044404],[133.944896,34.044547],[133.94451,34.044707],[133.944163,34.044849],[133.944091,34.044879],[133.94386,34.044975],[133.943652,34.045061],[133.943479,34.045133],[133.943466,34.045139],[133.943206,34.045247],[133.94276,34.045434],[133.942317,34.04562],[133.941885,34.045803],[133.941464,34.045982],[133.941055,34.046156],[133.940661,34.046326],[133.940546,34.046376],[133.940283,34.046492],[133.939917,34.046653],[133.939562,34.046811],[133.939209,34.046962],[133.939102,34.047006],[133.939066,34.047021],[133.939033,34.047034],[133.93869,34.047172],[133.938374,34.047295],[133.938103,34.047396],[133.937886,34.047471],[133.937707,34.047531],[133.937536,34.047584],[133.937348,34.047642],[133.937141,34.047707],[133.936941,34.047778],[133.936853,34.047814],[133.936777,34.047851],[133.936714,34.047887],[133.936664,34.047924],[133.936622,34.04796],[133.936548,34.048033],[133.93647,34.048109],[133.936362,34.048187],[133.936298,34.048227],[133.936157,34.048308],[133.936058,34.048359],[133.935311,34.048597],[133.935254,34.048615],[133.935114,34.048668],[133.935028,34.048697],[133.934927,34.048726],[133.934848,34.048747],[133.934705,34.048785],[133.934496,34.048843],[133.934331,34.048892],[133.934199,34.04894],[133.934073,34.048987],[133.933942,34.049037],[133.933817,34.049085],[133.933702,34.049128],[133.933586,34.04917],[133.933452,34.049214],[133.933293,34.049263],[133.933115,34.049309],[133.932922,34.049352],[133.932733,34.049395],[133.932645,34.049422],[133.932563,34.04945],[133.932405,34.049511],[133.932322,34.049539],[133.932231,34.049562],[133.932129,34.049579],[133.932021,34.04959],[133.931799,34.049607],[133.931601,34.049626],[133.931516,34.049638],[133.931437,34.049652],[133.931294,34.049679],[133.93116,34.049702],[133.931031,34.049722],[133.930906,34.04974],[133.930782,34.049756],[133.930648,34.049766],[133.930499,34.049769],[133.930354,34.049775],[133.930289,34.049783],[133.930237,34.049793],[133.930231,34.049794],[133.930177,34.049808],[133.930124,34.049826],[133.930008,34.049867],[133.929938,34.049888],[133.92978,34.049931],[133.929612,34.049974],[133.929448,34.050013],[133.929283,34.050045],[133.929198,34.050057],[133.929017,34.05007],[133.928833,34.050076],[133.928655,34.050082],[133.928487,34.050087],[133.928323,34.050086],[133.928292,34.050084],[133.928238,34.050082],[133.928066,34.050067],[133.927943,34.050068],[133.927091,34.050092],[133.926379,34.050117],[133.925995,34.050134],[133.925224,34.050175],[133.924496,34.050211],[133.924165,34.050224],[133.923861,34.05023],[133.923583,34.05023],[133.923514,34.050229],[133.92353,34.050434],[133.923547,34.050637],[133.923562,34.050836],[133.923565,34.050871],[133.923579,34.051028],[133.9236,34.051205],[133.923612,34.051285],[133.923627,34.051359],[133.923646,34.05143],[133.923669,34.051495],[133.923698,34.051556],[133.923734,34.051612],[133.923776,34.051663],[133.923824,34.051712],[133.923931,34.051803],[133.924049,34.051887],[133.924172,34.051968],[133.924296,34.052047],[133.924356,34.052086],[133.924413,34.052127],[133.924464,34.052168],[133.92451,34.052213],[133.924547,34.05226],[133.924577,34.05231],[133.924603,34.052363],[133.924643,34.05248],[133.924651,34.052509],[133.92468,34.052608],[133.92472,34.052742],[133.924746,34.052812],[133.924805,34.052947],[133.924866,34.053075],[133.924894,34.053137],[133.924896,34.053142],[133.924915,34.053193],[133.924931,34.053249],[133.92494,34.053305],[133.924939,34.053363],[133.924931,34.053426],[133.924912,34.053494],[133.924855,34.053638],[133.9248,34.053778],[133.92478,34.05384],[133.924754,34.053954],[133.924728,34.054068],[133.92471,34.054127],[133.924688,34.05419],[133.924661,34.054253],[133.924644,34.054286],[133.924557,34.054412],[133.924499,34.054475],[133.924441,34.054536],[133.924376,34.0546],[133.924297,34.054671],[133.924226,34.05474],[133.924199,34.054774],[133.924177,34.054812],[133.924159,34.054853],[133.924136,34.054951],[133.924119,34.055058],[133.924103,34.055213],[133.924074,34.055427],[133.924061,34.055509],[133.924031,34.055652],[133.92398,34.055864],[133.923944,34.056064],[133.923927,34.056239],[133.923919,34.05638],[133.923907,34.056481],[133.923907,34.056484],[133.923899,34.056527],[133.923885,34.05657],[133.923866,34.056612],[133.92381,34.056705],[133.923752,34.056807],[133.923732,34.056857],[133.923719,34.056906],[133.923714,34.056954],[133.923717,34.057054],[133.923724,34.057157],[133.923728,34.057267],[133.923734,34.057379],[133.923741,34.05748],[133.923738,34.05754],[133.923703,34.057654],[133.923665,34.057795],[133.923651,34.057849],[133.923633,34.057907],[133.92361,34.05797],[133.923584,34.058037],[133.923558,34.058106],[133.923541,34.058171],[133.923536,34.058229],[133.923543,34.05828],[133.923554,34.05833],[133.923558,34.058385],[133.92355,34.058449],[133.923533,34.058519],[133.923512,34.058592],[133.92349,34.05866],[133.923471,34.058724],[133.923455,34.058786],[133.92344,34.058846],[133.923426,34.058907],[133.923412,34.058967],[133.9234,34.059027],[133.92339,34.059087],[133.923381,34.059145],[133.923378,34.059201],[133.923381,34.059255],[133.92339,34.059305],[133.923407,34.059353],[133.923431,34.059399],[133.923462,34.059444],[133.923498,34.059488],[133.923534,34.059533],[133.92357,34.05958],[133.923599,34.059628],[133.923624,34.059679],[133.923644,34.059728],[133.923657,34.059775],[133.923665,34.05982],[133.923671,34.059867],[133.923678,34.059919],[133.923685,34.059978],[133.923696,34.060042],[133.923702,34.060107],[133.923706,34.060168],[133.923705,34.060225],[133.9237,34.06028],[133.923694,34.060333],[133.923686,34.060385],[133.923683,34.060436],[133.923685,34.06046],[133.923689,34.060483],[133.923709,34.060526],[133.923764,34.061322],[133.923818,34.061906],[133.923973,34.062336],[133.923975,34.06275],[133.923865,34.06319],[133.92376,34.063592],[133.92362,34.063981],[133.923379,34.064489],[133.923319,34.064653],[133.92309,34.064977],[133.922862,34.065244],[133.922659,34.0654],[133.922612,34.06543],[133.922572,34.065462],[133.922541,34.065493],[133.922531,34.065504],[133.922524,34.065511],[133.922516,34.06552],[133.92249,34.065544],[133.922455,34.065565],[133.922404,34.065582],[133.922346,34.065601],[133.922291,34.065623],[133.922251,34.065653],[133.922237,34.065671],[133.922226,34.065692],[133.922212,34.065737],[133.922202,34.065789],[133.922192,34.065845],[133.922181,34.065903],[133.922168,34.065959],[133.922157,34.06601],[133.922143,34.066055],[133.922128,34.066096],[133.922113,34.066134],[133.922095,34.066169],[133.922074,34.066202],[133.922052,34.066232],[133.922025,34.066259],[133.921993,34.066281],[133.921961,34.066301],[133.921926,34.066318],[133.921891,34.066335],[133.921859,34.066353],[133.921839,34.066375],[133.921834,34.066391],[133.921832,34.066407],[133.921839,34.066447],[133.921855,34.066492],[133.921873,34.066539],[133.921887,34.066595],[133.921905,34.066676],[133.921914,34.066711],[133.921928,34.066818],[133.921939,34.066925],[133.921947,34.067031],[133.92195,34.067138],[133.921943,34.067241],[133.921921,34.067338],[133.921905,34.067386],[133.921885,34.067433],[133.921835,34.067527],[133.92177,34.067621],[133.921699,34.067719],[133.921663,34.06777],[133.921594,34.067877],[133.92153,34.067992],[133.921464,34.068116],[133.921393,34.068247],[133.921316,34.068379],[133.921275,34.068438],[133.921232,34.068493],[133.92119,34.068538],[133.921146,34.068572],[133.921101,34.068598],[133.921058,34.068618],[133.920977,34.068645],[133.920906,34.068671],[133.920874,34.06869],[133.920843,34.068711],[133.920778,34.068773],[133.920702,34.068865],[133.920614,34.068981],[133.920525,34.069104],[133.920447,34.069213],[133.920381,34.069304],[133.920325,34.069382],[133.920275,34.069453],[133.920224,34.069519],[133.920164,34.069578],[133.920129,34.069605],[133.920089,34.06963],[133.919998,34.069674],[133.919917,34.069704],[133.919736,34.069795],[133.919701,34.069813],[133.919637,34.069849],[133.919607,34.069872],[133.919577,34.069904],[133.919545,34.069945],[133.919482,34.070045],[133.919455,34.070098],[133.919411,34.070198],[133.919379,34.070282],[133.919349,34.070358],[133.91933,34.070396],[133.919287,34.070472],[133.919238,34.070545],[133.91921,34.070579],[133.919154,34.070646],[133.919098,34.070714],[133.919042,34.070789],[133.918988,34.070866],[133.918933,34.070939],[133.918879,34.071005],[133.918824,34.07107],[133.918766,34.071132],[133.918707,34.071192],[133.918703,34.071195],[133.918645,34.071247],[133.918585,34.071299],[133.918558,34.071328],[133.918511,34.071387],[133.918492,34.07142],[133.918459,34.071487],[133.918428,34.071553],[133.918394,34.071613],[133.918351,34.071664],[133.918295,34.071704],[133.918233,34.071741],[133.918173,34.071781],[133.918115,34.071829],[133.918095,34.071854],[133.918067,34.071887],[133.918023,34.071955],[133.917974,34.072026],[133.917944,34.072059],[133.917908,34.072089],[133.917867,34.072117],[133.91778,34.072175],[133.917739,34.072207],[133.917701,34.072241],[133.917633,34.072316],[133.917571,34.072391],[133.917506,34.072456],[133.917447,34.072515],[133.917405,34.072575],[133.917391,34.072605],[133.917373,34.07267],[133.917359,34.07274],[133.917343,34.072812],[133.917321,34.072883],[133.917304,34.072915],[133.917265,34.072979],[133.917221,34.073048],[133.917176,34.073126],[133.917135,34.073209],[133.9171,34.07329],[133.917067,34.073365],[133.917031,34.073436],[133.916984,34.073502],[133.916954,34.073534],[133.91688,34.073594],[133.916784,34.073647],[133.916733,34.073671],[133.916635,34.073705],[133.91655,34.073723],[133.916475,34.073737],[133.916437,34.073751],[133.916396,34.073769],[133.916307,34.07382],[133.91621,34.073878],[133.916106,34.073932],[133.916011,34.073984],[133.915972,34.074011],[133.915939,34.074039],[133.915878,34.074089],[133.915842,34.074108],[133.915795,34.074123],[133.915734,34.074129],[133.915665,34.074131],[133.91552,34.074132],[133.915456,34.074137],[133.915403,34.074147],[133.91536,34.074162],[133.915324,34.074181],[133.915292,34.074204],[133.915228,34.07425],[133.915156,34.074299],[133.915078,34.074354],[133.914993,34.074417],[133.914905,34.074485],[133.914818,34.074555],[133.914731,34.074622],[133.914649,34.074686],[133.914572,34.074744],[133.914498,34.074799],[133.914426,34.074851],[133.914355,34.074901],[133.914286,34.074955],[133.914219,34.075011],[133.91415,34.075066],[133.914113,34.075091],[133.914073,34.075112],[133.914032,34.07513],[133.913946,34.075159],[133.913862,34.075178],[133.913779,34.075194],[133.913695,34.075213],[133.913608,34.07524],[133.91352,34.075277],[133.913439,34.075318],[133.913366,34.075365],[133.913334,34.07539],[133.913281,34.075447],[133.91326,34.075478],[133.913226,34.075545],[133.913163,34.075722],[133.913144,34.075777],[133.91311,34.075859],[133.913085,34.075899],[133.913025,34.075979],[133.912956,34.076053],[133.912854,34.076151],[133.912753,34.076249],[133.912659,34.076357],[133.912617,34.076416],[133.912579,34.076478],[133.912549,34.076541],[133.912527,34.076607],[133.912513,34.076662],[133.912506,34.076718],[133.912505,34.076775],[133.91251,34.076833],[133.912521,34.076889],[133.912536,34.076942],[133.91257,34.077048],[133.912581,34.0771],[133.912584,34.077152],[133.912576,34.077205],[133.91256,34.077257],[133.912539,34.077309],[133.912496,34.077415],[133.912478,34.077474],[133.912466,34.077534],[133.912459,34.077594],[133.912455,34.077655],[133.912455,34.077716],[133.912458,34.077833],[133.912454,34.077949],[133.912447,34.078006],[133.912432,34.078064],[133.91241,34.07812],[133.912386,34.078176],[133.912357,34.078232],[133.9123,34.078331],[133.912256,34.078416],[133.912241,34.078459],[133.912234,34.078503],[133.912234,34.078554],[133.912245,34.078605],[133.91226,34.078656],[133.912299,34.078761],[133.912325,34.078862],[133.912343,34.078964],[133.912353,34.079079],[133.912351,34.079205],[133.912341,34.079267],[133.912324,34.079327],[133.912301,34.079378],[133.912273,34.079427],[133.912239,34.079476],[133.912167,34.079572],[133.91209,34.079665],[133.912048,34.079709],[133.912002,34.079749],[133.911953,34.079784],[133.911894,34.079814],[133.911841,34.079834],[133.911767,34.079862],[133.911637,34.079909],[133.911564,34.079943],[133.911496,34.079982],[133.911433,34.080025],[133.911372,34.080072],[133.911267,34.080167],[133.911195,34.080237],[133.911174,34.080259],[133.911078,34.080346],[133.911014,34.080393],[133.910946,34.080438],[133.910876,34.08048],[133.91073,34.080557],[133.910618,34.08061],[133.910507,34.080665],[133.910453,34.080695],[133.91038,34.080737],[133.91031,34.080784],[133.910235,34.080846],[133.910195,34.080884],[133.910119,34.080962],[133.910035,34.081047],[133.909941,34.081136],[133.909844,34.081225],[133.90973,34.081322],[133.90967,34.081368],[133.909607,34.081411],[133.909541,34.081449],[133.909498,34.081469],[133.909411,34.081502],[133.909319,34.081528],[133.909228,34.081544],[133.909136,34.081557],[133.909035,34.081576],[133.908981,34.081589],[133.908929,34.081605],[133.90888,34.081625],[133.908836,34.08165],[133.908788,34.081686],[133.908746,34.081727],[133.908709,34.081773],[133.908637,34.081866],[133.908602,34.081906],[133.908535,34.081989],[133.908507,34.082034],[133.908486,34.082083],[133.908473,34.082124],[133.908449,34.082203],[133.90843,34.082237],[133.908403,34.082261],[133.908376,34.082272],[133.908344,34.082279],[133.908309,34.082282],[133.908239,34.082291],[133.908184,34.082304],[133.908134,34.082323],[133.908088,34.082349],[133.908044,34.082377],[133.907953,34.082439],[133.907863,34.082505],[133.907822,34.08254],[133.907785,34.08258],[133.907755,34.082618],[133.907731,34.082658],[133.907712,34.082701],[133.907699,34.082744],[133.907693,34.082789],[133.907693,34.082834],[133.9077,34.082879],[133.907712,34.082924],[133.907728,34.082969],[133.907774,34.083058],[133.907829,34.083149],[133.907883,34.083242],[133.907915,34.08332],[133.907925,34.083359],[133.90793,34.083399],[133.907928,34.083439],[133.907909,34.083494],[133.907875,34.083546],[133.907855,34.08357],[133.907826,34.083599],[133.907762,34.08365],[133.907694,34.083697],[133.907567,34.083775],[133.907437,34.083849],[133.907303,34.083922],[133.907166,34.083995],[133.907025,34.084065],[133.906867,34.084136],[133.906713,34.084211],[133.906639,34.084253],[133.906567,34.084299],[133.906499,34.084349],[133.906436,34.084404],[133.906378,34.084462],[133.906327,34.084523],[133.906307,34.084563],[133.90629,34.084597],[133.906234,34.084761],[133.906212,34.084805],[133.906188,34.084836],[133.906151,34.084873],[133.906115,34.084909],[133.90608,34.084946],[133.906047,34.084984],[133.906007,34.085023],[133.90598,34.085042],[133.905908,34.085079],[133.905803,34.085113],[133.90568,34.085145],[133.90556,34.085172],[133.905461,34.085196],[133.905382,34.085218],[133.905308,34.085244],[133.905222,34.08528],[133.905109,34.085326],[133.904987,34.08538],[133.904873,34.08543],[133.904786,34.08547],[133.904727,34.085498],[133.904681,34.085518],[133.904627,34.085537],[133.904551,34.085557],[133.904458,34.085584],[133.904353,34.085622],[133.904243,34.085672],[133.904188,34.085703],[133.904081,34.085771],[133.903985,34.085844],[133.903904,34.085918],[133.903839,34.085989],[133.903745,34.086109],[133.903656,34.086213],[133.903555,34.086346],[133.903469,34.086445],[133.903393,34.086533],[133.903358,34.086583],[133.903322,34.086639],[133.903286,34.086703],[133.903276,34.086724],[133.903254,34.086773],[133.90323,34.086846],[133.903213,34.086921],[133.903205,34.086996],[133.903205,34.087025],[133.903206,34.087069],[133.903215,34.087139],[133.903231,34.087203],[133.903253,34.08726],[133.903278,34.087307],[133.903306,34.087346],[133.903337,34.087381],[133.903398,34.087446],[133.903451,34.087515],[133.903504,34.087592],[133.903564,34.087678],[133.903593,34.087724],[133.903617,34.087771],[133.903632,34.087821],[133.903634,34.087873],[133.903619,34.087927],[133.90359,34.087982],[133.903549,34.088039],[133.903501,34.088096],[133.903449,34.088153],[133.903336,34.088265],[133.903219,34.088375],[133.903098,34.088485],[133.902975,34.088592],[133.90285,34.088702],[133.902719,34.088812],[133.902581,34.088926],[133.902432,34.089047],[133.902274,34.089171],[133.902132,34.089283],[133.902117,34.089295],[133.901971,34.089413],[133.901842,34.089531],[133.901785,34.089591],[133.901732,34.08965],[133.901684,34.089713],[133.901643,34.089775],[133.901604,34.089838],[133.901539,34.089967],[133.901514,34.090032],[133.901493,34.090094],[133.90148,34.090152],[133.901473,34.090204],[133.901474,34.090249],[133.90148,34.09029],[133.90149,34.090331],[133.901516,34.09042],[133.901526,34.090474],[133.901532,34.090535],[133.901536,34.090599],[133.901535,34.090665],[133.90153,34.090732],[133.901518,34.090797],[133.901503,34.090859],[133.901482,34.090919],[133.901458,34.090975],[133.901431,34.091027],[133.9014,34.091074],[133.901366,34.091118],[133.901331,34.091159],[133.901251,34.091239],[133.901161,34.091319],[133.901064,34.09141],[133.900961,34.091516],[133.900861,34.09163],[133.900784,34.091727],[133.900737,34.091789],[133.900704,34.09184],[133.900683,34.091873],[133.900619,34.091996],[133.900575,34.092082],[133.900566,34.092099],[133.900508,34.09219],[133.900481,34.092238],[133.900455,34.092293],[133.900434,34.092357],[133.900415,34.092432],[133.9004,34.092515],[133.900388,34.092601],[133.900373,34.092755],[133.900365,34.092863],[133.900365,34.09294],[133.90037,34.093013],[133.900372,34.093098],[133.900367,34.093145],[133.900358,34.093197],[133.900317,34.09331],[133.90029,34.093367],[133.900238,34.09347],[133.900193,34.093547],[133.900159,34.093616],[133.90013,34.093699],[133.9001,34.093798],[133.900071,34.093915],[133.900057,34.094009],[133.900046,34.094111],[133.900039,34.094219],[133.900038,34.094321],[133.90004,34.09441],[133.90004,34.094451],[133.900035,34.094491],[133.900026,34.094531],[133.900011,34.094571],[133.899986,34.094612],[133.899955,34.094655],[133.899918,34.094699],[133.899834,34.094789],[133.899743,34.094885],[133.899651,34.094987],[133.899559,34.095101],[133.899468,34.09523],[133.899381,34.09537],[133.899308,34.095501],[133.899257,34.095611],[133.89923,34.095697],[133.899216,34.095779],[133.899204,34.095873],[133.899192,34.095981],[133.899189,34.096003],[133.899178,34.096093],[133.899163,34.096197],[133.899144,34.096287],[133.899116,34.096368],[133.899097,34.096405],[133.899047,34.096476],[133.898983,34.096546],[133.898902,34.096651],[133.898821,34.096787],[133.898758,34.096874],[133.898702,34.096984],[133.898708,34.097064],[133.898759,34.097132],[133.898844,34.097199],[133.89893,34.09723],[133.899002,34.097262],[133.899066,34.0973],[133.899126,34.097341],[133.89918,34.097384],[133.89923,34.097424],[133.899276,34.097462],[133.899321,34.097506],[133.899364,34.09756],[133.89941,34.097623],[133.89946,34.097694],[133.899518,34.097765],[133.899589,34.097839],[133.89963,34.097878],[133.899732,34.097963],[133.899858,34.098061],[133.900001,34.098166],[133.900147,34.098271],[133.900193,34.098305],[133.900281,34.098369],[133.900401,34.098459],[133.900503,34.098541],[133.900584,34.098616],[133.900651,34.098685],[133.900719,34.09875],[133.900791,34.098809],[133.900867,34.098858],[133.900955,34.098904],[133.901037,34.098945],[133.901121,34.09899],[133.901271,34.099098],[133.901315,34.099138],[133.901378,34.099237],[133.901402,34.099281],[133.901427,34.099352],[133.901447,34.099384],[133.901479,34.099414],[133.90152,34.099443],[133.901568,34.099467],[133.901673,34.099503],[133.901839,34.099553],[133.902058,34.099626],[133.902262,34.099698],[133.902419,34.099753],[133.902481,34.099776],[133.902538,34.099802],[133.902595,34.099833],[133.902715,34.099916],[133.902837,34.100008],[133.90292,34.100079],[133.902959,34.100121],[133.903131,34.100239],[133.903323,34.10038],[133.903534,34.100534],[133.903639,34.100604],[133.903816,34.100721],[133.903836,34.100732],[133.90364,34.100758],[133.90354,34.100733],[133.902203,34.100841],[133.90149,34.100791],[133.900741,34.100925],[133.900566,34.100991],[133.899753,34.102008],[133.898441,34.102974],[133.897728,34.103399],[133.896754,34.104349],[133.896279,34.104933],[133.895304,34.106057],[133.894941,34.106557],[133.894691,34.107032],[133.894454,34.107374],[133.893879,34.107707],[133.892929,34.108107],[133.892729,34.108065],[133.892466,34.107632],[133.892166,34.107291],[133.891516,34.107082],[133.890842,34.106807],[133.890517,34.106857],[133.890129,34.107016],[133.889804,34.107007],[133.889292,34.106874],[133.888804,34.106482],[133.888617,34.106057],[133.8882,34.105743],[133.8875,34.105587],[133.887241,34.105588],[133.885989,34.105714],[133.885875,34.105449],[133.885417,34.104882],[133.885034,34.104554],[133.88438,34.104433],[133.88368,34.104474],[133.883267,34.104541],[133.882805,34.104449],[133.882617,34.104332],[133.882105,34.104099],[133.880767,34.104116],[133.880167,34.104049],[133.877455,34.103158],[133.876918,34.102724],[133.87678,34.102516],[133.87673,34.102091],[133.876293,34.101924],[133.875412,34.101885],[133.875005,34.10165],[133.874642,34.101468],[133.873927,34.101047],[133.873564,34.100915],[133.873193,34.100869],[133.872735,34.100867],[133.872549,34.100896],[133.872405,34.100958],[133.872028,34.101092],[133.871773,34.101128],[133.871596,34.101183],[133.871403,34.101323],[133.871179,34.101432],[133.87098,34.101574],[133.870218,34.101408],[133.868656,34.100658],[133.867781,34.100333],[133.867206,34.100199],[133.866856,34.100183],[133.866631,34.100366],[133.866343,34.100866],[133.866143,34.101433],[133.865344,34.102524],[133.865244,34.103091],[133.865306,34.103541],[133.865256,34.103724],[133.865019,34.104091],[133.864669,34.104316],[133.864356,34.10464],[133.863544,34.104899],[133.862956,34.105357],[133.862357,34.105407],[133.862007,34.10534],[133.861182,34.105015],[133.860144,34.10464],[133.859932,34.104674],[133.859357,34.104857],[133.858832,34.105274],[133.858507,34.105299],[133.857982,34.105007],[133.85727,34.104749],[133.856395,34.104532],[133.855445,34.10439],[133.854732,34.104174],[133.854157,34.103774],[133.853682,34.103216],[133.852907,34.102591],[133.851783,34.101732],[133.851233,34.101216],[133.850833,34.100616],[133.850383,34.099449],[133.85002,34.099133],[133.849808,34.099183],[133.849558,34.099166],[133.849183,34.099008],[133.84857,34.098699],[133.847346,34.097908],[133.846683,34.097666],[133.846133,34.097333],[133.845796,34.096908],[133.845446,34.096533],[133.844946,34.096316],[133.844233,34.096166],[133.843446,34.095925],[133.842759,34.095524],[133.842346,34.095108],[133.842159,34.094991],[133.841559,34.094933],[133.840046,34.095199],[133.839359,34.095208],[133.838759,34.095174],[133.838172,34.095341],[133.837472,34.095733],[133.836997,34.096324],[133.836734,34.096799],[133.836509,34.096866],[133.836059,34.096899],[133.835434,34.097066],[133.834897,34.097432],[133.834359,34.097682],[133.833872,34.097691],[133.833435,34.097566],[133.832497,34.096874],[133.83186,34.096249],[133.83131,34.095832],[133.830647,34.095549],[133.829673,34.095332],[133.82926,34.095266],[133.828498,34.095074],[133.828335,34.094924],[133.827735,34.094566],[133.826348,34.094516],[133.825748,34.094299],[133.824536,34.093707],[133.823686,34.093357],[133.823086,34.093049],[133.822361,34.092266],[133.821948,34.091958],[133.821723,34.091441],[133.821748,34.090899],[133.822048,34.090041],[133.822473,34.089533],[133.822561,34.089491],[133.822848,34.089125],[133.822898,34.088675],[133.822748,34.088066],[133.822736,34.08755],[133.822873,34.087075],[133.823136,34.086708],[133.823161,34.086633],[133.823123,34.086567],[133.823398,34.086392],[133.823511,34.086117],[133.822873,34.084633],[133.822348,34.084225],[133.821998,34.083867],[133.821773,34.083392],[133.821411,34.083084],[133.821361,34.083084],[133.820486,34.082584],[133.819986,34.08195],[133.820074,34.08155],[133.820167,34.081356],[133.820174,34.081342],[133.820036,34.0806],[133.819574,34.080201],[133.818861,34.079859],[133.818724,34.079751],[133.818586,34.079434],[133.818886,34.078734],[133.819161,34.077717],[133.819186,34.077067],[133.819161,34.076326],[133.819221,34.076002],[133.819261,34.075784],[133.819186,34.075401],[133.819011,34.074951],[133.819261,34.074501],[133.820086,34.074026],[133.820386,34.074068],[133.822623,34.074226],[133.822973,34.074043],[133.823136,34.073235],[133.823436,34.072826],[133.823548,34.072735],[133.823748,34.072376],[133.824623,34.071993],[133.825835,34.07161],[133.826135,34.071402],[133.82646,34.07086],[133.826623,34.07021],[133.826935,34.069644],[133.827073,34.069485],[133.82776,34.06906],[133.82891,34.068652],[133.829348,34.068336],[133.829368,34.068278],[133.829435,34.068086],[133.829455,34.067751],[133.82946,34.067661],[133.829785,34.067144],[133.830035,34.066602],[133.830385,34.066103],[133.830885,34.065586],[133.831322,34.065203],[133.831847,34.064819],[133.83226,34.064345],[133.83256,34.063445],[133.832697,34.062861],[133.832672,34.06227],[133.83281,34.061686],[133.83286,34.061145],[133.83316,34.060828],[133.83341,34.060653],[133.833547,34.060287],[133.833822,34.060112],[133.834447,34.06027],[133.835059,34.060195],[133.835197,34.060112],[133.835447,34.059812],[133.835609,34.059495],[133.835973,34.059433],[133.83648,34.059346],[133.836534,34.059337],[133.836672,34.059229],[133.836984,34.058779],[133.837397,34.058462],[133.837763,34.058149],[133.837929,34.057896],[133.838066,34.05734],[133.837982,34.05701],[133.837979,34.056955],[133.838005,34.056911],[133.838178,34.056768],[133.838321,34.056613],[133.838709,34.056296],[133.839171,34.055963],[133.840546,34.054988],[133.841076,34.054597],[133.842352,34.053657],[133.843651,34.0527],[133.848026,34.049647],[133.850487,34.04789],[133.850596,34.047813],[133.853287,34.045971],[133.852837,34.045938],[133.853241,34.045653],[133.853615,34.045374],[133.853872,34.04535],[133.853999,34.045251],[133.854023,34.045192],[133.854022,34.045083],[133.853986,34.044957],[133.853977,34.044841],[133.853914,34.044719],[133.853728,34.044537],[133.853404,34.044253],[133.853327,34.044128],[133.853288,34.04396],[133.853309,34.043846],[133.853394,34.043722],[133.8537,34.043429],[133.853744,34.04332],[133.853695,34.042821],[133.853574,34.042435],[133.853268,34.04164],[133.852966,34.041228],[133.852908,34.041023],[133.852917,34.040867],[133.853181,34.040505],[133.853156,34.040191],[133.853212,34.040099],[133.853455,34.039938],[133.853529,34.039851],[133.853514,34.039745],[133.853392,34.03951],[133.853336,34.039426],[133.853359,34.039332],[133.853362,34.039317],[133.853436,34.039208],[133.853568,34.039111],[133.853668,34.038988],[133.853668,34.038857],[133.853521,34.03854],[133.853551,34.038382],[133.853818,34.038114],[133.853844,34.038052],[133.853796,34.037958],[133.853802,34.03785],[133.853751,34.037696],[133.853783,34.037526],[133.853963,34.037278],[133.854095,34.037043],[133.854176,34.036809],[133.854214,34.036633],[133.854208,34.036338],[133.854211,34.035899],[133.854184,34.035608],[133.854151,34.035435],[133.855092,34.035706],[133.855451,34.035859],[133.855776,34.036006],[133.856061,34.036138],[133.856291,34.036227],[133.856524,34.036288],[133.856732,34.036327],[133.856914,34.03633],[133.857125,34.036315],[133.85808,34.036118],[133.858522,34.036076],[133.858693,34.036024],[133.859112,34.035896],[133.85978,34.035786],[133.859867,34.035771],[133.85996,34.035756],[133.860482,34.035667],[133.86079,34.035615],[133.860836,34.035607],[133.860849,34.035604],[133.861087,34.035541],[133.861803,34.035349],[133.862056,34.03531],[133.862862,34.035185],[133.862968,34.035151],[133.863117,34.035103],[133.863216,34.035071],[133.863299,34.035045],[133.863443,34.034998],[133.863546,34.034968],[133.86404,34.034792],[133.864247,34.034765],[133.864902,34.03468],[133.86563,34.034563],[133.865908,34.034518],[133.866454,34.03443],[133.867024,34.034295],[133.867789,34.034184],[133.868728,34.034079],[133.869595,34.034146],[133.869816,34.034168],[133.869945,34.034181],[133.870604,34.034247],[133.87101,34.034244],[133.871718,34.034238],[133.872667,34.034242],[133.872746,34.034243],[133.873914,34.034248],[133.87437,34.034322],[133.874922,34.034322],[133.87518,34.034246],[133.875535,34.034168],[133.876019,34.034053],[133.876621,34.033917],[133.876817,34.033825],[133.87722,34.033638],[133.877809,34.033403],[133.878063,34.033252],[133.87815,34.0332],[133.878307,34.032973],[133.878817,34.032183],[133.879006,34.031946],[133.879234,34.031865],[133.879348,34.031824],[133.87951,34.031767],[133.8801,34.031587],[133.880433,34.031482],[133.880649,34.031443],[133.880926,34.031419],[133.881026,34.03141],[133.881075,34.031413],[133.881503,34.031438],[133.882013,34.031511],[133.882428,34.031648],[133.882874,34.03174],[133.883288,34.031877],[133.883335,34.031896],[133.883374,34.031913],[133.883518,34.031972],[133.883832,34.032012],[133.884498,34.032244],[133.884988,34.032371],[133.885599,34.032577],[133.88607,34.032803],[133.886235,34.032926],[133.886554,34.033119],[133.886982,34.033364],[133.887409,34.033573],[133.887989,34.033851],[133.888412,34.034072],[133.88879,34.03427],[133.889098,34.034481],[133.889556,34.034653],[133.89015,34.035039],[133.890535,34.035284],[133.890856,34.035448]]]},"properties":{"code":"36489","name":"東みよし町"}}]}