{"type":"FeatureCollection","features":[{"type":"Feature","geometry":{"type":"Polygon","coordinates":[[[134.500067,34.124013],[134.499985,34.124106],[134.499983,34.124445],[134.499819,34.124926],[134.499612,34.125341],[134.499233,34.125948],[134.499075,34.126325],[134.49891,34.12687],[134.498665,34.127363],[134.498434,34.127639],[134.498043,34.128075],[134.49793,34.128173],[134.497802,34.128242],[134.497735,34.128304],[134.497506,34.128518],[134.497467,34.128555],[134.497295,34.128827],[134.497122,34.129099],[134.497113,34.129114],[134.497088,34.12915],[134.496999,34.129285],[134.496968,34.129383],[134.496959,34.129562],[134.496556,34.12884],[134.496274,34.12916],[134.496042,34.129383],[134.495596,34.129683],[134.495389,34.12949],[134.494964,34.129756],[134.494467,34.130019],[134.493908,34.130287],[134.493653,34.130405],[134.493823,34.130635],[134.493964,34.130833],[134.493937,34.130836],[134.493908,34.130842],[134.493878,34.130852],[134.493846,34.130868],[134.493814,34.130886],[134.493783,34.130904],[134.493751,34.130922],[134.493717,34.130938],[134.493681,34.130957],[134.493636,34.13098],[134.493611,34.130995],[134.493586,34.131009],[134.49353,34.131043],[134.493469,34.131079],[134.493405,34.131116],[134.493341,34.131152],[134.493281,34.131186],[134.493228,34.131216],[134.493182,34.131242],[134.493141,34.131262],[134.4931,34.13128],[134.493057,34.131293],[134.493014,34.131305],[134.49297,34.131319],[134.49293,34.131339],[134.492894,34.131362],[134.492856,34.131389],[134.492819,34.131416],[134.492777,34.131442],[134.492731,34.131465],[134.492685,34.131486],[134.492639,34.131504],[134.492593,34.13152],[134.492551,34.131534],[134.492516,34.131548],[134.492485,34.13156],[134.492462,34.131571],[134.492441,34.131583],[134.492421,34.131593],[134.4924,34.131603],[134.492378,34.131614],[134.492352,34.131625],[134.492319,34.131638],[134.492282,34.131653],[134.492237,34.131671],[134.492187,34.131695],[134.492128,34.131723],[134.492066,34.131752],[134.492002,34.13178],[134.491937,34.131803],[134.491876,34.131822],[134.491818,34.131839],[134.491765,34.131854],[134.491719,34.131867],[134.49168,34.13188],[134.491652,34.131893],[134.491632,34.131905],[134.491616,34.131917],[134.4916,34.131929],[134.491579,34.131939],[134.491552,34.131947],[134.491522,34.131956],[134.491491,34.131966],[134.491459,34.131976],[134.491432,34.131987],[134.491407,34.131996],[134.491388,34.131998],[134.491372,34.131997],[134.491359,34.131991],[134.491347,34.131985],[134.49124,34.131999],[134.491247,34.132115],[134.491169,34.13214],[134.491075,34.132136],[134.491057,34.132019],[134.490946,34.132028],[134.490828,34.132036],[134.490771,34.132038],[134.490717,34.132036],[134.490665,34.132033],[134.490614,34.132031],[134.490563,34.13203],[134.49051,34.132033],[134.490458,34.132041],[134.49041,34.132052],[134.490365,34.132065],[134.490324,34.132079],[134.490283,34.132094],[134.490236,34.132108],[134.490177,34.132119],[134.490114,34.13213],[134.490054,34.132135],[134.49,34.132138],[134.489907,34.132149],[134.489892,34.132151],[134.488651,34.132002],[134.488502,34.131992],[134.488424,34.132],[134.488199,34.132076],[134.487945,34.132114],[134.487934,34.132116],[134.487796,34.132136],[134.487664,34.132126],[134.487349,34.132065],[134.487086,34.131997],[134.486707,34.131862],[134.486321,34.131787],[134.486019,34.131708],[134.485595,34.131626],[134.485561,34.13162],[134.485367,34.131582],[134.484703,34.131445],[134.484594,34.131432],[134.4845,34.131427],[134.484454,34.131349],[134.484376,34.131282],[134.48426,34.131243],[134.4839,34.131086],[134.483632,34.130948],[134.483541,34.130879],[134.483438,34.130775],[134.483341,34.13067],[134.483222,34.130542],[134.483049,34.130345],[134.482974,34.130244],[134.482927,34.130108],[134.482868,34.129699],[134.482848,34.129337],[134.483024,34.129332],[134.483187,34.129328],[134.483522,34.129448],[134.483682,34.129099],[134.483475,34.128903],[134.483564,34.128621],[134.483214,34.128254],[134.483142,34.128178],[134.482545,34.128644],[134.482237,34.128382],[134.482097,34.128203],[134.482077,34.128164],[134.48179,34.128181],[134.481748,34.128096],[134.481639,34.127879],[134.481529,34.127661],[134.481521,34.127555],[134.481485,34.127417],[134.481477,34.127384],[134.481356,34.127117],[134.4811,34.126697],[134.480809,34.126303],[134.480534,34.12589],[134.480379,34.125658],[134.480211,34.125387],[134.480015,34.125017],[134.479663,34.124247],[134.479502,34.123779],[134.479874,34.123759],[134.480112,34.123732],[134.480058,34.123302],[134.48004,34.123162],[134.480002,34.122857],[134.479994,34.122781],[134.479756,34.120389],[134.479504,34.120385],[134.479627,34.120221],[134.479775,34.120127],[134.480119,34.120049],[134.481726,34.119831],[134.481895,34.119808],[134.483871,34.119538],[134.483932,34.119879],[134.484915,34.119797],[134.485392,34.119718],[134.485855,34.119623],[134.486019,34.119589],[134.486203,34.119537],[134.48631,34.119464],[134.486671,34.119398],[134.486855,34.119342],[134.487309,34.119086],[134.487761,34.118881],[134.487919,34.118844],[134.488266,34.11882],[134.488683,34.118778],[134.488871,34.118743],[134.488943,34.118712],[134.489,34.118658],[134.4892,34.118449],[134.489327,34.118333],[134.489381,34.118285],[134.489582,34.118157],[134.489994,34.117877],[134.4904,34.117647],[134.49045,34.117618],[134.490773,34.117399],[134.49093,34.11728],[134.491307,34.117848],[134.491565,34.118153],[134.49184,34.118381],[134.491995,34.118485],[134.492023,34.119125],[134.492132,34.119139],[134.492298,34.11918],[134.492512,34.11924],[134.492745,34.119357],[134.493093,34.119562],[134.493263,34.119672],[134.493487,34.119818],[134.494116,34.120251],[134.494121,34.120305],[134.494344,34.120288],[134.494752,34.120301],[134.495595,34.120983],[134.495704,34.121057],[134.495815,34.121096],[134.497535,34.121316],[134.497662,34.121321],[134.497782,34.121308],[134.49823,34.121198],[134.499197,34.120913],[134.499301,34.120879],[134.499227,34.120647],[134.499196,34.120594],[134.499131,34.120531],[134.498774,34.120232],[134.498613,34.120071],[134.49816,34.119598],[134.498624,34.119181],[134.498602,34.119164],[134.498471,34.119276],[134.498229,34.1191],[134.49833,34.11901],[134.498862,34.118489],[134.499131,34.118678],[134.499174,34.118631],[134.499212,34.118653],[134.500776,34.117249],[134.501591,34.116524],[134.502512,34.115668],[134.50352,34.114706],[134.504119,34.114135],[134.504188,34.114069],[134.504664,34.113609],[134.504724,34.113551],[134.504746,34.113607],[134.504694,34.113623],[134.504638,34.11374],[134.504639,34.113817],[134.504893,34.11453],[134.50524,34.115743],[134.505703,34.117359],[134.505965,34.118417],[134.50609,34.118463],[134.505775,34.118438],[134.50572,34.118791],[134.505475,34.119906],[134.505249,34.120723],[134.504057,34.120762],[134.503657,34.120762],[134.503124,34.120742],[134.50225,34.120694],[134.502212,34.120783],[134.502141,34.120945],[134.502041,34.121107],[134.501945,34.121213],[134.501811,34.121291],[134.501466,34.12189],[134.50144,34.122049],[134.501436,34.122147],[134.501441,34.12231],[134.501445,34.122435],[134.500746,34.123235],[134.500686,34.123303],[134.500067,34.124013]]]},"properties":{"S_NAME":"奥野","KEY_CODE":"364030010"}},{"type":"Feature","geometry":{"type":"Polygon","coordinates":[[[134.481895,34.119808],[134.481726,34.119831],[134.480119,34.120049],[134.479775,34.120127],[134.479627,34.120221],[134.479504,34.120385],[134.479756,34.120389],[134.479994,34.122781],[134.480002,34.122857],[134.48004,34.123162],[134.480058,34.123302],[134.480112,34.123732],[134.479874,34.123759],[134.479502,34.123779],[134.479663,34.124247],[134.480015,34.125017],[134.480211,34.125387],[134.480379,34.125658],[134.480534,34.12589],[134.480809,34.126303],[134.4811,34.126697],[134.481356,34.127117],[134.481477,34.127384],[134.481485,34.127417],[134.481521,34.127555],[134.481529,34.127661],[134.481639,34.127879],[134.481748,34.128096],[134.48179,34.128181],[134.482077,34.128164],[134.482097,34.128203],[134.482237,34.128382],[134.482545,34.128644],[134.483142,34.128178],[134.483214,34.128254],[134.483564,34.128621],[134.483475,34.128903],[134.483682,34.129099],[134.483522,34.129448],[134.483187,34.129328],[134.483024,34.129332],[134.482848,34.129337],[134.482868,34.129699],[134.482927,34.130108],[134.482974,34.130244],[134.483049,34.130345],[134.483222,34.130542],[134.483341,34.13067],[134.483208,34.130809],[134.48317,34.130868],[134.483153,34.130926],[134.48301,34.13204],[134.482939,34.132666],[134.482931,34.132736],[134.48292,34.132834],[134.482913,34.133489],[134.482908,34.133918],[134.482897,34.134843],[134.482822,34.134854],[134.482092,34.134957],[134.482073,34.134959],[134.47993,34.135276],[134.477924,34.135573],[134.47792,34.135541],[134.477774,34.134402],[134.477599,34.133227],[134.477455,34.132562],[134.477112,34.130708],[134.476593,34.130679],[134.47661,34.130518],[134.475965,34.130268],[134.474034,34.129964],[134.473983,34.129956],[134.472945,34.129825],[134.470375,34.129503],[134.470391,34.129201],[134.470403,34.128504],[134.470493,34.126392],[134.470749,34.123039],[134.470761,34.122887],[134.470786,34.122556],[134.471072,34.120327],[134.471074,34.120298],[134.471088,34.120098],[134.471162,34.119011],[134.47118,34.118808],[134.469847,34.118658],[134.466577,34.118123],[134.466044,34.118036],[134.46413,34.117709],[134.461634,34.117233],[134.459322,34.116849],[134.457786,34.11657],[134.458067,34.11323],[134.458105,34.112427],[134.458156,34.11217],[134.458252,34.111851],[134.458368,34.111441],[134.458475,34.110963],[134.458572,34.110686],[134.458702,34.11026],[134.458822,34.110307],[134.459215,34.110457],[134.460662,34.110899],[134.461609,34.111149],[134.462307,34.11134],[134.462685,34.111443],[134.464,34.111743],[134.46473,34.111977],[134.465872,34.112288],[134.467558,34.112755],[134.468077,34.112826],[134.468524,34.112887],[134.469662,34.112973],[134.470682,34.113075],[134.470703,34.113077],[134.471267,34.113116],[134.471787,34.113155],[134.472285,34.113149],[134.472404,34.113143],[134.472989,34.113113],[134.473735,34.113032],[134.47436,34.112845],[134.474952,34.112639],[134.475447,34.112453],[134.476199,34.11212],[134.477091,34.111686],[134.477788,34.111281],[134.478462,34.110822],[134.478979,34.110385],[134.479053,34.110323],[134.479176,34.110219],[134.479317,34.1101],[134.479766,34.109751],[134.479787,34.111041],[134.479825,34.11411],[134.479835,34.115582],[134.479859,34.116873],[134.479892,34.118483],[134.479924,34.118548],[134.480012,34.118627],[134.480314,34.118878],[134.48049,34.119004],[134.481741,34.119719],[134.481895,34.119808]]]},"properties":{"S_NAME":"東中富","KEY_CODE":"364030020"}},{"type":"Feature","geometry":{"type":"Polygon","coordinates":[[[134.504664,34.113609],[134.504188,34.114069],[134.504119,34.114135],[134.50352,34.114706],[134.502512,34.115668],[134.501591,34.116524],[134.500776,34.117249],[134.499212,34.118653],[134.499174,34.118631],[134.499131,34.118678],[134.498862,34.118489],[134.49833,34.11901],[134.498229,34.1191],[134.498471,34.119276],[134.498602,34.119164],[134.498624,34.119181],[134.49816,34.119598],[134.498613,34.120071],[134.498774,34.120232],[134.499131,34.120531],[134.499196,34.120594],[134.499227,34.120647],[134.499301,34.120879],[134.499197,34.120913],[134.49823,34.121198],[134.497782,34.121308],[134.497662,34.121321],[134.497535,34.121316],[134.495815,34.121096],[134.495704,34.121057],[134.495595,34.120983],[134.494752,34.120301],[134.494344,34.120288],[134.494121,34.120305],[134.494116,34.120251],[134.493487,34.119818],[134.493263,34.119672],[134.493093,34.119562],[134.492745,34.119357],[134.492512,34.11924],[134.492298,34.11918],[134.492132,34.119139],[134.492023,34.119125],[134.491995,34.118485],[134.49184,34.118381],[134.491565,34.118153],[134.491307,34.117848],[134.49093,34.11728],[134.490773,34.117399],[134.49045,34.117618],[134.4904,34.117647],[134.489994,34.117877],[134.489582,34.118157],[134.489381,34.118285],[134.489327,34.118333],[134.4892,34.118449],[134.489,34.118658],[134.488943,34.118712],[134.488871,34.118743],[134.488683,34.118778],[134.488266,34.11882],[134.487919,34.118844],[134.487761,34.118881],[134.487309,34.119086],[134.486855,34.119342],[134.486671,34.119398],[134.48631,34.119464],[134.486203,34.119537],[134.486019,34.119589],[134.485855,34.119623],[134.485392,34.119718],[134.484915,34.119797],[134.483932,34.119879],[134.483871,34.119538],[134.481895,34.119808],[134.481741,34.119719],[134.48049,34.119004],[134.480314,34.118878],[134.480012,34.118627],[134.479924,34.118548],[134.479892,34.118483],[134.479859,34.116873],[134.479835,34.115582],[134.479825,34.11411],[134.479787,34.111041],[134.479766,34.109751],[134.480268,34.109359],[134.481071,34.1088],[134.481126,34.108762],[134.481724,34.10835],[134.481709,34.108319],[134.482474,34.1079],[134.482818,34.107742],[134.48312,34.107631],[134.483507,34.107473],[134.484054,34.107196],[134.484442,34.107056],[134.484744,34.10698],[134.485067,34.106896],[134.485338,34.106901],[134.485444,34.106892],[134.485566,34.106881],[134.487326,34.106868],[134.48747,34.106867],[134.489343,34.106951],[134.489998,34.106948],[134.49078,34.106988],[134.491222,34.107011],[134.491238,34.107012],[134.491246,34.107013],[134.492419,34.107114],[134.493065,34.107171],[134.493195,34.107183],[134.493238,34.10719],[134.49374,34.107271],[134.494917,34.107441],[134.495446,34.10754],[134.495462,34.107543],[134.495476,34.107546],[134.496082,34.107675],[134.496627,34.107767],[134.497163,34.107836],[134.497199,34.107841],[134.497835,34.107897],[134.497859,34.107899],[134.498014,34.107911],[134.498294,34.107931],[134.49852,34.10794],[134.498809,34.108031],[134.499152,34.108163],[134.499403,34.108235],[134.499953,34.108283],[134.500571,34.108301],[134.500982,34.108289],[134.501169,34.108268],[134.502805,34.107938],[134.505254,34.107497],[134.505032,34.109882],[134.505036,34.11046],[134.505396,34.111931],[134.505424,34.112056],[134.505546,34.112533],[134.505595,34.112724],[134.505631,34.11283],[134.505668,34.112937],[134.505708,34.113028],[134.5057,34.113054],[134.505394,34.113116],[134.505007,34.113195],[134.505001,34.113197],[134.504956,34.113206],[134.504983,34.113315],[134.504583,34.113377],[134.504664,34.113609]]]},"properties":{"S_NAME":"徳命","KEY_CODE":"364030030"}},{"type":"Feature","geometry":{"type":"Polygon","coordinates":[[[134.488989,34.139465],[134.488971,34.139542],[134.488876,34.140276],[134.488875,34.140492],[134.488891,34.140692],[134.488901,34.140829],[134.488936,34.141064],[134.489026,34.14135],[134.489027,34.141352],[134.489115,34.141612],[134.489138,34.141681],[134.489151,34.141748],[134.489187,34.141942],[134.48924,34.142495],[134.489271,34.142557],[134.489356,34.142651],[134.48944,34.142776],[134.48951,34.14292],[134.48953,34.142984],[134.489612,34.14324],[134.489836,34.143667],[134.489943,34.143872],[134.490066,34.144075],[134.490098,34.144188],[134.49015,34.14443],[134.490153,34.144508],[134.490163,34.144754],[134.490164,34.145156],[134.490146,34.145351],[134.490014,34.145786],[134.489902,34.146195],[134.489817,34.146523],[134.489818,34.146614],[134.489865,34.146736],[134.490188,34.147155],[134.490324,34.147264],[134.490562,34.147611],[134.490709,34.147879],[134.490801,34.148259],[134.489887,34.148309],[134.489051,34.148323],[134.488,34.148237],[134.486963,34.147999],[134.486897,34.147983],[134.486855,34.147969],[134.486527,34.147832],[134.486491,34.147817],[134.486216,34.147669],[134.48591,34.147485],[134.485593,34.14727],[134.485273,34.146942],[134.484939,34.146562],[134.484769,34.14632],[134.484458,34.145937],[134.48425,34.145675],[134.484137,34.145557],[134.484022,34.145436],[134.483881,34.145296],[134.48369,34.145092],[134.48367,34.145071],[134.483668,34.145069],[134.483482,34.144887],[134.483263,34.144673],[134.483203,34.144602],[134.482908,34.144259],[134.482544,34.143928],[134.482329,34.143712],[134.482216,34.143621],[134.482137,34.143558],[134.482036,34.143494],[134.481963,34.143446],[134.482239,34.14303],[134.48195,34.142848],[134.481873,34.142916],[134.481319,34.142592],[134.480447,34.142066],[134.479248,34.141283],[134.478689,34.140869],[134.47831,34.140552],[134.477834,34.139998],[134.477478,34.139649],[134.47744,34.139565],[134.477375,34.138897],[134.477342,34.138564],[134.477202,34.137595],[134.477196,34.137556],[134.478181,34.137229],[134.477924,34.135573],[134.47993,34.135276],[134.482073,34.134959],[134.482092,34.134957],[134.482822,34.134854],[134.482897,34.134843],[134.482908,34.133918],[134.482913,34.133489],[134.48292,34.132834],[134.482931,34.132736],[134.482939,34.132666],[134.48301,34.13204],[134.483153,34.130926],[134.48317,34.130868],[134.483208,34.130809],[134.483341,34.13067],[134.483438,34.130775],[134.483541,34.130879],[134.483632,34.130948],[134.4839,34.131086],[134.48426,34.131243],[134.484376,34.131282],[134.484454,34.131349],[134.4845,34.131427],[134.484594,34.131432],[134.484703,34.131445],[134.485367,34.131582],[134.485561,34.13162],[134.485595,34.131626],[134.486019,34.131708],[134.486321,34.131787],[134.486707,34.131862],[134.487086,34.131997],[134.487349,34.132065],[134.487664,34.132126],[134.487796,34.132136],[134.487934,34.132116],[134.487945,34.132114],[134.488199,34.132076],[134.488424,34.132],[134.488502,34.131992],[134.488651,34.132002],[134.489892,34.132151],[134.489907,34.132149],[134.489863,34.132649],[134.489856,34.132897],[134.489875,34.133131],[134.489893,34.133285],[134.489915,34.133461],[134.48993,34.133518],[134.489938,34.133545],[134.489948,34.133575],[134.48996,34.133607],[134.489971,34.13364],[134.489979,34.133674],[134.489984,34.133711],[134.489985,34.133749],[134.48998,34.133789],[134.489972,34.133828],[134.489957,34.133867],[134.489939,34.133906],[134.489916,34.133942],[134.48989,34.133979],[134.489861,34.134011],[134.489832,34.134043],[134.489808,34.134073],[134.48979,34.134101],[134.489752,34.134183],[134.489708,34.134329],[134.489684,34.134406],[134.489635,34.134574],[134.489585,34.134719],[134.489586,34.134755],[134.489591,34.134767],[134.489605,34.134774],[134.489626,34.13478],[134.48965,34.134785],[134.489675,34.134795],[134.489695,34.134812],[134.48971,34.134836],[134.48972,34.134861],[134.489723,34.134886],[134.489719,34.13491],[134.48971,34.134934],[134.4897,34.134956],[134.489632,34.135115],[134.489417,34.135442],[134.489283,34.135646],[134.488888,34.136164],[134.489475,34.136214],[134.489273,34.136994],[134.489127,34.137636],[134.489087,34.137813],[134.489063,34.138008],[134.489065,34.138137],[134.489108,34.138253],[134.489124,34.138328],[134.489114,34.138451],[134.489089,34.138771],[134.489105,34.139133],[134.489036,34.139259],[134.488989,34.139465]]]},"properties":{"S_NAME":"富吉","KEY_CODE":"364030040"}},{"type":"Feature","geometry":{"type":"Polygon","coordinates":[[[134.516802,34.137706],[134.516461,34.137238],[134.516327,34.137079],[134.516256,34.137042],[134.516134,34.137027],[134.515916,34.13701],[134.515702,34.136988],[134.515608,34.136965],[134.515472,34.136899],[134.514985,34.13658],[134.514856,34.136478],[134.514776,34.136568],[134.514668,34.136684],[134.514511,34.136811],[134.514161,34.137072],[134.513501,34.137526],[134.514072,34.138115],[134.513386,34.138584],[134.51317,34.138325],[134.513167,34.138296],[134.513216,34.138207],[134.513208,34.138181],[134.512999,34.137897],[134.512943,34.137822],[134.512905,34.137789],[134.512859,34.137777],[134.512753,34.137801],[134.512088,34.138016],[134.511618,34.138166],[134.511518,34.138184],[134.511448,34.137427],[134.511305,34.136964],[134.511218,34.136652],[134.511151,34.136512],[134.511179,34.136482],[134.511198,34.136432],[134.511233,34.135885],[134.511267,34.135826],[134.511372,34.135723],[134.511519,34.135591],[134.511926,34.135093],[134.512066,34.134933],[134.512211,34.13461],[134.512268,34.13438],[134.51228,34.134136],[134.512274,34.133637],[134.512273,34.13357],[134.512311,34.133195],[134.512375,34.132848],[134.512439,34.132621],[134.512572,34.132384],[134.512701,34.132167],[134.512818,34.132014],[134.51297,34.131885],[134.513361,34.131667],[134.513147,34.131608],[134.513005,34.130451],[134.512449,34.13042],[134.511893,34.130354],[134.511652,34.13031],[134.511694,34.129949],[134.51172,34.129596],[134.511715,34.129395],[134.511705,34.128969],[134.511644,34.128002],[134.512147,34.128059],[134.512398,34.128073],[134.512823,34.128041],[134.512816,34.127942],[134.512854,34.127154],[134.512886,34.126753],[134.512933,34.126347],[134.512994,34.125688],[134.513001,34.125215],[134.51282,34.125094],[134.512647,34.125095],[134.512615,34.125071],[134.51259,34.124922],[134.512602,34.124325],[134.512866,34.124307],[134.512882,34.124049],[134.512905,34.12404],[134.51304,34.124058],[134.513135,34.124053],[134.513187,34.123812],[134.513245,34.123076],[134.511742,34.123007],[134.511751,34.122272],[134.511813,34.121872],[134.51182,34.121706],[134.511798,34.121181],[134.511957,34.121146],[134.512046,34.121144],[134.512213,34.121105],[134.51235,34.121044],[134.512538,34.120935],[134.512715,34.120811],[134.512738,34.120795],[134.51312,34.120627],[134.51355,34.120438],[134.514808,34.122122],[134.515218,34.122837],[134.515239,34.122881],[134.515544,34.123513],[134.515557,34.123541],[134.515805,34.124048],[134.515908,34.124009],[134.516101,34.123937],[134.516952,34.123605],[134.517017,34.123579],[134.5171,34.123507],[134.517252,34.123375],[134.517311,34.12334],[134.517379,34.123312],[134.517591,34.12327],[134.517687,34.123251],[134.517758,34.123245],[134.518432,34.122978],[134.518769,34.123355],[134.51923,34.123716],[134.519271,34.123681],[134.51997,34.124021],[134.520107,34.124049],[134.520195,34.123999],[134.52023,34.123717],[134.52101,34.124165],[134.521228,34.124219],[134.521496,34.124274],[134.521554,34.124287],[134.522159,34.124381],[134.52278,34.124426],[134.523015,34.124429],[134.52365,34.124439],[134.524194,34.124411],[134.524418,34.124378],[134.524623,34.124347],[134.525011,34.124293],[134.525376,34.124272],[134.525686,34.124255],[134.525919,34.124247],[134.525966,34.124254],[134.52673,34.124372],[134.528401,34.124575],[134.528432,34.124578],[134.52871,34.124615],[134.529148,34.124672],[134.528943,34.12492],[134.528728,34.12486],[134.528617,34.124845],[134.528534,34.1249],[134.528463,34.125163],[134.528423,34.125261],[134.528319,34.125519],[134.528072,34.125743],[134.527968,34.12584],[134.527775,34.126031],[134.527676,34.126157],[134.527709,34.12622],[134.52793,34.126394],[134.528092,34.126693],[134.528358,34.127159],[134.528414,34.127283],[134.528482,34.127429],[134.528758,34.128029],[134.529233,34.128531],[134.529403,34.128714],[134.529866,34.129152],[134.529206,34.129761],[134.529004,34.129975],[134.529111,34.130049],[134.529135,34.130065],[134.529348,34.130249],[134.529681,34.130556],[134.529859,34.130776],[134.529889,34.130813],[134.529925,34.130867],[134.529303,34.131078],[134.529391,34.131229],[134.529458,34.131342],[134.528969,34.131532],[134.527884,34.131968],[134.527113,34.132267],[134.526485,34.132508],[134.525293,34.133035],[134.524672,34.133327],[134.524274,34.133514],[134.523879,34.133736],[134.523062,34.134139],[134.52263,34.134357],[134.522054,34.13466],[134.521999,34.134691],[134.521874,34.134761],[134.521549,34.134949],[134.52137,34.135021],[134.521393,34.135061],[134.521621,34.135467],[134.520617,34.135944],[134.519557,34.13642],[134.518542,34.13681],[134.518531,34.136814],[134.517429,34.137296],[134.516946,34.137534],[134.516848,34.137594],[134.516804,34.137665],[134.516802,34.137706]]]},"properties":{"S_NAME":"勝瑞","KEY_CODE":"364030050"}},{"type":"Feature","geometry":{"type":"Polygon","coordinates":[[[134.511151,34.136512],[134.510835,34.136747],[134.510813,34.136766],[134.510322,34.137196],[134.510155,34.137332],[134.510082,34.13736],[134.509645,34.137431],[134.509219,34.137518],[134.508905,34.137605],[134.508508,34.137709],[134.508399,34.137738],[134.507828,34.137829],[134.507566,34.137859],[134.507332,34.13785],[134.50703,34.137833],[134.506741,34.137782],[134.506292,34.137654],[134.505946,34.137559],[134.505834,34.13751],[134.505752,34.137438],[134.505734,34.137399],[134.505704,34.137332],[134.505357,34.137298],[134.505123,34.13727],[134.504883,34.137224],[134.504733,34.137184],[134.504617,34.137154],[134.503626,34.136871],[134.503177,34.136743],[134.50287,34.136695],[134.502705,34.136691],[134.502263,34.1367],[134.501981,34.136714],[134.501843,34.136704],[134.501547,34.136654],[134.501458,34.13664],[134.501174,34.136605],[134.500743,34.136575],[134.500369,34.13659],[134.500258,34.136607],[134.500138,34.136678],[134.500061,34.136712],[134.499933,34.136716],[134.499661,34.136699],[134.499364,34.136665],[134.499137,34.136639],[134.49897,34.136617],[134.498288,34.136526],[134.497582,34.136387],[134.497283,34.136286],[134.496946,34.136165],[134.496982,34.135956],[134.496897,34.13592],[134.496693,34.135914],[134.496698,34.135519],[134.496714,34.134292],[134.496719,34.133991],[134.496722,34.133818],[134.497337,34.13378],[134.498399,34.133702],[134.498841,34.133668],[134.499616,34.133609],[134.499741,34.133594],[134.499835,34.133584],[134.500095,34.133532],[134.500361,34.133452],[134.500434,34.133411],[134.501277,34.132743],[134.501283,34.13263],[134.501323,34.13248],[134.501415,34.132358],[134.501698,34.131997],[134.501776,34.131898],[134.502182,34.132067],[134.502246,34.132587],[134.502385,34.133201],[134.502624,34.133081],[134.502856,34.13308],[134.504186,34.133121],[134.505079,34.133031],[134.506432,34.132947],[134.506546,34.133992],[134.507276,34.133869],[134.507747,34.133809],[134.508618,34.13372],[134.509068,34.13366],[134.509204,34.133641],[134.510106,34.133503],[134.510514,34.133447],[134.510777,34.133434],[134.511087,34.133435],[134.511641,34.133515],[134.512274,34.133637],[134.51228,34.134136],[134.512268,34.13438],[134.512211,34.13461],[134.512066,34.134933],[134.511926,34.135093],[134.511519,34.135591],[134.511372,34.135723],[134.511267,34.135826],[134.511233,34.135885],[134.511198,34.136432],[134.511179,34.136482],[134.511151,34.136512]]]},"properties":{"S_NAME":"笠木","KEY_CODE":"364030060"}},{"type":"Feature","geometry":{"type":"Polygon","coordinates":[[[134.512274,34.133637],[134.511641,34.133515],[134.511087,34.133435],[134.510777,34.133434],[134.510514,34.133447],[134.510106,34.133503],[134.509204,34.133641],[134.509068,34.13366],[134.508618,34.13372],[134.507747,34.133809],[134.507276,34.133869],[134.506546,34.133992],[134.506432,34.132947],[134.505079,34.133031],[134.504186,34.133121],[134.502856,34.13308],[134.502624,34.133081],[134.502385,34.133201],[134.502246,34.132587],[134.502182,34.132067],[134.501776,34.131898],[134.501925,34.13171],[134.502026,34.131593],[134.502083,34.131503],[134.50212,34.131393],[134.502132,34.131295],[134.502116,34.131061],[134.502008,34.130425],[134.501983,34.130274],[134.501916,34.129754],[134.501908,34.129642],[134.50192,34.129538],[134.502022,34.129158],[134.502055,34.129034],[134.502141,34.128799],[134.502432,34.12815],[134.502625,34.127724],[134.502655,34.12764],[134.502669,34.127585],[134.502658,34.127527],[134.502402,34.126963],[134.502186,34.126601],[134.502146,34.126558],[134.5021,34.126541],[134.501971,34.126499],[134.501912,34.126468],[134.501834,34.126379],[134.501784,34.126186],[134.501713,34.125967],[134.501617,34.1258],[134.501525,34.125662],[134.50148,34.125527],[134.50144,34.125377],[134.501439,34.125362],[134.501436,34.125342],[134.501417,34.125181],[134.501413,34.125085],[134.501423,34.124926],[134.501449,34.124776],[134.501518,34.124522],[134.501479,34.12447],[134.501424,34.124425],[134.500545,34.124037],[134.500412,34.124],[134.500317,34.123988],[134.500067,34.124013],[134.500686,34.123303],[134.500746,34.123235],[134.501445,34.122435],[134.501441,34.12231],[134.501436,34.122147],[134.50144,34.122049],[134.501466,34.12189],[134.501811,34.121291],[134.501945,34.121213],[134.502041,34.121107],[134.502141,34.120945],[134.502212,34.120783],[134.50225,34.120694],[134.503124,34.120742],[134.503657,34.120762],[134.504057,34.120762],[134.505249,34.120723],[134.505475,34.119906],[134.50572,34.118791],[134.505775,34.118438],[134.50609,34.118463],[134.506274,34.118531],[134.506317,34.118544],[134.50673,34.118676],[134.507596,34.118713],[134.508071,34.11869],[134.508178,34.118702],[134.508213,34.11873],[134.508298,34.118931],[134.508717,34.119747],[134.509149,34.120475],[134.509296,34.120429],[134.50951,34.120363],[134.510021,34.120206],[134.510542,34.120093],[134.511147,34.120014],[134.511622,34.119982],[134.511768,34.120584],[134.511797,34.120978],[134.511798,34.121133],[134.511798,34.121181],[134.51182,34.121706],[134.511813,34.121872],[134.511751,34.122272],[134.511742,34.123007],[134.513245,34.123076],[134.513187,34.123812],[134.513135,34.124053],[134.51304,34.124058],[134.512905,34.12404],[134.512882,34.124049],[134.512866,34.124307],[134.512602,34.124325],[134.51259,34.124922],[134.512615,34.125071],[134.512647,34.125095],[134.51282,34.125094],[134.513001,34.125215],[134.512994,34.125688],[134.512933,34.126347],[134.512886,34.126753],[134.512854,34.127154],[134.512816,34.127942],[134.512823,34.128041],[134.512398,34.128073],[134.512147,34.128059],[134.511644,34.128002],[134.511705,34.128969],[134.511715,34.129395],[134.51172,34.129596],[134.511694,34.129949],[134.511652,34.13031],[134.511893,34.130354],[134.512449,34.13042],[134.513005,34.130451],[134.513147,34.131608],[134.513361,34.131667],[134.51297,34.131885],[134.512818,34.132014],[134.512701,34.132167],[134.512572,34.132384],[134.512439,34.132621],[134.512375,34.132848],[134.512311,34.133195],[134.512273,34.13357],[134.512274,34.133637]]]},"properties":{"S_NAME":"住吉","KEY_CODE":"364030070"}},{"type":"Feature","geometry":{"type":"Polygon","coordinates":[[[134.512999,34.137897],[134.512377,34.138357],[134.511396,34.139075],[134.511117,34.139202],[134.510926,34.139281],[134.510637,34.139355],[134.509793,34.13952],[134.509022,34.139676],[134.508623,34.139763],[134.50844,34.139775],[134.508314,34.139759],[134.508028,34.139697],[134.507438,34.139794],[134.507359,34.139807],[134.506227,34.13997],[134.505916,34.140015],[134.505244,34.140075],[134.505106,34.140154],[134.504897,34.140334],[134.504575,34.140577],[134.504413,34.140683],[134.504199,34.140773],[134.504098,34.140817],[134.503887,34.140846],[134.503672,34.140875],[134.503125,34.140883],[134.502954,34.140877],[134.502902,34.140864],[134.502746,34.140825],[134.502407,34.140683],[134.502288,34.140648],[134.502158,34.14061],[134.502118,34.140702],[134.50209,34.140733],[134.50205,34.140743],[134.501956,34.140761],[134.501627,34.140746],[134.500025,34.14054],[134.500124,34.139934],[134.500173,34.139643],[134.50028,34.139129],[134.500107,34.13912],[134.499694,34.1391],[134.499167,34.139019],[134.498931,34.138964],[134.497991,34.138924],[134.497839,34.138927],[134.497387,34.138936],[134.497072,34.138927],[134.496643,34.138915],[134.495966,34.138925],[134.495938,34.138926],[134.495445,34.138905],[134.494686,34.138888],[134.493766,34.138874],[134.493693,34.13863],[134.493349,34.138676],[134.492817,34.138747],[134.492379,34.138902],[134.491979,34.139054],[134.491728,34.139184],[134.491498,34.139355],[134.491377,34.1394],[134.49132,34.139405],[134.491216,34.139685],[134.491186,34.139774],[134.490917,34.139768],[134.490749,34.139757],[134.490638,34.139749],[134.490401,34.139696],[134.490107,34.139619],[134.489762,34.139494],[134.489659,34.139468],[134.489446,34.139467],[134.488989,34.139465],[134.489036,34.139259],[134.489105,34.139133],[134.489089,34.138771],[134.489114,34.138451],[134.489124,34.138328],[134.489108,34.138253],[134.489065,34.138137],[134.489063,34.138008],[134.489087,34.137813],[134.489127,34.137636],[134.489273,34.136994],[134.489475,34.136214],[134.488888,34.136164],[134.489283,34.135646],[134.489417,34.135442],[134.489632,34.135115],[134.4897,34.134956],[134.48971,34.134934],[134.489719,34.13491],[134.489723,34.134886],[134.48972,34.134861],[134.48971,34.134836],[134.489695,34.134812],[134.489675,34.134795],[134.48965,34.134785],[134.489626,34.13478],[134.489605,34.134774],[134.489591,34.134767],[134.489586,34.134755],[134.489585,34.134719],[134.489635,34.134574],[134.489684,34.134406],[134.489708,34.134329],[134.489752,34.134183],[134.48979,34.134101],[134.489808,34.134073],[134.489832,34.134043],[134.489861,34.134011],[134.48989,34.133979],[134.489916,34.133942],[134.489939,34.133906],[134.489957,34.133867],[134.489972,34.133828],[134.48998,34.133789],[134.489985,34.133749],[134.489984,34.133711],[134.489979,34.133674],[134.489971,34.13364],[134.48996,34.133607],[134.489948,34.133575],[134.489938,34.133545],[134.48993,34.133518],[134.489915,34.133461],[134.489893,34.133285],[134.489875,34.133131],[134.489856,34.132897],[134.489863,34.132649],[134.489907,34.132149],[134.49,34.132138],[134.490054,34.132135],[134.490114,34.13213],[134.490177,34.132119],[134.490236,34.132108],[134.490283,34.132094],[134.490324,34.132079],[134.490365,34.132065],[134.49041,34.132052],[134.490458,34.132041],[134.49051,34.132033],[134.490563,34.13203],[134.490614,34.132031],[134.490665,34.132033],[134.490717,34.132036],[134.490771,34.132038],[134.490828,34.132036],[134.490946,34.132028],[134.491057,34.132019],[134.491075,34.132136],[134.491169,34.13214],[134.491247,34.132115],[134.49124,34.131999],[134.491347,34.131985],[134.491359,34.131991],[134.491372,34.131997],[134.491388,34.131998],[134.491407,34.131996],[134.491432,34.131987],[134.491459,34.131976],[134.491491,34.131966],[134.491522,34.131956],[134.491552,34.131947],[134.491579,34.131939],[134.4916,34.131929],[134.491616,34.131917],[134.491632,34.131905],[134.491652,34.131893],[134.49168,34.13188],[134.491719,34.131867],[134.491765,34.131854],[134.491818,34.131839],[134.491876,34.131822],[134.491937,34.131803],[134.492002,34.13178],[134.492066,34.131752],[134.492128,34.131723],[134.492187,34.131695],[134.492237,34.131671],[134.492282,34.131653],[134.492319,34.131638],[134.492352,34.131625],[134.492378,34.131614],[134.4924,34.131603],[134.492421,34.131593],[134.492441,34.131583],[134.492462,34.131571],[134.492485,34.13156],[134.492516,34.131548],[134.492551,34.131534],[134.492593,34.13152],[134.492639,34.131504],[134.492685,34.131486],[134.492731,34.131465],[134.492777,34.131442],[134.492819,34.131416],[134.492856,34.131389],[134.492894,34.131362],[134.49293,34.131339],[134.49297,34.131319],[134.493014,34.131305],[134.493057,34.131293],[134.4931,34.13128],[134.493141,34.131262],[134.493182,34.131242],[134.493228,34.131216],[134.493281,34.131186],[134.493341,34.131152],[134.493405,34.131116],[134.493469,34.131079],[134.49353,34.131043],[134.493586,34.131009],[134.493611,34.130995],[134.493636,34.13098],[134.493681,34.130957],[134.493717,34.130938],[134.493751,34.130922],[134.493783,34.130904],[134.493814,34.130886],[134.493846,34.130868],[134.493878,34.130852],[134.493908,34.130842],[134.493937,34.130836],[134.493964,34.130833],[134.493823,34.130635],[134.493653,34.130405],[134.493908,34.130287],[134.494467,34.130019],[134.494964,34.129756],[134.495389,34.12949],[134.495596,34.129683],[134.496042,34.129383],[134.496274,34.12916],[134.496556,34.12884],[134.496959,34.129562],[134.496968,34.129383],[134.496999,34.129285],[134.497088,34.12915],[134.497113,34.129114],[134.497122,34.129099],[134.497295,34.128827],[134.497467,34.128555],[134.497506,34.128518],[134.497735,34.128304],[134.497802,34.128242],[134.49793,34.128173],[134.498043,34.128075],[134.498434,34.127639],[134.498665,34.127363],[134.49891,34.12687],[134.499075,34.126325],[134.499233,34.125948],[134.499612,34.125341],[134.499819,34.124926],[134.499983,34.124445],[134.499985,34.124106],[134.500067,34.124013],[134.500317,34.123988],[134.500412,34.124],[134.500545,34.124037],[134.501424,34.124425],[134.501479,34.12447],[134.501518,34.124522],[134.501449,34.124776],[134.501423,34.124926],[134.501413,34.125085],[134.501417,34.125181],[134.501436,34.125342],[134.501439,34.125362],[134.50144,34.125377],[134.50148,34.125527],[134.501525,34.125662],[134.501617,34.1258],[134.501713,34.125967],[134.501784,34.126186],[134.501834,34.126379],[134.501912,34.126468],[134.501971,34.126499],[134.5021,34.126541],[134.502146,34.126558],[134.502186,34.126601],[134.502402,34.126963],[134.502658,34.127527],[134.502669,34.127585],[134.502655,34.12764],[134.502625,34.127724],[134.502432,34.12815],[134.502141,34.128799],[134.502055,34.129034],[134.502022,34.129158],[134.50192,34.129538],[134.501908,34.129642],[134.501916,34.129754],[134.501983,34.130274],[134.502008,34.130425],[134.502116,34.131061],[134.502132,34.131295],[134.50212,34.131393],[134.502083,34.131503],[134.502026,34.131593],[134.501925,34.13171],[134.501776,34.131898],[134.501698,34.131997],[134.501415,34.132358],[134.501323,34.13248],[134.501283,34.13263],[134.501277,34.132743],[134.500434,34.133411],[134.500361,34.133452],[134.500095,34.133532],[134.499835,34.133584],[134.499741,34.133594],[134.499616,34.133609],[134.498841,34.133668],[134.498399,34.133702],[134.497337,34.13378],[134.496722,34.133818],[134.496719,34.133991],[134.496714,34.134292],[134.496698,34.135519],[134.496693,34.135914],[134.496897,34.13592],[134.496982,34.135956],[134.496946,34.136165],[134.497283,34.136286],[134.497582,34.136387],[134.498288,34.136526],[134.49897,34.136617],[134.499137,34.136639],[134.499364,34.136665],[134.499661,34.136699],[134.499933,34.136716],[134.500061,34.136712],[134.500138,34.136678],[134.500258,34.136607],[134.500369,34.13659],[134.500743,34.136575],[134.501174,34.136605],[134.501458,34.13664],[134.501547,34.136654],[134.501843,34.136704],[134.501981,34.136714],[134.502263,34.1367],[134.502705,34.136691],[134.50287,34.136695],[134.503177,34.136743],[134.503626,34.136871],[134.504617,34.137154],[134.504733,34.137184],[134.504883,34.137224],[134.505123,34.13727],[134.505357,34.137298],[134.505704,34.137332],[134.505734,34.137399],[134.505752,34.137438],[134.505834,34.13751],[134.505946,34.137559],[134.506292,34.137654],[134.506741,34.137782],[134.50703,34.137833],[134.507332,34.13785],[134.507566,34.137859],[134.507828,34.137829],[134.508399,34.137738],[134.508508,34.137709],[134.508905,34.137605],[134.509219,34.137518],[134.509645,34.137431],[134.510082,34.13736],[134.510155,34.137332],[134.510322,34.137196],[134.510813,34.136766],[134.510835,34.136747],[134.511151,34.136512],[134.511218,34.136652],[134.511305,34.136964],[134.511448,34.137427],[134.511518,34.138184],[134.511618,34.138166],[134.512088,34.138016],[134.512753,34.137801],[134.512859,34.137777],[134.512905,34.137789],[134.512943,34.137822],[134.512999,34.137897]]]},"properties":{"S_NAME":"矢上","KEY_CODE":"364030080"}},{"type":"Feature","geometry":{"type":"Polygon","coordinates":[[[134.516802,34.137706],[134.516802,34.137724],[134.516833,34.137801],[134.516845,34.13842],[134.516867,34.13856],[134.516946,34.138875],[134.517,34.139099],[134.517032,34.139428],[134.517032,34.139429],[134.517035,34.139452],[134.517036,34.139461],[134.516915,34.139488],[134.516799,34.139514],[134.516798,34.139514],[134.516786,34.139516],[134.516715,34.13953],[134.516694,34.139534],[134.516382,34.139594],[134.516381,34.139594],[134.516369,34.139597],[134.516365,34.139598],[134.516363,34.139598],[134.516325,34.139594],[134.516324,34.139594],[134.516218,34.139587],[134.516143,34.139599],[134.516043,34.139621],[134.516041,34.139622],[134.51604,34.139622],[134.516037,34.139623],[134.516028,34.139625],[134.516022,34.139626],[134.516012,34.139628],[134.515999,34.139631],[134.515989,34.139633],[134.515977,34.139636],[134.515965,34.139638],[134.51584,34.139644],[134.51579,34.139648],[134.515787,34.139649],[134.515783,34.139649],[134.515766,34.13965],[134.515711,34.139655],[134.515673,34.13966],[134.51564,34.139666],[134.515633,34.139667],[134.515632,34.139667],[134.515598,34.139674],[134.515306,34.139758],[134.515262,34.13977],[134.515168,34.139797],[134.515164,34.139798],[134.515152,34.139801],[134.515143,34.139804],[134.515135,34.139806],[134.515094,34.139818],[134.514919,34.139868],[134.514752,34.139916],[134.514688,34.139934],[134.514651,34.139945],[134.514613,34.139956],[134.514569,34.139969],[134.514568,34.139969],[134.514429,34.140009],[134.51442,34.140012],[134.51441,34.140015],[134.514398,34.140018],[134.514386,34.140021],[134.514369,34.140026],[134.514352,34.140031],[134.51433,34.140037],[134.514318,34.140041],[134.514305,34.140045],[134.514295,34.140047],[134.514285,34.14005],[134.514275,34.140053],[134.514261,34.140057],[134.514251,34.14006],[134.514235,34.140065],[134.514226,34.140067],[134.514218,34.140069],[134.514206,34.140073],[134.514191,34.140077],[134.514178,34.140081],[134.514166,34.140085],[134.514152,34.140089],[134.51407,34.140112],[134.514072,34.140118],[134.514176,34.14064],[134.514179,34.140642],[134.51429,34.141186],[134.514088,34.141229],[134.513937,34.141261],[134.513601,34.141354],[134.513599,34.141354],[134.513567,34.141363],[134.513545,34.14137],[134.513417,34.141405],[134.513328,34.14143],[134.513299,34.141438],[134.513223,34.14146],[134.513221,34.14146],[134.513185,34.14147],[134.513026,34.141514],[134.512751,34.141591],[134.512733,34.141595],[134.512726,34.141598],[134.512725,34.141598],[134.512705,34.141603],[134.51263,34.141623],[134.512616,34.141627],[134.512579,34.141637],[134.512568,34.14164],[134.511836,34.141837],[134.511835,34.141838],[134.511649,34.141889],[134.511648,34.142313],[134.511148,34.142324],[134.511027,34.142377],[134.510919,34.142423],[134.510853,34.142452],[134.510833,34.142461],[134.510829,34.142462],[134.510828,34.142463],[134.510819,34.142467],[134.510801,34.142474],[134.510113,34.142766],[134.510109,34.142767],[134.509184,34.143143],[134.508494,34.143366],[134.50701,34.143572],[134.506461,34.143618],[134.506136,34.143678],[134.505869,34.143705],[134.505458,34.143767],[134.504871,34.143811],[134.504396,34.143845],[134.50412,34.143862],[134.503698,34.143893],[134.503394,34.143907],[134.50333,34.14304],[134.503325,34.14304],[134.502859,34.143117],[134.502631,34.143159],[134.502536,34.143176],[134.502528,34.143178],[134.502523,34.143178],[134.502514,34.14318],[134.502508,34.143181],[134.502502,34.143182],[134.502497,34.143183],[134.502234,34.14323],[134.502032,34.143261],[134.501947,34.143279],[134.501731,34.143364],[134.501667,34.143391],[134.50158,34.143413],[134.50149,34.143418],[134.501254,34.143412],[134.501103,34.143404],[134.50091,34.143418],[134.500734,34.143442],[134.500548,34.14348],[134.500342,34.143534],[134.500171,34.143582],[134.499785,34.143753],[134.499725,34.14378],[134.499704,34.143789],[134.499692,34.143795],[134.499684,34.143798],[134.499679,34.143801],[134.49967,34.143804],[134.49966,34.143809],[134.499653,34.143812],[134.499646,34.143815],[134.499644,34.143816],[134.499636,34.143819],[134.499626,34.143824],[134.49962,34.143827],[134.499615,34.143829],[134.499609,34.143831],[134.499608,34.143832],[134.499606,34.143833],[134.499605,34.143833],[134.499587,34.143841],[134.499576,34.143847],[134.499562,34.143853],[134.49955,34.143859],[134.499539,34.143863],[134.499527,34.143869],[134.499526,34.143869],[134.499442,34.143909],[134.49938,34.143876],[134.499122,34.14374],[134.499015,34.143683],[134.498992,34.143671],[134.498832,34.143586],[134.498803,34.143571],[134.498788,34.143563],[134.49874,34.143538],[134.49871,34.143522],[134.498661,34.143496],[134.498622,34.143475],[134.498617,34.143473],[134.498391,34.143354],[134.498341,34.143409],[134.498321,34.143432],[134.498309,34.143446],[134.498308,34.143448],[134.498307,34.14345],[134.498305,34.143451],[134.498301,34.143458],[134.498295,34.143465],[134.498291,34.14347],[134.498287,34.143476],[134.498282,34.143482],[134.498279,34.143486],[134.498277,34.143489],[134.498264,34.143506],[134.498258,34.143514],[134.498257,34.143516],[134.498255,34.143519],[134.498254,34.143519],[134.498253,34.14352],[134.49825,34.143524],[134.498246,34.143531],[134.498239,34.14354],[134.498234,34.143547],[134.498231,34.143551],[134.498227,34.143556],[134.498225,34.143559],[134.498222,34.143564],[134.498219,34.143568],[134.498216,34.143571],[134.498214,34.143574],[134.498201,34.143592],[134.498199,34.143594],[134.498198,34.143596],[134.498172,34.143634],[134.498154,34.143659],[134.498127,34.143698],[134.498126,34.1437],[134.498125,34.1437],[134.49812,34.143707],[134.498072,34.143772],[134.498071,34.143775],[134.497997,34.143873],[134.497985,34.14389],[134.497905,34.143997],[134.497868,34.144047],[134.497865,34.144051],[134.497861,34.144056],[134.497858,34.144061],[134.497852,34.144068],[134.497837,34.14409],[134.497812,34.144124],[134.497804,34.144136],[134.497752,34.144208],[134.497747,34.144215],[134.497745,34.144217],[134.497743,34.144219],[134.49774,34.144224],[134.497739,34.144225],[134.497733,34.144234],[134.497711,34.144263],[134.497692,34.144288],[134.497671,34.144317],[134.497661,34.14433],[134.49765,34.144345],[134.497641,34.144357],[134.497638,34.144362],[134.497565,34.144461],[134.497561,34.144466],[134.497474,34.144584],[134.497472,34.144587],[134.497464,34.144598],[134.497457,34.144607],[134.497395,34.14469],[134.497381,34.14471],[134.497349,34.144753],[134.497349,34.144757],[134.49721,34.144917],[134.496883,34.145213],[134.496828,34.145254],[134.496164,34.145742],[134.495832,34.145971],[134.495322,34.14627],[134.494971,34.145445],[134.494106,34.145831],[134.493633,34.146096],[134.492845,34.146417],[134.491787,34.146699],[134.491548,34.146766],[134.490693,34.147027],[134.490324,34.147264],[134.490188,34.147155],[134.489865,34.146736],[134.489818,34.146614],[134.489817,34.146523],[134.489902,34.146195],[134.490014,34.145786],[134.490146,34.145351],[134.490164,34.145156],[134.490163,34.144754],[134.490153,34.144508],[134.49015,34.14443],[134.490098,34.144188],[134.490066,34.144075],[134.489943,34.143872],[134.489836,34.143667],[134.489612,34.14324],[134.48953,34.142984],[134.48951,34.14292],[134.48944,34.142776],[134.489356,34.142651],[134.489271,34.142557],[134.48924,34.142495],[134.489187,34.141942],[134.489151,34.141748],[134.489138,34.141681],[134.489115,34.141612],[134.489027,34.141352],[134.489026,34.14135],[134.488936,34.141064],[134.488901,34.140829],[134.488891,34.140692],[134.488875,34.140492],[134.488876,34.140276],[134.488971,34.139542],[134.488989,34.139465],[134.489446,34.139467],[134.489659,34.139468],[134.489762,34.139494],[134.490107,34.139619],[134.490401,34.139696],[134.490638,34.139749],[134.490749,34.139757],[134.490917,34.139768],[134.491186,34.139774],[134.491216,34.139685],[134.49132,34.139405],[134.491377,34.1394],[134.491498,34.139355],[134.491728,34.139184],[134.491979,34.139054],[134.492379,34.138902],[134.492817,34.138747],[134.493349,34.138676],[134.493693,34.13863],[134.493766,34.138874],[134.494686,34.138888],[134.495445,34.138905],[134.495938,34.138926],[134.495966,34.138925],[134.496643,34.138915],[134.497072,34.138927],[134.497387,34.138936],[134.497839,34.138927],[134.497991,34.138924],[134.498931,34.138964],[134.499167,34.139019],[134.499694,34.1391],[134.500107,34.13912],[134.50028,34.139129],[134.500173,34.139643],[134.500124,34.139934],[134.500025,34.14054],[134.501627,34.140746],[134.501956,34.140761],[134.50205,34.140743],[134.50209,34.140733],[134.502118,34.140702],[134.502158,34.14061],[134.502288,34.140648],[134.502407,34.140683],[134.502746,34.140825],[134.502902,34.140864],[134.502954,34.140877],[134.503125,34.140883],[134.503672,34.140875],[134.503887,34.140846],[134.504098,34.140817],[134.504199,34.140773],[134.504413,34.140683],[134.504575,34.140577],[134.504897,34.140334],[134.505106,34.140154],[134.505244,34.140075],[134.505916,34.140015],[134.506227,34.13997],[134.507359,34.139807],[134.507438,34.139794],[134.508028,34.139697],[134.508314,34.139759],[134.50844,34.139775],[134.508623,34.139763],[134.509022,34.139676],[134.509793,34.13952],[134.510637,34.139355],[134.510926,34.139281],[134.511117,34.139202],[134.511396,34.139075],[134.512377,34.138357],[134.512999,34.137897],[134.513208,34.138181],[134.513216,34.138207],[134.513167,34.138296],[134.51317,34.138325],[134.513386,34.138584],[134.514072,34.138115],[134.513501,34.137526],[134.514161,34.137072],[134.514511,34.136811],[134.514668,34.136684],[134.514776,34.136568],[134.514856,34.136478],[134.514985,34.13658],[134.515472,34.136899],[134.515608,34.136965],[134.515702,34.136988],[134.515916,34.13701],[134.516134,34.137027],[134.516256,34.137042],[134.516327,34.137079],[134.516461,34.137238],[134.516802,34.137706]]]},"properties":{"S_NAME":"乙瀬","KEY_CODE":"364030090"}}]}